"onspostcodenospaces","X","Y","objectid","pcd2","hospcode","hospname","postcode","obs1url","ind1url","mortalityvalue","obs2url","ind2url","recommendvalue"
"AL35PN",-0.343939717209899,51.7600796278445,42903,"AL3  5PN","http://nhs.publishmydata.com/id/organisation/nacs/RWG03","St Albans City Hospital","AL3 5PN","http://nhs.publishmydata.com/data/metric/96/year/2016/RWG03","http://nhs.publishmydata.com/data/metric/96",0.9378,"http://nhs.publishmydata.com/data/metric/182/year/2016/RWG03","http://nhs.publishmydata.com/data/metric/182",54
"AL54TA",-0.352934756080859,51.8190590056918,45827,"AL5  4TA","http://nhs.publishmydata.com/id/organisation/nacs/RWG05","Harpenden Memorial Hospital","AL5 4TA","http://nhs.publishmydata.com/data/metric/96/year/2016/RWG05","http://nhs.publishmydata.com/data/metric/96",0.9378,"http://nhs.publishmydata.com/data/metric/182/year/2016/RWG05","http://nhs.publishmydata.com/data/metric/182",54
"AL74HQ",-0.187675830282042,51.782835386294,47939,"AL7  4HQ","http://nhs.publishmydata.com/id/organisation/nacs/RWH20","Queen Elizabeth I I Hospital","AL7 4HQ","http://nhs.publishmydata.com/data/metric/96/year/2016/RWH20","http://nhs.publishmydata.com/data/metric/96",1.0969,"http://nhs.publishmydata.com/data/metric/182/year/2016/RWH20","http://nhs.publishmydata.com/data/metric/182",67
"B152TH",-1.9384704681576,52.4531978906924,55028,"B15  2TH","http://nhs.publishmydata.com/id/organisation/nacs/RRK02","Queen Elizabeth Hospital","B15 2TH","http://nhs.publishmydata.com/data/metric/96/year/2016/RRK02","http://nhs.publishmydata.com/data/metric/96",1.0269,"http://nhs.publishmydata.com/data/metric/182/year/2016/RRK02","http://nhs.publishmydata.com/data/metric/182",82
"B152WB",-1.94177059049577,52.4501609367015,55062,"B15  2WB","http://nhs.publishmydata.com/id/organisation/nacs/RRK15","Queen Elizabeth Hospital Birmingham","B15 2WB","http://nhs.publishmydata.com/data/metric/96/year/2016/RRK15","http://nhs.publishmydata.com/data/metric/96",1.0269,"http://nhs.publishmydata.com/data/metric/182/year/2016/RRK15","http://nhs.publishmydata.com/data/metric/182",82
"B187QH",-1.93250107603604,52.4886423294683,57968,"B18  7QH","http://nhs.publishmydata.com/id/organisation/nacs/RXK02","City Hospital","B18 7QH","http://nhs.publishmydata.com/data/metric/96/year/2016/RXK02","http://nhs.publishmydata.com/data/metric/96",0.9927,"http://nhs.publishmydata.com/data/metric/182/year/2016/RXK02","http://nhs.publishmydata.com/data/metric/182",61
"B658DA",-2.05379791472769,52.4812507803844,86536,"B65  8DA","http://nhs.publishmydata.com/id/organisation/nacs/RXK10","Rowley Regis Hospital","B65 8DA","http://nhs.publishmydata.com/data/metric/96/year/2016/RXK10","http://nhs.publishmydata.com/data/metric/96",0.9927,"http://nhs.publishmydata.com/data/metric/182/year/2016/RXK10","http://nhs.publishmydata.com/data/metric/182",61
"B714HJ",-1.98787868380593,52.5273719178143,92815,"B71  4HJ","http://nhs.publishmydata.com/id/organisation/nacs/RXK01","Sandwell District General Hospital","B71 4HJ","http://nhs.publishmydata.com/data/metric/96/year/2016/RXK01","http://nhs.publishmydata.com/data/metric/96",0.9927,"http://nhs.publishmydata.com/data/metric/182/year/2016/RXK01","http://nhs.publishmydata.com/data/metric/182",61
"B757RR",-1.81203622156876,52.5673815560149,95999,"B75  7RR","http://nhs.publishmydata.com/id/organisation/nacs/RR106","Good Hope Hospital Treatment Centre","B75 7RR","http://nhs.publishmydata.com/data/metric/96/year/2016/RR106","http://nhs.publishmydata.com/data/metric/96",0.9759,"http://nhs.publishmydata.com/data/metric/182/year/2016/RR106","http://nhs.publishmydata.com/data/metric/182",55
"B757RR",-1.81203622156876,52.5673815560149,95999,"B75  7RR","http://nhs.publishmydata.com/id/organisation/nacs/RR105","Good Hope Hospital","B75 7RR","http://nhs.publishmydata.com/data/metric/96/year/2016/RR105","http://nhs.publishmydata.com/data/metric/96",0.9759,"http://nhs.publishmydata.com/data/metric/182/year/2016/RR105","http://nhs.publishmydata.com/data/metric/182",55
"B783NG",-1.72386041422216,52.6206818372256,99018,"B78  3NG","http://nhs.publishmydata.com/id/organisation/nacs/RJF05","Sir Robert Peel Hospital","B78 3NG","http://nhs.publishmydata.com/data/metric/96/year/2016/RJF05","http://nhs.publishmydata.com/data/metric/96",0.9653,"http://nhs.publishmydata.com/data/metric/182/year/2016/RJF05","http://nhs.publishmydata.com/data/metric/182",70
"B912JL",-1.77435822442313,52.4171379428757,103608,"B91  2JL","http://nhs.publishmydata.com/id/organisation/nacs/RR109","Solihull Hospital","B91 2JL","http://nhs.publishmydata.com/data/metric/96/year/2016/RR109","http://nhs.publishmydata.com/data/metric/96",0.9759,"http://nhs.publishmydata.com/data/metric/182/year/2016/RR109","http://nhs.publishmydata.com/data/metric/182",55
"B95SS",-1.82996032781521,52.4802325270148,101505,"B9   5SS","http://nhs.publishmydata.com/id/organisation/nacs/RR101","Heartlands Hospital","B9 5SS","http://nhs.publishmydata.com/data/metric/96/year/2016/RR101","http://nhs.publishmydata.com/data/metric/96",0.9759,"http://nhs.publishmydata.com/data/metric/182/year/2016/RR101","http://nhs.publishmydata.com/data/metric/182",55
"B987UB",-1.91211865849064,52.2797882426445,109099,"B98  7UB","http://nhs.publishmydata.com/id/organisation/nacs/RWP01","Alexandra Hospital","B98 7UB","http://nhs.publishmydata.com/data/metric/96/year/2016/RWP01","http://nhs.publishmydata.com/data/metric/96",1.1257,"http://nhs.publishmydata.com/data/metric/182/year/2016/RWP01","http://nhs.publishmydata.com/data/metric/182",56
"BA11RL",-2.36143476965355,51.3822535191339,110225,"BA1  1RL","http://nhs.publishmydata.com/id/organisation/nacs/RD115","Royal National Mineral Hospital For Rheumatic Diseases NHS Foundation Trust","BA1 1RL","http://nhs.publishmydata.com/data/metric/96/year/2016/RD115","http://nhs.publishmydata.com/data/metric/96",0.9741,"http://nhs.publishmydata.com/data/metric/182/year/2016/RD115","http://nhs.publishmydata.com/data/metric/182",75
"BA11RL",-2.36143476965355,51.3822535191339,110225,"BA1  1RL","http://nhs.publishmydata.com/id/organisation/nacs/RBB01","Royal National Hospital For Rheumatic Diseases","BA1 1RL","http://nhs.publishmydata.com/data/metric/96/year/2016/RBB01","http://nhs.publishmydata.com/data/metric/96",0.9741,"http://nhs.publishmydata.com/data/metric/182/year/2016/RBB01","http://nhs.publishmydata.com/data/metric/182",75
"BA128QS",-2.18170961851546,51.2066992380324,114724,"BA12 8QS","http://nhs.publishmydata.com/id/organisation/nacs/RN3C5","Warminster Community Hospital","BA12 8QS","http://nhs.publishmydata.com/data/metric/96/year/2016/RN3C5","http://nhs.publishmydata.com/data/metric/96",0.9466,"http://nhs.publishmydata.com/data/metric/182/year/2016/RN3C5","http://nhs.publishmydata.com/data/metric/182",70
"BA13NG",-2.39121635109446,51.3916620614208,110904,"BA1  3NG","http://nhs.publishmydata.com/id/organisation/nacs/RD130","Royal United Hospital","BA1 3NG","http://nhs.publishmydata.com/data/metric/96/year/2016/RD130","http://nhs.publishmydata.com/data/metric/96",0.9741,"http://nhs.publishmydata.com/data/metric/182/year/2016/RD130","http://nhs.publishmydata.com/data/metric/182",75
"BA148PH",-2.20987867196081,51.3252921122712,117083,"BA14 8PH","http://nhs.publishmydata.com/id/organisation/nacs/RN334","Trowbridge Community Hospital","BA14 8PH","http://nhs.publishmydata.com/data/metric/96/year/2016/RN334","http://nhs.publishmydata.com/data/metric/96",0.9466,"http://nhs.publishmydata.com/data/metric/182/year/2016/RN334","http://nhs.publishmydata.com/data/metric/182",70
"BA214AT",-2.63471263001935,50.9448354962323,122339,"BA21 4AT","http://nhs.publishmydata.com/id/organisation/nacs/RA430","Yeovil District Hospital","BA21 4AT","http://nhs.publishmydata.com/data/metric/96/year/2016/RA430","http://nhs.publishmydata.com/data/metric/96",1.0184,"http://nhs.publishmydata.com/data/metric/182/year/2016/RA430","http://nhs.publishmydata.com/data/metric/182",68
"BB102PQ",-2.22787992848512,53.8104378374645,131538,"BB10 2PQ","http://nhs.publishmydata.com/id/organisation/nacs/RXR10","Burnley General Hospital","BB10 2PQ","http://nhs.publishmydata.com/data/metric/96/year/2016/RXR10","http://nhs.publishmydata.com/data/metric/96",1.0635,"http://nhs.publishmydata.com/data/metric/182/year/2016/RXR10","http://nhs.publishmydata.com/data/metric/182",69
"BB23HH",-2.46271434647164,53.735574893405,135954,"BB2  3HH","http://nhs.publishmydata.com/id/organisation/nacs/RXR20","Royal Blackburn Hospital","BB2 3HH","http://nhs.publishmydata.com/data/metric/96/year/2016/RXR20","http://nhs.publishmydata.com/data/metric/96",1.0635,"http://nhs.publishmydata.com/data/metric/182/year/2016/RXR20","http://nhs.publishmydata.com/data/metric/182",69
"BB56AS",-2.3669207337694,53.7595987222138,141920,"BB5  6AS","http://nhs.publishmydata.com/id/organisation/nacs/RXR60","Accrington Victoria Hospital","BB5 6AS","http://nhs.publishmydata.com/data/metric/96/year/2016/RXR60","http://nhs.publishmydata.com/data/metric/96",1.0635,"http://nhs.publishmydata.com/data/metric/182/year/2016/RXR60","http://nhs.publishmydata.com/data/metric/182",69
"BB74JX",-2.36601392526202,53.8852972374024,143823,"BB7  4JX","http://nhs.publishmydata.com/id/organisation/nacs/RXR70","Clitheroe Community Hospital","BB7 4JX","http://nhs.publishmydata.com/data/metric/96/year/2016/RXR70","http://nhs.publishmydata.com/data/metric/96",1.0635,"http://nhs.publishmydata.com/data/metric/182/year/2016/RXR70","http://nhs.publishmydata.com/data/metric/182",69
"BB99SZ",-2.21399906021342,53.8369958073121,147553,"BB9  9SZ","http://nhs.publishmydata.com/id/organisation/nacs/RXR50","Pendle Community Hospital","BB9 9SZ","http://nhs.publishmydata.com/data/metric/96/year/2016/RXR50","http://nhs.publishmydata.com/data/metric/96",1.0635,"http://nhs.publishmydata.com/data/metric/182/year/2016/RXR50","http://nhs.publishmydata.com/data/metric/182",69
"BD100JE",-1.7124009590645,53.8236316669417,149275,"BD10 0JE","http://nhs.publishmydata.com/id/organisation/nacs/RAE4H","Eccleshill Community Hospital","BD10 0JE","http://nhs.publishmydata.com/data/metric/96/year/2016/RAE4H","http://nhs.publishmydata.com/data/metric/96",0.9465,"http://nhs.publishmydata.com/data/metric/182/year/2016/RAE4H","http://nhs.publishmydata.com/data/metric/182",66
"BD183LT",-1.78628423362525,53.8334476140828,155539,"BD18 3LT","http://nhs.publishmydata.com/id/organisation/nacs/RAE2H","Shipley Hospital","BD18 3LT","http://nhs.publishmydata.com/data/metric/96/year/2016/RAE2H","http://nhs.publishmydata.com/data/metric/96",0.9465,"http://nhs.publishmydata.com/data/metric/182/year/2016/RAE2H","http://nhs.publishmydata.com/data/metric/182",66
"BD206TD",-1.96269789104044,53.8980290060559,158561,"BD20 6TD","http://nhs.publishmydata.com/id/organisation/nacs/RCF22","Airedale General Hospital","BD20 6TD","http://nhs.publishmydata.com/data/metric/96/year/2016/RCF22","http://nhs.publishmydata.com/data/metric/96",0.9074,"http://nhs.publishmydata.com/data/metric/182/year/2016/RCF22","http://nhs.publishmydata.com/data/metric/182",76
"BD232RJ",-2.01901652559721,53.9557077541268,162384,"BD23 2RJ","http://nhs.publishmydata.com/id/organisation/nacs/RCF31","Skipton General Hospital","BD23 2RJ","http://nhs.publishmydata.com/data/metric/96/year/2016/RCF31","http://nhs.publishmydata.com/data/metric/96",0.9074,"http://nhs.publishmydata.com/data/metric/182/year/2016/RCF31","http://nhs.publishmydata.com/data/metric/182",76
"BD240BN",-2.2922106799796,54.0695580625948,163617,"BD24 0BN","http://nhs.publishmydata.com/id/organisation/nacs/RCF30","Castleberg Hospital","BD24 0BN","http://nhs.publishmydata.com/data/metric/96/year/2016/RCF30","http://nhs.publishmydata.com/data/metric/96",0.9074,"http://nhs.publishmydata.com/data/metric/182/year/2016/RCF30","http://nhs.publishmydata.com/data/metric/182",76
"BD50NA",-1.76099597623208,53.7834988321966,166246,"BD5  0NA","http://nhs.publishmydata.com/id/organisation/nacs/RAE05","St Lukes Hospital","BD5 0NA","http://nhs.publishmydata.com/data/metric/96/year/2016/RAE05","http://nhs.publishmydata.com/data/metric/96",0.9465,"http://nhs.publishmydata.com/data/metric/182/year/2016/RAE05","http://nhs.publishmydata.com/data/metric/182",66
"BD88RA",-1.77624364431955,53.8073102796868,169557,"BD8  8RA","http://nhs.publishmydata.com/id/organisation/nacs/RAE5H","Westbourne Green Community Hospital","BD8 8RA","http://nhs.publishmydata.com/data/metric/96/year/2016/RAE5H","http://nhs.publishmydata.com/data/metric/96",0.9465,"http://nhs.publishmydata.com/data/metric/182/year/2016/RAE5H","http://nhs.publishmydata.com/data/metric/182",66
"BD96RJ",-1.79469979601992,53.8059949465912,170485,"BD9  6RJ","http://nhs.publishmydata.com/id/organisation/nacs/RAE01","Bradford Royal Infirmary","BD9 6RJ","http://nhs.publishmydata.com/data/metric/96/year/2016/RAE01","http://nhs.publishmydata.com/data/metric/96",0.9465,"http://nhs.publishmydata.com/data/metric/182/year/2016/RAE01","http://nhs.publishmydata.com/data/metric/182",66
"BH152JB",-1.97310958338798,50.7219772755431,176184,"BH15 2JB","http://nhs.publishmydata.com/id/organisation/nacs/RD304","Poole Hospital","BH15 2JB","http://nhs.publishmydata.com/data/metric/96/year/2016/RD304","http://nhs.publishmydata.com/data/metric/96",0.9172,"http://nhs.publishmydata.com/data/metric/182/year/2016/RD304","http://nhs.publishmydata.com/data/metric/182",81
"BH232JX",-1.79014801609469,50.7451547971225,184085,"BH23 2JX","http://nhs.publishmydata.com/id/organisation/nacs/RDZ05","Christchurch Hospital","BH23 2JX","http://nhs.publishmydata.com/data/metric/96/year/2016/RDZ05","http://nhs.publishmydata.com/data/metric/96",0.9843,"http://nhs.publishmydata.com/data/metric/182/year/2016/RDZ05","http://nhs.publishmydata.com/data/metric/182",75
"BH77DW",-1.82051215765579,50.7474717968286,190463,"BH7  7DW","http://nhs.publishmydata.com/id/organisation/nacs/RDZ20","Royal Bournemouth General Hospital","BH7 7DW","http://nhs.publishmydata.com/data/metric/96/year/2016/RDZ20","http://nhs.publishmydata.com/data/metric/96",0.9843,"http://nhs.publishmydata.com/data/metric/182/year/2016/RDZ20","http://nhs.publishmydata.com/data/metric/182",75
"BL40JR",-2.42989131564929,53.5539732871402,199211,"BL4  0JR","http://nhs.publishmydata.com/id/organisation/nacs/RMC01","Royal Bolton Hospital","BL4 0JR","http://nhs.publishmydata.com/data/metric/96/year/2016/RMC01","http://nhs.publishmydata.com/data/metric/96",1.045,"http://nhs.publishmydata.com/data/metric/182/year/2016/RMC01","http://nhs.publishmydata.com/data/metric/182",73
"BL97TD",-2.25562001891642,53.6004391563671,205455,"BL9  7TD","http://nhs.publishmydata.com/id/organisation/nacs/RW601","Fairfield General Hospital","BL9 7TD","http://nhs.publishmydata.com/data/metric/96/year/2016/RW601","http://nhs.publishmydata.com/data/metric/96",1.0796,"http://nhs.publishmydata.com/data/metric/182/year/2016/RW601","http://nhs.publishmydata.com/data/metric/182",57
"BN112DH",-0.363403734159835,50.8166834797355,209959,"BN11 2DH","http://nhs.publishmydata.com/id/organisation/nacs/RYR18","Worthing Hospital","BN11 2DH","http://nhs.publishmydata.com/data/metric/96/year/2016/RYR18","http://nhs.publishmydata.com/data/metric/96",1.0127,"http://nhs.publishmydata.com/data/metric/182/year/2016/RYR18","http://nhs.publishmydata.com/data/metric/182",73
"BN212UD",0.271135870592943,50.786963593242,222225,"BN21 2UD","http://nhs.publishmydata.com/id/organisation/nacs/RXC02","Eastbourne District General Hospital","BN21 2UD","http://nhs.publishmydata.com/data/metric/96/year/2016/RXC02","http://nhs.publishmydata.com/data/metric/96",1.1352,"http://nhs.publishmydata.com/data/metric/182/year/2016/RXC02","http://nhs.publishmydata.com/data/metric/182",54
"BN23EW",-0.11544877908784,50.8304538164164,218938,"BN2  3EW","http://nhs.publishmydata.com/id/organisation/nacs/RXH05","Brighton General Hospital","BN2 3EW","http://nhs.publishmydata.com/data/metric/96/year/2016/RXH05","http://nhs.publishmydata.com/data/metric/96",0.9583,"http://nhs.publishmydata.com/data/metric/182/year/2016/RXH05","http://nhs.publishmydata.com/data/metric/182",59
"BN25BE",-0.118148731881953,50.8194623095954,219493,"BN2  5BE","http://nhs.publishmydata.com/id/organisation/nacs/RXH01","Royal Sussex County Hospital","BN2 5BE","http://nhs.publishmydata.com/data/metric/96/year/2016/RXH01","http://nhs.publishmydata.com/data/metric/96",0.9583,"http://nhs.publishmydata.com/data/metric/182/year/2016/RXH01","http://nhs.publishmydata.com/data/metric/182",59
"BN25BE",-0.118148731881953,50.8194623095954,219493,"BN2  5BE","http://nhs.publishmydata.com/id/organisation/nacs/RXH06","Royal Alexandra Children's Hospital","BN2 5BE","http://nhs.publishmydata.com/data/metric/96/year/2016/RXH06","http://nhs.publishmydata.com/data/metric/96",0.9583,"http://nhs.publishmydata.com/data/metric/182/year/2016/RXH06","http://nhs.publishmydata.com/data/metric/182",59
"BN25BF",-0.117607958601716,50.8187880646922,219494,"BN2  5BF","http://nhs.publishmydata.com/id/organisation/nacs/RXH07","Sussex Eye Hospital","BN2 5BF","http://nhs.publishmydata.com/data/metric/96/year/2016/RXH07","http://nhs.publishmydata.com/data/metric/96",0.9583,"http://nhs.publishmydata.com/data/metric/182/year/2016/RXH07","http://nhs.publishmydata.com/data/metric/182",59
"BN436TQ",-0.256119207194999,50.840752361545,234072,"BN43 6TQ","http://nhs.publishmydata.com/id/organisation/nacs/RYR14","Southlands Hospital","BN43 6TQ","http://nhs.publishmydata.com/data/metric/96/year/2016/RYR14","http://nhs.publishmydata.com/data/metric/96",1.0127,"http://nhs.publishmydata.com/data/metric/182/year/2016/RYR14","http://nhs.publishmydata.com/data/metric/182",73
"BN71PE",-0.005504066306945,50.8751501580682,237066,"BN7  1PE","http://nhs.publishmydata.com/id/organisation/nacs/RXCLV","Lewes Victoria Hospital","BN7 1PE","http://nhs.publishmydata.com/data/metric/96/year/2016/RXCLV","http://nhs.publishmydata.com/data/metric/96",1.1352,"http://nhs.publishmydata.com/data/metric/182/year/2016/RXCLV","http://nhs.publishmydata.com/data/metric/182",54
"BR68ND",0.059173704129422,51.3662443682214,248872,"BR6  8ND","http://nhs.publishmydata.com/id/organisation/nacs/RJZ30","Princess Royal University Hospital","BR6 8ND","http://nhs.publishmydata.com/data/metric/96/year/2016/RJZ30","http://nhs.publishmydata.com/data/metric/96",0.8709,"http://nhs.publishmydata.com/data/metric/182/year/2016/RJZ30","http://nhs.publishmydata.com/data/metric/182",69
"BR69JU",0.095176681057747,51.3625034693003,249101,"BR6  9JU","http://nhs.publishmydata.com/id/organisation/nacs/RJZ70","Orpington Hospital","BR6 9JU","http://nhs.publishmydata.com/data/metric/96/year/2016/RJZ70","http://nhs.publishmydata.com/data/metric/96",0.8709,"http://nhs.publishmydata.com/data/metric/182/year/2016/RJZ70","http://nhs.publishmydata.com/data/metric/182",69
"BS105NB",-2.59296371627521,51.4972685458542,252578,"BS10 5NB","http://nhs.publishmydata.com/id/organisation/nacs/RVJ01","Southmead Hospital","BS10 5NB","http://nhs.publishmydata.com/data/metric/96/year/2016/RVJ01","http://nhs.publishmydata.com/data/metric/96",0.9017,"http://nhs.publishmydata.com/data/metric/182/year/2016/RVJ01","http://nhs.publishmydata.com/data/metric/182",64
"BS12LX",-2.59454716220625,51.4584346555225,251051,"BS1  2LX","http://nhs.publishmydata.com/id/organisation/nacs/RA708","Bristol Eye Hospital","BS1 2LX","http://nhs.publishmydata.com/data/metric/96/year/2016/RA708","http://nhs.publishmydata.com/data/metric/96",0.9774,"http://nhs.publishmydata.com/data/metric/182/year/2016/RA708","http://nhs.publishmydata.com/data/metric/182",77
"BS12LY",-2.59519716904348,51.4586111899478,251052,"BS1  2LY","http://nhs.publishmydata.com/id/organisation/nacs/RA709","University Of Bristol Dental Hospital","BS1 2LY","http://nhs.publishmydata.com/data/metric/96/year/2016/RA709","http://nhs.publishmydata.com/data/metric/96",0.9774,"http://nhs.publishmydata.com/data/metric/182/year/2016/RA709","http://nhs.publishmydata.com/data/metric/182",77
"BS140DB",-2.58494331872344,51.4109889627724,256833,"BS14 0DB","http://nhs.publishmydata.com/id/organisation/nacs/RA773","South Bristol Community Hospital","BS14 0DB","http://nhs.publishmydata.com/data/metric/96/year/2016/RA773","http://nhs.publishmydata.com/data/metric/96",0.9774,"http://nhs.publishmydata.com/data/metric/182/year/2016/RA773","http://nhs.publishmydata.com/data/metric/182",77
"BS151LF",-2.51612034930196,51.4688856568809,257692,"BS15 1LF","http://nhs.publishmydata.com/id/organisation/nacs/RVJ21","Cossham Hospital","BS15 1LF","http://nhs.publishmydata.com/data/metric/96/year/2016/RVJ21","http://nhs.publishmydata.com/data/metric/96",0.9017,"http://nhs.publishmydata.com/data/metric/182/year/2016/RVJ21","http://nhs.publishmydata.com/data/metric/182",64
"BS161LE",-2.52886351366769,51.4964602945093,260216,"BS16 1LE","http://nhs.publishmydata.com/id/organisation/nacs/RVJ20","Frenchay Hospital","BS16 1LE","http://nhs.publishmydata.com/data/metric/96/year/2016/RVJ20","http://nhs.publishmydata.com/data/metric/96",0.9017,"http://nhs.publishmydata.com/data/metric/182/year/2016/RVJ20","http://nhs.publishmydata.com/data/metric/182",64
"BS234TQ",-2.9714050086643,51.3223309514274,273331,"BS23 4TQ","http://nhs.publishmydata.com/id/organisation/nacs/RA301","Weston General Hospital","BS23 4TQ","http://nhs.publishmydata.com/data/metric/96/year/2016/RA301","http://nhs.publishmydata.com/data/metric/96",1.1674,"http://nhs.publishmydata.com/data/metric/182/year/2016/RA301","http://nhs.publishmydata.com/data/metric/182",56
"BS28BJ",-2.59733052729601,51.4577460807249,267767,"BS2  8BJ","http://nhs.publishmydata.com/id/organisation/nacs/RA723","Bristol Royal Hospital For Children","BS2 8BJ","http://nhs.publishmydata.com/data/metric/96/year/2016/RA723","http://nhs.publishmydata.com/data/metric/96",0.9774,"http://nhs.publishmydata.com/data/metric/182/year/2016/RA723","http://nhs.publishmydata.com/data/metric/182",77
"BS28EG",-2.59939251782824,51.4591292913536,267804,"BS2  8EG","http://nhs.publishmydata.com/id/organisation/nacs/RA707","St Michael's Hospital","BS2 8EG","http://nhs.publishmydata.com/data/metric/96/year/2016/RA707","http://nhs.publishmydata.com/data/metric/96",0.9774,"http://nhs.publishmydata.com/data/metric/182/year/2016/RA707","http://nhs.publishmydata.com/data/metric/182",77
"BS28HW",-2.59478680048213,51.4591527952419,267838,"BS2  8HW","http://nhs.publishmydata.com/id/organisation/nacs/RA701","Bristol Royal Infirmary","BS2 8HW","http://nhs.publishmydata.com/data/metric/96/year/2016/RA701","http://nhs.publishmydata.com/data/metric/96",0.9774,"http://nhs.publishmydata.com/data/metric/182/year/2016/RA701","http://nhs.publishmydata.com/data/metric/182",77
"BS397SB",-2.4932967790788,51.2986689903711,283711,"BS39 7SB","http://nhs.publishmydata.com/id/organisation/nacs/RD129","Paulton Hospital","BS39 7SB","http://nhs.publishmydata.com/data/metric/96/year/2016/RD129","http://nhs.publishmydata.com/data/metric/96",0.9741,"http://nhs.publishmydata.com/data/metric/182/year/2016/RD129","http://nhs.publishmydata.com/data/metric/182",75
"CA27HY",-2.95529849207452,54.8957511806116,363869,"CA2  7HY","http://nhs.publishmydata.com/id/organisation/nacs/RNLAY","Cumberland Infirmary","CA2 7HY","http://nhs.publishmydata.com/data/metric/96/year/2016/RNLAY","http://nhs.publishmydata.com/data/metric/96",1.0121,"http://nhs.publishmydata.com/data/metric/182/year/2016/RNLAY","http://nhs.publishmydata.com/data/metric/182",52
"CA288JG",-3.5631756231599,54.5302041047679,365884,"CA28 8JG","http://nhs.publishmydata.com/id/organisation/nacs/RNLBX","West Cumberland Hospital","CA28 8JG","http://nhs.publishmydata.com/data/metric/96/year/2016/RNLBX","http://nhs.publishmydata.com/data/metric/96",1.0121,"http://nhs.publishmydata.com/data/metric/182/year/2016/RNLBX","http://nhs.publishmydata.com/data/metric/182",52
"CB113HY",0.256305460508814,52.0236001054304,375460,"CB11 3HY","http://nhs.publishmydata.com/id/organisation/nacs/RGT50","Saffron Walden Community Hospital","CB11 3HY","http://nhs.publishmydata.com/data/metric/96/year/2016/RGT50","http://nhs.publishmydata.com/data/metric/96",0.8363,"http://nhs.publishmydata.com/data/metric/182/year/2016/RGT50","http://nhs.publishmydata.com/data/metric/182",82
"CB20QQ",0.139142627560421,52.1737533166629,376040,"CB2  0QQ","http://nhs.publishmydata.com/id/organisation/nacs/RGT01","Addenbrooke's","CB2 0QQ","http://nhs.publishmydata.com/data/metric/96/year/2016/RGT01","http://nhs.publishmydata.com/data/metric/96",0.8363,"http://nhs.publishmydata.com/data/metric/182/year/2016/RGT01","http://nhs.publishmydata.com/data/metric/182",82
"CB20QQ",0.139142627560421,52.1737533166629,376040,"CB2  0QQ","http://nhs.publishmydata.com/id/organisation/nacs/RGT32","Rosie Hospital","CB2 0QQ","http://nhs.publishmydata.com/data/metric/96/year/2016/RGT32","http://nhs.publishmydata.com/data/metric/96",0.8363,"http://nhs.publishmydata.com/data/metric/182/year/2016/RGT32","http://nhs.publishmydata.com/data/metric/182",82
"CH21HJ",-2.89902552203598,53.2117827212424,434348,"CH2  1HJ","http://nhs.publishmydata.com/id/organisation/nacs/RJR05","Countess Of Chester Hospital","CH2 1HJ","http://nhs.publishmydata.com/data/metric/96/year/2016/RJR05","http://nhs.publishmydata.com/data/metric/96",1.0527,"http://nhs.publishmydata.com/data/metric/182/year/2016/RJR05","http://nhs.publishmydata.com/data/metric/182",74
"CH420LQ",-3.02653044536313,53.3800457326834,439553,"CH42 0LQ","http://nhs.publishmydata.com/id/organisation/nacs/RBL01","St. Catherines Hospital","CH42 0LQ","http://nhs.publishmydata.com/data/metric/96/year/2016/RBL01","http://nhs.publishmydata.com/data/metric/96",0.9834,"http://nhs.publishmydata.com/data/metric/182/year/2016/RBL01","http://nhs.publishmydata.com/data/metric/182",66
"CH445UF",-3.04588966841482,53.4161126873915,441871,"CH44 5UF","http://nhs.publishmydata.com/id/organisation/nacs/RBL02","Victoria Central Hospital","CH44 5UF","http://nhs.publishmydata.com/data/metric/96/year/2016/RBL02","http://nhs.publishmydata.com/data/metric/96",0.9834,"http://nhs.publishmydata.com/data/metric/182/year/2016/RBL02","http://nhs.publishmydata.com/data/metric/182",66
"CH495PE",-3.0968145214351,53.3696398780642,445402,"CH49 5PE","http://nhs.publishmydata.com/id/organisation/nacs/RBL14","Arrowe Park Hospital","CH49 5PE","http://nhs.publishmydata.com/data/metric/96/year/2016/RBL14","http://nhs.publishmydata.com/data/metric/96",0.9834,"http://nhs.publishmydata.com/data/metric/182/year/2016/RBL14","http://nhs.publishmydata.com/data/metric/182",66
"CH634JY",-3.02413621893301,53.3329001310555,450012,"CH63 4JY","http://nhs.publishmydata.com/id/organisation/nacs/RBL20","Clatterbridge Hospital","CH63 4JY","http://nhs.publishmydata.com/data/metric/96/year/2016/RBL20","http://nhs.publishmydata.com/data/metric/96",0.9834,"http://nhs.publishmydata.com/data/metric/182/year/2016/RBL20","http://nhs.publishmydata.com/data/metric/182",66
"CH656SG",-2.91103952864597,53.2677928070423,451817,"CH65 6SG","http://nhs.publishmydata.com/id/organisation/nacs/RJR60","Ellesmere Port Hospital","CH65 6SG","http://nhs.publishmydata.com/data/metric/96/year/2016/RJR60","http://nhs.publishmydata.com/data/metric/96",1.0527,"http://nhs.publishmydata.com/data/metric/182/year/2016/RJR60","http://nhs.publishmydata.com/data/metric/182",74
"CM158DR",0.316667502378482,51.623432892927,462990,"CM15 8DR","http://nhs.publishmydata.com/id/organisation/nacs/RAJ25","Brentwood Community Hospital","CM15 8DR","http://nhs.publishmydata.com/data/metric/96/year/2016/RAJ25","http://nhs.publishmydata.com/data/metric/96",1.1516,"http://nhs.publishmydata.com/data/metric/182/year/2016/RAJ25","http://nhs.publishmydata.com/data/metric/182",62
"CM166TN",0.123956702764768,51.7042997353359,464033,"CM16 6TN","http://nhs.publishmydata.com/id/organisation/nacs/RQWG1","St Margaret's Hospital","CM16 6TN","http://nhs.publishmydata.com/data/metric/96/year/2016/RQWG1","http://nhs.publishmydata.com/data/metric/96",0.9941,"http://nhs.publishmydata.com/data/metric/182/year/2016/RQWG1","http://nhs.publishmydata.com/data/metric/182",68
"CM17ET",0.466020949594921,51.7746615795529,458831,"CM1  7ET","http://nhs.publishmydata.com/id/organisation/nacs/RQ8L0","Broomfield Hospital","CM1 7ET","http://nhs.publishmydata.com/data/metric/96/year/2016/RQ8L0","http://nhs.publishmydata.com/data/metric/96",1.0814,"http://nhs.publishmydata.com/data/metric/182/year/2016/RQ8L0","http://nhs.publishmydata.com/data/metric/182",70
"CM201QX",0.08548406949829,51.771534507427,468115,"CM20 1QX","http://nhs.publishmydata.com/id/organisation/nacs/RQWG0","Princess Alexandra Hospital","CM20 1QX","http://nhs.publishmydata.com/data/metric/96/year/2016/RQWG0","http://nhs.publishmydata.com/data/metric/96",0.9941,"http://nhs.publishmydata.com/data/metric/182/year/2016/RQWG0","http://nhs.publishmydata.com/data/metric/182",68
"CM20PP",0.471231611022521,51.7302335430501,466326,"CM2  0PP","http://nhs.publishmydata.com/id/organisation/nacs/RAJ50","The Chelmsford Private Day Surgery Hospital","CM2 0PP","http://nhs.publishmydata.com/data/metric/96/year/2016/RAJ50","http://nhs.publishmydata.com/data/metric/96",1.1516,"http://nhs.publishmydata.com/data/metric/182/year/2016/RAJ50","http://nhs.publishmydata.com/data/metric/182",62
"CM235JH",0.174347663012499,51.8654892438283,471276,"CM23 5JH","http://nhs.publishmydata.com/id/organisation/nacs/RQWG2","Herts and Essex Community Hospital","CM23 5JH","http://nhs.publishmydata.com/data/metric/96/year/2016/RQWG2","http://nhs.publishmydata.com/data/metric/96",0.9941,"http://nhs.publishmydata.com/data/metric/182/year/2016/RQWG2","http://nhs.publishmydata.com/data/metric/182",68
"CM72LJ",0.545133394763727,51.8748500364378,476757,"CM7  2LJ","http://nhs.publishmydata.com/id/organisation/nacs/RQ8LK","William Julien Courtauld Hospital","CM7 2LJ","http://nhs.publishmydata.com/data/metric/96/year/2016/RQ8LK","http://nhs.publishmydata.com/data/metric/96",1.0814,"http://nhs.publishmydata.com/data/metric/182/year/2016/RQ8LK","http://nhs.publishmydata.com/data/metric/182",70
"CM72QU",0.541158398754463,51.8795943178589,476821,"CM7  2QU","http://nhs.publishmydata.com/id/organisation/nacs/RQ8LF","St Michael's Hospital","CM7 2QU","http://nhs.publishmydata.com/data/metric/96/year/2016/RQ8LF","http://nhs.publishmydata.com/data/metric/96",1.0814,"http://nhs.publishmydata.com/data/metric/182/year/2016/RQ8LF","http://nhs.publishmydata.com/data/metric/182",70
"CM96EG",0.671994182771425,51.7300113845808,481231,"CM9  6EG","http://nhs.publishmydata.com/id/organisation/nacs/RQ8LJ","St Peter's Hospital","CM9 6EG","http://nhs.publishmydata.com/data/metric/96/year/2016/RQ8LJ","http://nhs.publishmydata.com/data/metric/96",1.0814,"http://nhs.publishmydata.com/data/metric/182/year/2016/RQ8LJ","http://nhs.publishmydata.com/data/metric/182",70
"CO102RQ",0.736523970779286,52.0391250013149,484280,"CO10 2RQ","http://nhs.publishmydata.com/id/organisation/nacs/RGR43","St Leonards Hospital","CO10 2RQ","http://nhs.publishmydata.com/data/metric/96/year/2016/RGR43","http://nhs.publishmydata.com/data/metric/96",0.8765,"http://nhs.publishmydata.com/data/metric/182/year/2016/RGR43","http://nhs.publishmydata.com/data/metric/182",84
"CO33NB",0.889164456872281,51.8870841946809,492050,"CO3  3NB","http://nhs.publishmydata.com/id/organisation/nacs/RDEEB","Essex County Hospital","CO3 3NB","http://nhs.publishmydata.com/data/metric/96/year/2016/RDEEB","http://nhs.publishmydata.com/data/metric/96",1.0694,"http://nhs.publishmydata.com/data/metric/182/year/2016/RDEEB","http://nhs.publishmydata.com/data/metric/182",62
"CO45JL",0.899213357239099,51.91017519125,494164,"CO4  5JL","http://nhs.publishmydata.com/id/organisation/nacs/RDEE4","Colchester General Hospital","CO4 5JL","http://nhs.publishmydata.com/data/metric/96/year/2016/RDEE4","http://nhs.publishmydata.com/data/metric/96",1.0694,"http://nhs.publishmydata.com/data/metric/182/year/2016/RDEE4","http://nhs.publishmydata.com/data/metric/182",62
"CR77YE",-0.108757647311193,51.3891284281156,510585,"CR7  7YE","http://nhs.publishmydata.com/id/organisation/nacs/RJ611","Croydon University Hospital","CR7 7YE","http://nhs.publishmydata.com/data/metric/96/year/2016/RJ611","http://nhs.publishmydata.com/data/metric/96",0.9858,"http://nhs.publishmydata.com/data/metric/182/year/2016/RJ611","http://nhs.publishmydata.com/data/metric/182",57
"CR82YL",-0.114439647459024,51.3407397177598,511440,"CR8  2YL","http://nhs.publishmydata.com/id/organisation/nacs/RJ613","Purley War Memorial Hospital","CR8 2YL","http://nhs.publishmydata.com/data/metric/96/year/2016/RJ613","http://nhs.publishmydata.com/data/metric/96",0.9858,"http://nhs.publishmydata.com/data/metric/182/year/2016/RJ613","http://nhs.publishmydata.com/data/metric/182",57
"CT13NG",1.08711322337419,51.2665930192383,515190,"CT1  3NG","http://nhs.publishmydata.com/id/organisation/nacs/RVVKC","Kent and Canterbury Hospital","CT1 3NG","http://nhs.publishmydata.com/data/metric/96/year/2016/RVVKC","http://nhs.publishmydata.com/data/metric/96",0.9989,"http://nhs.publishmydata.com/data/metric/182/year/2016/RVVKC","http://nhs.publishmydata.com/data/metric/182",60
"CT170HD",1.29049516827714,51.1312332767979,521924,"CT17 0HD","http://nhs.publishmydata.com/id/organisation/nacs/RVV02","Buckland Hospital","CT17 0HD","http://nhs.publishmydata.com/data/metric/96/year/2016/RVV02","http://nhs.publishmydata.com/data/metric/96",0.9989,"http://nhs.publishmydata.com/data/metric/182/year/2016/RVV02","http://nhs.publishmydata.com/data/metric/182",60
"CT195BN",1.17192649038209,51.0859993702981,523260,"CT19 5BN","http://nhs.publishmydata.com/id/organisation/nacs/RVV03","Royal Victoria Hospital (Folkestone)","CT19 5BN","http://nhs.publishmydata.com/data/metric/96/year/2016/RVV03","http://nhs.publishmydata.com/data/metric/96",0.9989,"http://nhs.publishmydata.com/data/metric/182/year/2016/RVV03","http://nhs.publishmydata.com/data/metric/182",60
"CT94AN",1.38941098631607,51.3780594885966,532906,"CT9  4AN","http://nhs.publishmydata.com/id/organisation/nacs/RVV09","Queen Elizabeth The Queen Mother Hospital","CT9 4AN","http://nhs.publishmydata.com/data/metric/96/year/2016/RVV09","http://nhs.publishmydata.com/data/metric/96",0.9989,"http://nhs.publishmydata.com/data/metric/182/year/2016/RVV09","http://nhs.publishmydata.com/data/metric/182",60
"CV107DJ",-1.47843059962667,52.5125974860748,535396,"CV10 7DJ","http://nhs.publishmydata.com/id/organisation/nacs/RLT01","George Eliot Hospital","CV10 7DJ","http://nhs.publishmydata.com/data/metric/96/year/2016/RLT01","http://nhs.publishmydata.com/data/metric/96",1.1506,"http://nhs.publishmydata.com/data/metric/182/year/2016/RLT01","http://nhs.publishmydata.com/data/metric/182",67
"CV225PX",-1.25901819874947,52.3652914967397,541663,"CV22 5PX","http://nhs.publishmydata.com/id/organisation/nacs/RKB03","Hospital Of St Cross","CV22 5PX","http://nhs.publishmydata.com/data/metric/96/year/2016/RKB03","http://nhs.publishmydata.com/data/metric/96",1.0627,"http://nhs.publishmydata.com/data/metric/182/year/2016/RKB03","http://nhs.publishmydata.com/data/metric/182",77
"CV22DX",-1.43839475996703,52.4212289208384,538924,"CV2  2DX","http://nhs.publishmydata.com/id/organisation/nacs/RKB01","University Hospital (Coventry)","CV2 2DX","http://nhs.publishmydata.com/data/metric/96/year/2016/RKB01","http://nhs.publishmydata.com/data/metric/96",1.0627,"http://nhs.publishmydata.com/data/metric/182/year/2016/RKB01","http://nhs.publishmydata.com/data/metric/182",77
"CV345BW",-1.58346582677126,52.2900917204557,548652,"CV34 5BW","http://nhs.publishmydata.com/id/organisation/nacs/RJC02","Warwick Hospital","CV34 5BW","http://nhs.publishmydata.com/data/metric/96/year/2016/RJC02","http://nhs.publishmydata.com/data/metric/96",1.0548,"http://nhs.publishmydata.com/data/metric/182/year/2016/RJC02","http://nhs.publishmydata.com/data/metric/182",81
"CV364AX",-1.6225390099788,52.0668704590787,550795,"CV36 4AX","http://nhs.publishmydata.com/id/organisation/nacs/RJC04","Ellen Badger Hospital","CV36 4AX","http://nhs.publishmydata.com/data/metric/96/year/2016/RJC04","http://nhs.publishmydata.com/data/metric/96",1.0548,"http://nhs.publishmydata.com/data/metric/182/year/2016/RJC04","http://nhs.publishmydata.com/data/metric/182",81
"CV376NX",-1.71339065039059,52.1952786155831,552022,"CV37 6NX","http://nhs.publishmydata.com/id/organisation/nacs/RJC03","Stratford Hospital","CV37 6NX","http://nhs.publishmydata.com/data/metric/96/year/2016/RJC03","http://nhs.publishmydata.com/data/metric/96",1.0548,"http://nhs.publishmydata.com/data/metric/182/year/2016/RJC03","http://nhs.publishmydata.com/data/metric/182",81
"CW123AR",-2.20267466911389,53.158042190359,565576,"CW12 3AR","http://nhs.publishmydata.com/id/organisation/nacs/RJN63","Congleton War Memorial Hospital","CW12 3AR","http://nhs.publishmydata.com/data/metric/96/year/2016/RJN63","http://nhs.publishmydata.com/data/metric/96",1.0279,"http://nhs.publishmydata.com/data/metric/182/year/2016/RJN63","http://nhs.publishmydata.com/data/metric/182",67
"CW14QJ",-2.47586324928886,53.1177013775815,562024,"CW1  4QJ","http://nhs.publishmydata.com/id/organisation/nacs/RBT20","Leighton Hospital","CW1 4QJ","http://nhs.publishmydata.com/data/metric/96/year/2016/RBT20","http://nhs.publishmydata.com/data/metric/96",0.9684,"http://nhs.publishmydata.com/data/metric/182/year/2016/RBT20","http://nhs.publishmydata.com/data/metric/182",75
"CW72DF",-2.53162951721001,53.1956956645698,570619,"CW7  2DF","http://nhs.publishmydata.com/id/organisation/nacs/RBTPP","Elmhurst Intermediate Care Centre","CW7 2DF","http://nhs.publishmydata.com/data/metric/96/year/2016/RBTPP","http://nhs.publishmydata.com/data/metric/96",0.9684,"http://nhs.publishmydata.com/data/metric/182/year/2016/RBTPP","http://nhs.publishmydata.com/data/metric/182",75
"CW81AW",-2.51979762136649,53.2619070756562,571480,"CW8  1AW","http://nhs.publishmydata.com/id/organisation/nacs/RBT21","Victoria Infirmary (Northwich)","CW8 1AW","http://nhs.publishmydata.com/data/metric/96/year/2016/RBT21","http://nhs.publishmydata.com/data/metric/96",0.9684,"http://nhs.publishmydata.com/data/metric/182/year/2016/RBT21","http://nhs.publishmydata.com/data/metric/182",75
"DA28DA",0.258673532377958,51.4349519449606,582624,"DA2  8DA","http://nhs.publishmydata.com/id/organisation/nacs/RN707","Darent Valley Hospital","DA2 8DA","http://nhs.publishmydata.com/data/metric/96/year/2016/RN707","http://nhs.publishmydata.com/data/metric/96",1.0695,"http://nhs.publishmydata.com/data/metric/182/year/2016/RN707","http://nhs.publishmydata.com/data/metric/182",83
"DA83EE",0.166670699074787,51.4771129422507,586136,"DA8  3EE","http://nhs.publishmydata.com/id/organisation/nacs/RN7ED","Erith and District Hospital","DA8 3EE","http://nhs.publishmydata.com/data/metric/96/year/2016/RN7ED","http://nhs.publishmydata.com/data/metric/96",1.0695,"http://nhs.publishmydata.com/data/metric/182/year/2016/RN7ED","http://nhs.publishmydata.com/data/metric/182",83
"DE12QY",-1.46856952686341,52.9142237893752,598890,"DE1  2QY","http://nhs.publishmydata.com/id/organisation/nacs/RTGFA","London Road Community Hospital","DE1 2QY","http://nhs.publishmydata.com/data/metric/96/year/2016/RTGFA","http://nhs.publishmydata.com/data/metric/96",1.0242,"http://nhs.publishmydata.com/data/metric/182/year/2016/RTGFA","http://nhs.publishmydata.com/data/metric/182",81
"DE130RB",-1.65637878871944,52.8177927752188,601717,"DE13 0RB","http://nhs.publishmydata.com/id/organisation/nacs/RJF02","Queen's Hospital, Burton Upon Trent","DE13 0RB","http://nhs.publishmydata.com/data/metric/96/year/2016/RJF02","http://nhs.publishmydata.com/data/metric/96",0.9653,"http://nhs.publishmydata.com/data/metric/182/year/2016/RJF02","http://nhs.publishmydata.com/data/metric/182",70
"DE223NE",-1.51451023451506,52.911210709917,608553,"DE22 3NE","http://nhs.publishmydata.com/id/organisation/nacs/RTGFG","Royal Derby Hospital","DE22 3NE","http://nhs.publishmydata.com/data/metric/96/year/2016/RTGFG","http://nhs.publishmydata.com/data/metric/96",1.0242,"http://nhs.publishmydata.com/data/metric/182/year/2016/RTGFG","http://nhs.publishmydata.com/data/metric/182",81
"DH15TW",-1.59384507493824,54.7885063800023,636512,"DH1  5TW","http://nhs.publishmydata.com/id/organisation/nacs/RXPCP","University Hospital Of North Durham","DH1 5TW","http://nhs.publishmydata.com/data/metric/96/year/2016/RXPCP","http://nhs.publishmydata.com/data/metric/96",1.023,"http://nhs.publishmydata.com/data/metric/182/year/2016/RXPCP","http://nhs.publishmydata.com/data/metric/182",61
"DH33AT",-1.5750755758218,54.8509427081955,638179,"DH3  3AT","http://nhs.publishmydata.com/id/organisation/nacs/RXPCC","Chester Le Street Hospital","DH3 3AT","http://nhs.publishmydata.com/data/metric/96/year/2016/RXPCC","http://nhs.publishmydata.com/data/metric/96",1.023,"http://nhs.publishmydata.com/data/metric/182/year/2016/RXPCC","http://nhs.publishmydata.com/data/metric/182",61
"DH80NB",-1.84280804024125,54.869087983462,643205,"DH8  0NB","http://nhs.publishmydata.com/id/organisation/nacs/RXPCW","Shotley Bridge Hospital","DH8 0NB","http://nhs.publishmydata.com/data/metric/96/year/2016/RXPCW","http://nhs.publishmydata.com/data/metric/96",1.023,"http://nhs.publishmydata.com/data/metric/182/year/2016/RXPCW","http://nhs.publishmydata.com/data/metric/182",61
"DL104UJ",-1.73834817938904,54.4049085029799,648369,"DL10 4UJ","http://nhs.publishmydata.com/id/organisation/nacs/RTR07","Friary Hospital","DL10 4UJ","http://nhs.publishmydata.com/data/metric/96/year/2016/RTR07","http://nhs.publishmydata.com/data/metric/96",1.1009,"http://nhs.publishmydata.com/data/metric/182/year/2016/RTR07","http://nhs.publishmydata.com/data/metric/182",72
"DL11JE",-1.53758111226971,54.5248781958004,646313,"DL1  1JE","http://nhs.publishmydata.com/id/organisation/nacs/RXP63","Hundens Lane Day Hospital - Darlington","DL1 1JE","http://nhs.publishmydata.com/data/metric/96/year/2016/RXP63","http://nhs.publishmydata.com/data/metric/96",1.023,"http://nhs.publishmydata.com/data/metric/182/year/2016/RXP63","http://nhs.publishmydata.com/data/metric/182",61
"DL128ET",-1.91756710195727,54.5466165921296,650006,"DL12 8ET","http://nhs.publishmydata.com/id/organisation/nacs/RXPCJ","Richardson Hospital","DL12 8ET","http://nhs.publishmydata.com/data/metric/96/year/2016/RXPCJ","http://nhs.publishmydata.com/data/metric/96",1.023,"http://nhs.publishmydata.com/data/metric/182/year/2016/RXPCJ","http://nhs.publishmydata.com/data/metric/182",61
"DL128HT",-1.91616220906729,54.5457169570303,650035,"DL12 8HT","http://nhs.publishmydata.com/id/organisation/nacs/RXP35","New Richardson Hospital","DL12 8HT","http://nhs.publishmydata.com/data/metric/96/year/2016/RXP35","http://nhs.publishmydata.com/data/metric/96",1.023,"http://nhs.publishmydata.com/data/metric/182/year/2016/RXP35","http://nhs.publishmydata.com/data/metric/182",61
"DL132JR",-2.01857255088642,54.7480150822648,650804,"DL13 2JR","http://nhs.publishmydata.com/id/organisation/nacs/RXP69","Weardale Hospital","DL13 2JR","http://nhs.publishmydata.com/data/metric/96/year/2016/RXP69","http://nhs.publishmydata.com/data/metric/96",1.023,"http://nhs.publishmydata.com/data/metric/182/year/2016/RXP69","http://nhs.publishmydata.com/data/metric/182",61
"DL146AD",-1.67855691702324,54.65585728966,651923,"DL14 6AD","http://nhs.publishmydata.com/id/organisation/nacs/RXPBA","Bishop Auckland Hospital","DL14 6AD","http://nhs.publishmydata.com/data/metric/96/year/2016/RXPBA","http://nhs.publishmydata.com/data/metric/96",1.023,"http://nhs.publishmydata.com/data/metric/182/year/2016/RXPBA","http://nhs.publishmydata.com/data/metric/182",61
"DL36HX",-1.56374158251712,54.5303853880116,656573,"DL3  6HX","http://nhs.publishmydata.com/id/organisation/nacs/RXPDA","Darlington Memorial Hospital","DL3 6HX","http://nhs.publishmydata.com/data/metric/96/year/2016/RXPDA","http://nhs.publishmydata.com/data/metric/96",1.023,"http://nhs.publishmydata.com/data/metric/182/year/2016/RXPDA","http://nhs.publishmydata.com/data/metric/182",61
"DL61JG",-1.43054359909814,54.3423430417153,659181,"DL6  1JG","http://nhs.publishmydata.com/id/organisation/nacs/RTR45","Friarage Hospital Site","DL6 1JG","http://nhs.publishmydata.com/data/metric/96/year/2016/RTR45","http://nhs.publishmydata.com/data/metric/96",1.1009,"http://nhs.publishmydata.com/data/metric/182/year/2016/RTR45","http://nhs.publishmydata.com/data/metric/182",72
"DN146RX",-0.87493570559438,53.715483119381,666877,"DN14 6RX","http://nhs.publishmydata.com/id/organisation/nacs/RJL31","Goole and District Hospital","DN14 6RX","http://nhs.publishmydata.com/data/metric/96/year/2016/RJL31","http://nhs.publishmydata.com/data/metric/96",1.0755,"http://nhs.publishmydata.com/data/metric/182/year/2016/RJL31","http://nhs.publishmydata.com/data/metric/182",56
"DN157BH",-0.667602816839926,53.5876036441006,668285,"DN15 7BH","http://nhs.publishmydata.com/id/organisation/nacs/RJL32","Scunthorpe General Hospital","DN15 7BH","http://nhs.publishmydata.com/data/metric/96/year/2016/RJL32","http://nhs.publishmydata.com/data/metric/96",1.0755,"http://nhs.publishmydata.com/data/metric/182/year/2016/RJL32","http://nhs.publishmydata.com/data/metric/182",56
"DN227XF",-0.950632964355013,53.3254718181963,675920,"DN22 7XF","http://nhs.publishmydata.com/id/organisation/nacs/RP5RE","Retford Hospital","DN22 7XF","http://nhs.publishmydata.com/data/metric/96/year/2016/RP5RE","http://nhs.publishmydata.com/data/metric/96",1.0004,"http://nhs.publishmydata.com/data/metric/182/year/2016/RP5RE","http://nhs.publishmydata.com/data/metric/182",64
"DN25LT",-1.10922899489819,53.5307707895291,672188,"DN2  5LT","http://nhs.publishmydata.com/id/organisation/nacs/RP5DR","Doncaster Royal Infirmary","DN2 5LT","http://nhs.publishmydata.com/data/metric/96/year/2016/RP5DR","http://nhs.publishmydata.com/data/metric/96",1.0004,"http://nhs.publishmydata.com/data/metric/182/year/2016/RP5DR","http://nhs.publishmydata.com/data/metric/182",64
"DN332BA",-0.096232770354558,53.5448820581421,679276,"DN33 2BA","http://nhs.publishmydata.com/id/organisation/nacs/RJL30","Diana, Princess Of Wales Hospital","DN33 2BA","http://nhs.publishmydata.com/data/metric/96/year/2016/RJL30","http://nhs.publishmydata.com/data/metric/96",1.0755,"http://nhs.publishmydata.com/data/metric/182/year/2016/RJL30","http://nhs.publishmydata.com/data/metric/182",56
"DT12JY",-2.44693420866105,50.712931106574,690384,"DT1  2JY","http://nhs.publishmydata.com/id/organisation/nacs/RBD01","Dorset County Hospital","DT1 2JY","http://nhs.publishmydata.com/data/metric/96/year/2016/RBD01","http://nhs.publishmydata.com/data/metric/96",1.1493,"http://nhs.publishmydata.com/data/metric/182/year/2016/RBD01","http://nhs.publishmydata.com/data/metric/182",74
"DY116RJ",-2.26133192726952,52.3851834339147,702394,"DY11 6RJ","http://nhs.publishmydata.com/id/organisation/nacs/RWPTC","Kidderminster Treatment Centre - Acute Trust","DY11 6RJ","http://nhs.publishmydata.com/data/metric/96/year/2016/RWPTC","http://nhs.publishmydata.com/data/metric/96",1.1257,"http://nhs.publishmydata.com/data/metric/182/year/2016/RWPTC","http://nhs.publishmydata.com/data/metric/182",56
"DY116RJ",-2.26133192726952,52.3851834339147,702394,"DY11 6RJ","http://nhs.publishmydata.com/id/organisation/nacs/RWP31","Kidderminster Hospital & Treatment Centre","DY11 6RJ","http://nhs.publishmydata.com/data/metric/96/year/2016/RWP31","http://nhs.publishmydata.com/data/metric/96",1.1257,"http://nhs.publishmydata.com/data/metric/182/year/2016/RWP31","http://nhs.publishmydata.com/data/metric/182",56
"DY12HQ",-2.11851160697185,52.5029586603202,699749,"DY1  2HQ","http://nhs.publishmydata.com/id/organisation/nacs/RNA01","Russells Hall Hospital","DY1 2HQ","http://nhs.publishmydata.com/data/metric/96/year/2016/RNA01","http://nhs.publishmydata.com/data/metric/96",0.998,"http://nhs.publishmydata.com/data/metric/182/year/2016/RNA01","http://nhs.publishmydata.com/data/metric/182",75
"DY14SE",-2.07261971772531,52.5190971418767,700379,"DY1  4SE","http://nhs.publishmydata.com/id/organisation/nacs/RNA02","Guest Hospital","DY1 4SE","http://nhs.publishmydata.com/data/metric/96/year/2016/RNA02","http://nhs.publishmydata.com/data/metric/96",0.998,"http://nhs.publishmydata.com/data/metric/182/year/2016/RNA02","http://nhs.publishmydata.com/data/metric/182",75
"DY84JB",-2.14639161120362,52.465420731405,711932,"DY8  4JB","http://nhs.publishmydata.com/id/organisation/nacs/RNA04","Corbett Hospital","DY8 4JB","http://nhs.publishmydata.com/data/metric/96/year/2016/RNA04","http://nhs.publishmydata.com/data/metric/96",0.998,"http://nhs.publishmydata.com/data/metric/182/year/2016/RNA04","http://nhs.publishmydata.com/data/metric/182",75
"E111NR",0.002665695273457,51.5788328025639,717826,"E11  1NR","http://nhs.publishmydata.com/id/organisation/nacs/R1HKH","Whipps Cross University Hospital","E11 1NR","http://nhs.publishmydata.com/data/metric/96/year/2016/R1HKH","http://nhs.publishmydata.com/data/metric/96",0.9003,"http://nhs.publishmydata.com/data/metric/182/year/2016/R1HKH","http://nhs.publishmydata.com/data/metric/182",56
"E11BZ",-0.059200949336078,51.519037255329,713970,"E1   1BZ","http://nhs.publishmydata.com/id/organisation/nacs/R1H12","The Royal London Hospital","E1 1BZ","http://nhs.publishmydata.com/data/metric/96/year/2016/R1H12","http://nhs.publishmydata.com/data/metric/96",0.9003,"http://nhs.publishmydata.com/data/metric/182/year/2016/R1H12","http://nhs.publishmydata.com/data/metric/182",56
"E138SL",0.034744529170042,51.5227773922527,720371,"E13  8SL","http://nhs.publishmydata.com/id/organisation/nacs/R1HNH","Newham General Hospital","E13 8SL","http://nhs.publishmydata.com/data/metric/96/year/2016/R1HNH","http://nhs.publishmydata.com/data/metric/96",0.9003,"http://nhs.publishmydata.com/data/metric/182/year/2016/R1HNH","http://nhs.publishmydata.com/data/metric/182",56
"E14DG",-0.042179115139312,51.5250491562697,714754,"E1   4DG","http://nhs.publishmydata.com/id/organisation/nacs/R1H13","Mile End Hospital","E1 4DG","http://nhs.publishmydata.com/data/metric/96/year/2016/R1H13","http://nhs.publishmydata.com/data/metric/96",0.9003,"http://nhs.publishmydata.com/data/metric/182/year/2016/R1H13","http://nhs.publishmydata.com/data/metric/182",56
"E96SR",-0.046071610699329,51.5506350928451,740371,"E9   6SR","http://nhs.publishmydata.com/id/organisation/nacs/RQXM1","Homerton University Hospital Foundation Trust","E9 6SR","http://nhs.publishmydata.com/data/metric/96/year/2016/RQXM1","http://nhs.publishmydata.com/data/metric/96",0.9421,"http://nhs.publishmydata.com/data/metric/182/year/2016/RQXM1","http://nhs.publishmydata.com/data/metric/182",74
"EC1A7BE",-0.100378378217027,51.517751430178,741222,"EC1A 7BE","http://nhs.publishmydata.com/id/organisation/nacs/R1HM0","St Bartholomew's Hospital","EC1A 7BE","http://nhs.publishmydata.com/data/metric/96/year/2016/R1HM0","http://nhs.publishmydata.com/data/metric/96",0.9003,"http://nhs.publishmydata.com/data/metric/182/year/2016/R1HM0","http://nhs.publishmydata.com/data/metric/182",56
"EN28JL",-0.102869199662763,51.6668064639099,789008,"EN2  8JL","http://nhs.publishmydata.com/id/organisation/nacs/RALC7","Chase Farm Hospital","EN2 8JL","http://nhs.publishmydata.com/data/metric/96/year/2016/RALC7","http://nhs.publishmydata.com/data/metric/96",0.8852,"http://nhs.publishmydata.com/data/metric/182/year/2016/RALC7","http://nhs.publishmydata.com/data/metric/182",72
"EN53DJ",-0.214126994116998,51.6507287829125,792239,"EN5  3DJ","http://nhs.publishmydata.com/id/organisation/nacs/RAL26","Barnet Hospital","EN5 3DJ","http://nhs.publishmydata.com/data/metric/96/year/2016/RAL26","http://nhs.publishmydata.com/data/metric/96",0.8852,"http://nhs.publishmydata.com/data/metric/182/year/2016/RAL26","http://nhs.publishmydata.com/data/metric/182",72
"EX12ED",-3.51403886587921,50.7243760613633,797969,"EX1  2ED","http://nhs.publishmydata.com/id/organisation/nacs/RH802","Heavitree Hospital","EX1 2ED","http://nhs.publishmydata.com/data/metric/96/year/2016/RH802","http://nhs.publishmydata.com/data/metric/96",0.9815,"http://nhs.publishmydata.com/data/metric/182/year/2016/RH802","http://nhs.publishmydata.com/data/metric/182",81
"EX226JQ",-4.34968996711958,50.8183136216272,810956,"EX22 6JQ","http://nhs.publishmydata.com/id/organisation/nacs/RBZ92","Holsworthy Hospital","EX22 6JQ","http://nhs.publishmydata.com/data/metric/96/year/2016/RBZ92","http://nhs.publishmydata.com/data/metric/96",1.0085,"http://nhs.publishmydata.com/data/metric/182/year/2016/RBZ92","http://nhs.publishmydata.com/data/metric/182",77
"EX25DW",-3.50669404730718,50.7166919180664,807960,"EX2  5DW","http://nhs.publishmydata.com/id/organisation/nacs/RH801","Royal Devon and Exeter Hospital (Wonford)","EX2 5DW","http://nhs.publishmydata.com/data/metric/96/year/2016/RH801","http://nhs.publishmydata.com/data/metric/96",0.9815,"http://nhs.publishmydata.com/data/metric/182/year/2016/RH801","http://nhs.publishmydata.com/data/metric/182",81
"EX314JB",-4.0504544337895,51.0921658146835,813705,"EX31 4JB","http://nhs.publishmydata.com/id/organisation/nacs/RBZ12","North Devon District Hospital","EX31 4JB","http://nhs.publishmydata.com/data/metric/96/year/2016/RBZ12","http://nhs.publishmydata.com/data/metric/96",1.0085,"http://nhs.publishmydata.com/data/metric/182/year/2016/RBZ12","http://nhs.publishmydata.com/data/metric/182",77
"EX348JF",-4.12444396426032,51.2045131372535,815798,"EX34 8JF","http://nhs.publishmydata.com/id/organisation/nacs/RBZ91","Ilfracombe Tyrrell Hospital","EX34 8JF","http://nhs.publishmydata.com/data/metric/96/year/2016/RBZ91","http://nhs.publishmydata.com/data/metric/96",1.0085,"http://nhs.publishmydata.com/data/metric/182/year/2016/RBZ91","http://nhs.publishmydata.com/data/metric/182",77
"EX364DP",-3.83925753303673,51.0170611243917,816612,"EX36 4DP","http://nhs.publishmydata.com/id/organisation/nacs/RBZ99","South Molton Hospital","EX36 4DP","http://nhs.publishmydata.com/data/metric/96/year/2016/RBZ99","http://nhs.publishmydata.com/data/metric/96",1.0085,"http://nhs.publishmydata.com/data/metric/182/year/2016/RBZ99","http://nhs.publishmydata.com/data/metric/182",77
"EX387BJ",-4.13699428601372,50.9547206091168,817028,"EX38 7BJ","http://nhs.publishmydata.com/id/organisation/nacs/RBZ98","Torrington Hospital","EX38 7BJ","http://nhs.publishmydata.com/data/metric/96/year/2016/RBZ98","http://nhs.publishmydata.com/data/metric/96",1.0085,"http://nhs.publishmydata.com/data/metric/182/year/2016/RBZ98","http://nhs.publishmydata.com/data/metric/182",77
"EX393AG",-4.21253203109838,51.0179246594092,817946,"EX39 3AG","http://nhs.publishmydata.com/id/organisation/nacs/RBZ95","Bideford Hospital","EX39 3AG","http://nhs.publishmydata.com/data/metric/96/year/2016/RBZ95","http://nhs.publishmydata.com/data/metric/96",1.0085,"http://nhs.publishmydata.com/data/metric/182/year/2016/RBZ95","http://nhs.publishmydata.com/data/metric/182",77
"EX79DH",-3.47480089389824,50.5805698910895,823396,"EX7  9DH","http://nhs.publishmydata.com/id/organisation/nacs/RA956","Dawlish Hospital - Torbay and South Devon NHS Foundation Trust","EX7 9DH","http://nhs.publishmydata.com/data/metric/96/year/2016/RA956","http://nhs.publishmydata.com/data/metric/96",0.8219,"http://nhs.publishmydata.com/data/metric/182/year/2016/RA956","http://nhs.publishmydata.com/data/metric/182",79
"FY38NR",-3.01627463894571,53.8206751660624,837840,"FY3  8NR","http://nhs.publishmydata.com/id/organisation/nacs/RXL01","Blackpool Victoria Hospital","FY3 8NR","http://nhs.publishmydata.com/data/metric/96/year/2016/RXL01","http://nhs.publishmydata.com/data/metric/96",1.15,"http://nhs.publishmydata.com/data/metric/182/year/2016/RXL01","http://nhs.publishmydata.com/data/metric/182",66
"FY76BE",-3.00933302249826,53.9262092153878,842088,"FY7  6BE","http://nhs.publishmydata.com/id/organisation/nacs/RXL04","Fleetwood Hospital","FY7 6BE","http://nhs.publishmydata.com/data/metric/96/year/2016/RXL04","http://nhs.publishmydata.com/data/metric/96",1.15,"http://nhs.publishmydata.com/data/metric/182/year/2016/RXL04","http://nhs.publishmydata.com/data/metric/182",66
"FY81PB",-3.00742975032326,53.7444115550472,843115,"FY8  1PB","http://nhs.publishmydata.com/id/organisation/nacs/RXL06","Clifton Hospital","FY8 1PB","http://nhs.publishmydata.com/data/metric/96/year/2016/RXL06","http://nhs.publishmydata.com/data/metric/96",1.15,"http://nhs.publishmydata.com/data/metric/182/year/2016/RXL06","http://nhs.publishmydata.com/data/metric/182",66
"GL13NN",-2.23206929196372,51.8663861376509,891494,"GL1  3NN","http://nhs.publishmydata.com/id/organisation/nacs/RTE03","Gloucestershire Royal Hospital","GL1 3NN","http://nhs.publishmydata.com/data/metric/96/year/2016/RTE03","http://nhs.publishmydata.com/data/metric/96",1.1069,"http://nhs.publishmydata.com/data/metric/182/year/2016/RTE03","http://nhs.publishmydata.com/data/metric/182",65
"GL205QN",-2.15309750334709,51.9922721466725,900257,"GL20 5QN","http://nhs.publishmydata.com/id/organisation/nacs/RTE95","Tewkesbury Community Hospital","GL20 5QN","http://nhs.publishmydata.com/data/metric/96/year/2016/RTE95","http://nhs.publishmydata.com/data/metric/96",1.1069,"http://nhs.publishmydata.com/data/metric/182/year/2016/RTE95","http://nhs.publishmydata.com/data/metric/182",65
"GL537AN",-2.07187528907354,51.892127657851,911822,"GL53 7AN","http://nhs.publishmydata.com/id/organisation/nacs/RTE01","Cheltenham General Hospital","GL53 7AN","http://nhs.publishmydata.com/data/metric/96/year/2016/RTE01","http://nhs.publishmydata.com/data/metric/96",1.1069,"http://nhs.publishmydata.com/data/metric/182/year/2016/RTE01","http://nhs.publishmydata.com/data/metric/182",65
"GL537AP",-2.06938574534645,51.8891172044614,911823,"GL53 7AP","http://nhs.publishmydata.com/id/organisation/nacs/RTE57","Thirlestaine Breast Centre","GL53 7AP","http://nhs.publishmydata.com/data/metric/96/year/2016/RTE57","http://nhs.publishmydata.com/data/metric/96",1.1069,"http://nhs.publishmydata.com/data/metric/182/year/2016/RTE57","http://nhs.publishmydata.com/data/metric/182",65
"GU167UJ",-0.742011222929455,51.3196658156912,929129,"GU16 7UJ","http://nhs.publishmydata.com/id/organisation/nacs/RDU01","Frimley Park Hospital","GU16 7UJ","http://nhs.publishmydata.com/data/metric/96/year/2016/RDU01","http://nhs.publishmydata.com/data/metric/96",0.9341,"http://nhs.publishmydata.com/data/metric/182/year/2016/RDU01","http://nhs.publishmydata.com/data/metric/182",80
"GU27XX",-0.607442486482022,51.2410124047382,932087,"GU2  7XX","http://nhs.publishmydata.com/id/organisation/nacs/RA201","Royal Surrey County Hospital","GU2 7XX","http://nhs.publishmydata.com/data/metric/96/year/2016/RA201","http://nhs.publishmydata.com/data/metric/96",0.8637,"http://nhs.publishmydata.com/data/metric/182/year/2016/RA201","http://nhs.publishmydata.com/data/metric/182",78
"GU323LB",-0.942381590967608,51.0038794702131,942212,"GU32 3LB","http://nhs.publishmydata.com/id/organisation/nacs/RHU04","Petersfield Community Hospital","GU32 3LB","http://nhs.publishmydata.com/data/metric/96/year/2016/RHU04","http://nhs.publishmydata.com/data/metric/96",1.0711,"http://nhs.publishmydata.com/data/metric/182/year/2016/RHU04","http://nhs.publishmydata.com/data/metric/182",73
"GU68AE",-0.48703912976909,51.1406080423085,949502,"GU6  8AE","http://nhs.publishmydata.com/id/organisation/nacs/RA212","Cranleigh Village Hospital","GU6 8AE","http://nhs.publishmydata.com/data/metric/96/year/2016/RA212","http://nhs.publishmydata.com/data/metric/96",0.8637,"http://nhs.publishmydata.com/data/metric/182/year/2016/RA212","http://nhs.publishmydata.com/data/metric/182",78
"HA13UJ",-0.322014708992781,51.5754086937973,959259,"HA1  3UJ","http://nhs.publishmydata.com/id/organisation/nacs/R1K01","Northwick Park Hospital","HA1 3UJ","http://nhs.publishmydata.com/data/metric/96/year/2016/R1K01","http://nhs.publishmydata.com/data/metric/96",0.903,"http://nhs.publishmydata.com/data/metric/182/year/2016/R1K01","http://nhs.publishmydata.com/data/metric/182",63
"HA13UJ",-0.322014708992781,51.5754086937973,959259,"HA1  3UJ","http://nhs.publishmydata.com/id/organisation/nacs/R1K03","St Mark's Hospital","HA1 3UJ","http://nhs.publishmydata.com/data/metric/96/year/2016/R1K03","http://nhs.publishmydata.com/data/metric/96",0.903,"http://nhs.publishmydata.com/data/metric/182/year/2016/R1K03","http://nhs.publishmydata.com/data/metric/182",63
"HA62RN",-0.445801365503338,51.6149258970527,967665,"HA6  2RN","http://nhs.publishmydata.com/id/organisation/nacs/RAS02","Mount Vernon Hospital","HA6 2RN","http://nhs.publishmydata.com/data/metric/96/year/2016/RAS02","http://nhs.publishmydata.com/data/metric/96",0.8805,"http://nhs.publishmydata.com/data/metric/182/year/2016/RAS02","http://nhs.publishmydata.com/data/metric/182",66
"HA80AD",-0.271218429028023,51.6064956424368,969646,"HA8  0AD","http://nhs.publishmydata.com/id/organisation/nacs/RALRA","Edgware Community Hospital","HA8 0AD","http://nhs.publishmydata.com/data/metric/96/year/2016/RALRA","http://nhs.publishmydata.com/data/metric/96",0.8852,"http://nhs.publishmydata.com/data/metric/182/year/2016/RALRA","http://nhs.publishmydata.com/data/metric/182",72
"HD33EA",-1.81633905077617,53.6554891132239,976446,"HD3  3EA","http://nhs.publishmydata.com/id/organisation/nacs/RWY01","Huddersfield Royal Infirmary","HD3 3EA","http://nhs.publishmydata.com/data/metric/96/year/2016/RWY01","http://nhs.publishmydata.com/data/metric/96",1.138,"http://nhs.publishmydata.com/data/metric/182/year/2016/RWY01","http://nhs.publishmydata.com/data/metric/182",67
"HD93TS",-1.78442567940767,53.5787309017092,983482,"HD9  3TS","http://nhs.publishmydata.com/id/organisation/nacs/RWY11","Holmevalley Memorial Hospital","HD9 3TS","http://nhs.publishmydata.com/data/metric/96/year/2016/RWY11","http://nhs.publishmydata.com/data/metric/96",1.138,"http://nhs.publishmydata.com/data/metric/182/year/2016/RWY11","http://nhs.publishmydata.com/data/metric/182",67
"HG27SX",-1.51757899405398,53.9938218168429,986555,"HG2  7SX","http://nhs.publishmydata.com/id/organisation/nacs/RCD01","Harrogate District Hospital","HG2 7SX","http://nhs.publishmydata.com/data/metric/96/year/2016/RCD01","http://nhs.publishmydata.com/data/metric/96",0.9392,"http://nhs.publishmydata.com/data/metric/182/year/2016/RCD01","http://nhs.publishmydata.com/data/metric/182",78
"HG42PR",-1.5272012936592,54.1354501012506,988986,"HG4  2PR","http://nhs.publishmydata.com/id/organisation/nacs/RCD02","Ripon and District Community Hospital","HG4 2PR","http://nhs.publishmydata.com/data/metric/96/year/2016/RCD02","http://nhs.publishmydata.com/data/metric/96",0.9392,"http://nhs.publishmydata.com/data/metric/182/year/2016/RCD02","http://nhs.publishmydata.com/data/metric/182",78
"HP112TT",-0.753408365117276,51.6264449097544,993171,"HP11 2TT","http://nhs.publishmydata.com/id/organisation/nacs/RXQ50","Wycombe Hospital","HP11 2TT","http://nhs.publishmydata.com/data/metric/96/year/2016/RXQ50","http://nhs.publishmydata.com/data/metric/96",0.9868,"http://nhs.publishmydata.com/data/metric/182/year/2016/RXQ50","http://nhs.publishmydata.com/data/metric/182",62
"HP218AL",-0.802734242528355,51.7983144717908,1002787,"HP21 8AL","http://nhs.publishmydata.com/id/organisation/nacs/RXQ02","Stoke Mandeville Hospital","HP21 8AL","http://nhs.publishmydata.com/data/metric/96/year/2016/RXQ02","http://nhs.publishmydata.com/data/metric/96",0.9868,"http://nhs.publishmydata.com/data/metric/182/year/2016/RXQ02","http://nhs.publishmydata.com/data/metric/182",62
"HP24AD",-0.468577456386959,51.7508726214309,1000152,"HP2  4AD","http://nhs.publishmydata.com/id/organisation/nacs/RWG08","Hemel Hempstead Hospital","HP2 4AD","http://nhs.publishmydata.com/data/metric/96/year/2016/RWG08","http://nhs.publishmydata.com/data/metric/96",0.9378,"http://nhs.publishmydata.com/data/metric/182/year/2016/RWG08","http://nhs.publishmydata.com/data/metric/182",54
"HP70JD",-0.621366323996558,51.6629506079712,1010170,"HP7  0JD","http://nhs.publishmydata.com/id/organisation/nacs/RXQ51","Amersham Hospital","HP7 0JD","http://nhs.publishmydata.com/data/metric/96/year/2016/RXQ51","http://nhs.publishmydata.com/data/metric/96",0.9868,"http://nhs.publishmydata.com/data/metric/182/year/2016/RXQ51","http://nhs.publishmydata.com/data/metric/182",62
"HR12BN",-2.70719608019676,52.0587390408127,1012130,"HR1  2BN","http://nhs.publishmydata.com/id/organisation/nacs/RLQ01","The County Hospital, Wye Valley NHS Trust","HR1 2BN","http://nhs.publishmydata.com/data/metric/96/year/2016/RLQ01","http://nhs.publishmydata.com/data/metric/96",1.152,"http://nhs.publishmydata.com/data/metric/182/year/2016/RLQ01","http://nhs.publishmydata.com/data/metric/182",65
"HR68JH",-2.73937422566717,52.2221918988871,1016981,"HR6  8JH","http://nhs.publishmydata.com/id/organisation/nacs/RLQ06","Leominster Community Hospital","HR6 8JH","http://nhs.publishmydata.com/data/metric/96/year/2016/RLQ06","http://nhs.publishmydata.com/data/metric/96",1.152,"http://nhs.publishmydata.com/data/metric/182/year/2016/RLQ06","http://nhs.publishmydata.com/data/metric/182",65
"HR74QN",-2.50679087958261,52.1863262076424,1017669,"HR7  4QN","http://nhs.publishmydata.com/id/organisation/nacs/RLQ03","Bromyard Community Hospital","HR7 4QN","http://nhs.publishmydata.com/data/metric/96/year/2016/RLQ03","http://nhs.publishmydata.com/data/metric/96",1.152,"http://nhs.publishmydata.com/data/metric/182/year/2016/RLQ03","http://nhs.publishmydata.com/data/metric/182",65
"HR95AD",-2.58361769727893,51.9123699381114,1018463,"HR9  5AD","http://nhs.publishmydata.com/id/organisation/nacs/RLQ08","Ross on Wye Community Hospital","HR9 5AD","http://nhs.publishmydata.com/data/metric/96/year/2016/RLQ08","http://nhs.publishmydata.com/data/metric/96",1.152,"http://nhs.publishmydata.com/data/metric/182/year/2016/RLQ08","http://nhs.publishmydata.com/data/metric/182",65
"HU165JQ",-0.444989962182241,53.7767535997922,1025331,"HU16 5JQ","http://nhs.publishmydata.com/id/organisation/nacs/RWA16","Castle Hill Hospital","HU16 5JQ","http://nhs.publishmydata.com/data/metric/96/year/2016/RWA16","http://nhs.publishmydata.com/data/metric/96",1.1223,"http://nhs.publishmydata.com/data/metric/182/year/2016/RWA16","http://nhs.publishmydata.com/data/metric/182",58
"HU32JZ",-0.358152347975763,53.7441342041214,1028369,"HU3  2JZ","http://nhs.publishmydata.com/id/organisation/nacs/RWA01","Hull Royal Infirmary","HU3 2JZ","http://nhs.publishmydata.com/data/metric/96/year/2016/RWA01","http://nhs.publishmydata.com/data/metric/96",1.1223,"http://nhs.publishmydata.com/data/metric/182/year/2016/RWA01","http://nhs.publishmydata.com/data/metric/182",58
"HX30PW",-1.85751024393012,53.7048361786932,1038541,"HX3  0PW","http://nhs.publishmydata.com/id/organisation/nacs/RWY02","Calderdale Royal Hospital","HX3 0PW","http://nhs.publishmydata.com/data/metric/96/year/2016/RWY02","http://nhs.publishmydata.com/data/metric/96",1.138,"http://nhs.publishmydata.com/data/metric/182/year/2016/RWY02","http://nhs.publishmydata.com/data/metric/182",67
"IG119LX",0.098754190864863,51.5385650274535,1047238,"IG11 9LX","http://nhs.publishmydata.com/id/organisation/nacs/RF4PP","Barking Hospital","IG11 9LX","http://nhs.publishmydata.com/data/metric/96/year/2016/RF4PP","http://nhs.publishmydata.com/data/metric/96",0.9598,"http://nhs.publishmydata.com/data/metric/182/year/2016/RF4PP","http://nhs.publishmydata.com/data/metric/182",59
"IG38YB",0.112133312999205,51.5805457223197,1048417,"IG3  8YB","http://nhs.publishmydata.com/id/organisation/nacs/RF4DG","King George Hospital","IG3 8YB","http://nhs.publishmydata.com/data/metric/96/year/2016/RF4DG","http://nhs.publishmydata.com/data/metric/96",0.9598,"http://nhs.publishmydata.com/data/metric/182/year/2016/RF4DG","http://nhs.publishmydata.com/data/metric/182",59
"IP117HJ",1.35597002443349,51.9637796658454,1061331,"IP11 7HJ","http://nhs.publishmydata.com/id/organisation/nacs/RGQ05","Felixstowe Hospital","IP11 7HJ","http://nhs.publishmydata.com/data/metric/96/year/2016/RGQ05","http://nhs.publishmydata.com/data/metric/96",0.9811,"http://nhs.publishmydata.com/data/metric/182/year/2016/RGQ05","http://nhs.publishmydata.com/data/metric/182",76
"IP332QZ",0.709205061474565,52.231678553995,1079472,"IP33 2QZ","http://nhs.publishmydata.com/id/organisation/nacs/RGR50","West Suffolk Hospital","IP33 2QZ","http://nhs.publishmydata.com/data/metric/96/year/2016/RGR50","http://nhs.publishmydata.com/data/metric/96",0.8765,"http://nhs.publishmydata.com/data/metric/182/year/2016/RGR50","http://nhs.publishmydata.com/data/metric/182",84
"IP45PD",1.19794512848991,52.0568633470467,1081117,"IP4  5PD","http://nhs.publishmydata.com/id/organisation/nacs/RGQ02","The Ipswich Hospital","IP4 5PD","http://nhs.publishmydata.com/data/metric/96/year/2016/RGQ02","http://nhs.publishmydata.com/data/metric/96",0.9811,"http://nhs.publishmydata.com/data/metric/182/year/2016/RGQ02","http://nhs.publishmydata.com/data/metric/182",76
"KT138DY",-0.460791073080447,51.3733820188688,1118054,"KT13 8DY","http://nhs.publishmydata.com/id/organisation/nacs/RTK05","Weybridge Community Hospital","KT13 8DY","http://nhs.publishmydata.com/data/metric/96/year/2016/RTK05","http://nhs.publishmydata.com/data/metric/96",0.9377,"http://nhs.publishmydata.com/data/metric/182/year/2016/RTK05","http://nhs.publishmydata.com/data/metric/182",65
"KT160PZ",-0.527041100289855,51.3778309906449,1120563,"KT16 0PZ","http://nhs.publishmydata.com/id/organisation/nacs/RTK01","St Peter's Hospital","KT16 0PZ","http://nhs.publishmydata.com/data/metric/96/year/2016/RTK01","http://nhs.publishmydata.com/data/metric/96",0.9377,"http://nhs.publishmydata.com/data/metric/182/year/2016/RTK01","http://nhs.publishmydata.com/data/metric/182",65
"KT187EG",-0.273206423501805,51.3255169390774,1122930,"KT18 7EG","http://nhs.publishmydata.com/id/organisation/nacs/RVR50","Epsom Hospital","KT18 7EG","http://nhs.publishmydata.com/data/metric/96/year/2016/RVR50","http://nhs.publishmydata.com/data/metric/96",0.9574,"http://nhs.publishmydata.com/data/metric/182/year/2016/RVR50","http://nhs.publishmydata.com/data/metric/182",72
"KT27QB",-0.283067498938362,51.4142842052037,1124951,"KT2  7QB","http://nhs.publishmydata.com/id/organisation/nacs/RAX01","Kingston Hospital","KT2 7QB","http://nhs.publishmydata.com/data/metric/96/year/2016/RAX01","http://nhs.publishmydata.com/data/metric/96",0.9263,"http://nhs.publishmydata.com/data/metric/182/year/2016/RAX01","http://nhs.publishmydata.com/data/metric/182",68
"L143LB",-2.89798901088529,53.4111671093204,1153270,"L14  3LB","http://nhs.publishmydata.com/id/organisation/nacs/RQ601","Broadgreen Hospital","L14 3LB","http://nhs.publishmydata.com/data/metric/96/year/2016/RQ601","http://nhs.publishmydata.com/data/metric/96",1.0229,"http://nhs.publishmydata.com/data/metric/182/year/2016/RQ601","http://nhs.publishmydata.com/data/metric/182",75
"L355DR",-2.78495291520538,53.4204850280175,1168797,"L35  5DR","http://nhs.publishmydata.com/id/organisation/nacs/RBN01","Whiston Hospital","L35 5DR","http://nhs.publishmydata.com/data/metric/96/year/2016/RBN01","http://nhs.publishmydata.com/data/metric/96",1.0338,"http://nhs.publishmydata.com/data/metric/182/year/2016/RBN01","http://nhs.publishmydata.com/data/metric/182",82
"L35PS",-2.96702184485184,53.4089388749679,1164191,"L3   5PS","http://nhs.publishmydata.com/id/organisation/nacs/RQ614","Royal Liverpool University Dental Hospital","L3 5PS","http://nhs.publishmydata.com/data/metric/96/year/2016/RQ614","http://nhs.publishmydata.com/data/metric/96",1.0229,"http://nhs.publishmydata.com/data/metric/182/year/2016/RQ614","http://nhs.publishmydata.com/data/metric/182",75
"L392AZ",-2.87125033641412,53.5646318808766,1171485,"L39  2AZ","http://nhs.publishmydata.com/id/organisation/nacs/RVY02","Ormskirk and District General Hospital","L39 2AZ","http://nhs.publishmydata.com/data/metric/96/year/2016/RVY02","http://nhs.publishmydata.com/data/metric/96",1.0789,"http://nhs.publishmydata.com/data/metric/182/year/2016/RVY02","http://nhs.publishmydata.com/data/metric/182",54
"L78XP",-2.96480861670877,53.4095230533547,1190112,"L7   8XP","http://nhs.publishmydata.com/id/organisation/nacs/RQ617","The Royal Liverpool University Hospital","L7 8XP","http://nhs.publishmydata.com/data/metric/96/year/2016/RQ617","http://nhs.publishmydata.com/data/metric/96",1.0229,"http://nhs.publishmydata.com/data/metric/182/year/2016/RQ617","http://nhs.publishmydata.com/data/metric/182",75
"L91AE",-2.96686622050625,53.4511690830072,1191580,"L9   1AE","http://nhs.publishmydata.com/id/organisation/nacs/REM20","Walton Hospital","L9 1AE","http://nhs.publishmydata.com/data/metric/96/year/2016/REM20","http://nhs.publishmydata.com/data/metric/96",1.0364,"http://nhs.publishmydata.com/data/metric/182/year/2016/REM20","http://nhs.publishmydata.com/data/metric/182",70
"L97AL",-2.93110292001525,53.4663384959076,1191995,"L9   7AL","http://nhs.publishmydata.com/id/organisation/nacs/REM21","Aintree University Hospital","L9 7AL","http://nhs.publishmydata.com/data/metric/96/year/2016/REM21","http://nhs.publishmydata.com/data/metric/96",1.0364,"http://nhs.publishmydata.com/data/metric/182/year/2016/REM21","http://nhs.publishmydata.com/data/metric/182",70
"LA144LF",-3.20789676324056,54.1364033016531,1197652,"LA14 4LF","http://nhs.publishmydata.com/id/organisation/nacs/RTXBU","Furness General Hospital","LA14 4LF","http://nhs.publishmydata.com/data/metric/96/year/2016/RTXBU","http://nhs.publishmydata.com/data/metric/96",0.9914,"http://nhs.publishmydata.com/data/metric/182/year/2016/RTXBU","http://nhs.publishmydata.com/data/metric/182",64
"LA14RP",-2.79922794608399,54.0427358608246,1193533,"LA1  4RP","http://nhs.publishmydata.com/id/organisation/nacs/RTX02","Royal Lancaster Infirmary","LA1 4RP","http://nhs.publishmydata.com/data/metric/96/year/2016/RTX02","http://nhs.publishmydata.com/data/metric/96",0.9914,"http://nhs.publishmydata.com/data/metric/182/year/2016/RTX02","http://nhs.publishmydata.com/data/metric/182",64
"LA97RG",-2.73255330650687,54.3067127897139,1206633,"LA9  7RG","http://nhs.publishmydata.com/id/organisation/nacs/RTXBW","Westmorland General Hospital","LA9 7RG","http://nhs.publishmydata.com/data/metric/96/year/2016/RTXBW","http://nhs.publishmydata.com/data/metric/96",0.9914,"http://nhs.publishmydata.com/data/metric/182/year/2016/RTXBW","http://nhs.publishmydata.com/data/metric/182",64
"LE101AG",-1.36824752281792,52.5397686755653,1211441,"LE10 1AG","http://nhs.publishmydata.com/id/organisation/nacs/RWELH","Hinckley & District Hosp","LE10 1AG","http://nhs.publishmydata.com/data/metric/96/year/2016/RWELH","http://nhs.publishmydata.com/data/metric/96",0.9816,"http://nhs.publishmydata.com/data/metric/182/year/2016/RWELH","http://nhs.publishmydata.com/data/metric/182",64
"LE131SJ",-0.877288730459945,52.7659581338672,1216758,"LE13 1SJ","http://nhs.publishmydata.com/id/organisation/nacs/RWE10","St Mary's Hospital","LE13 1SJ","http://nhs.publishmydata.com/data/metric/96/year/2016/RWE10","http://nhs.publishmydata.com/data/metric/96",0.9816,"http://nhs.publishmydata.com/data/metric/182/year/2016/RWE10","http://nhs.publishmydata.com/data/metric/182",64
"LE156NT",-0.737528931439299,52.6708208675205,1218039,"LE15 6NT","http://nhs.publishmydata.com/id/organisation/nacs/RWELR","Rutland Memorial Hospital - University Hospitals Of Leicester NHS Trust","LE15 6NT","http://nhs.publishmydata.com/data/metric/96/year/2016/RWELR","http://nhs.publishmydata.com/data/metric/96",0.9816,"http://nhs.publishmydata.com/data/metric/182/year/2016/RWELR","http://nhs.publishmydata.com/data/metric/182",64
"LE15WW",-1.13479482286182,52.6278347263812,1210333,"LE1  5WW","http://nhs.publishmydata.com/id/organisation/nacs/RWEAA","Leicester Royal Infirmary","LE1 5WW","http://nhs.publishmydata.com/data/metric/96/year/2016/RWEAA","http://nhs.publishmydata.com/data/metric/96",0.9816,"http://nhs.publishmydata.com/data/metric/182/year/2016/RWEAA","http://nhs.publishmydata.com/data/metric/182",64
"LE167BN",-0.931077903006577,52.4872267583456,1219284,"LE16 7BN","http://nhs.publishmydata.com/id/organisation/nacs/RWELS","St Lukes Hospital","LE16 7BN","http://nhs.publishmydata.com/data/metric/96/year/2016/RWELS","http://nhs.publishmydata.com/data/metric/96",0.9816,"http://nhs.publishmydata.com/data/metric/182/year/2016/RWELS","http://nhs.publishmydata.com/data/metric/182",64
"LE39QP",-1.180011261271,52.6543803587212,1228170,"LE3  9QP","http://nhs.publishmydata.com/id/organisation/nacs/RWEAE","Glenfield Hospital","LE3 9QP","http://nhs.publishmydata.com/data/metric/96/year/2016/RWEAE","http://nhs.publishmydata.com/data/metric/96",0.9816,"http://nhs.publishmydata.com/data/metric/182/year/2016/RWEAE","http://nhs.publishmydata.com/data/metric/182",64
"LE54PW",-1.0817552683031,52.6299440581424,1231989,"LE5  4PW","http://nhs.publishmydata.com/id/organisation/nacs/RWEAK","Leicester General Hospital","LE5 4PW","http://nhs.publishmydata.com/data/metric/96/year/2016/RWEAK","http://nhs.publishmydata.com/data/metric/96",0.9816,"http://nhs.publishmydata.com/data/metric/182/year/2016/RWEAK","http://nhs.publishmydata.com/data/metric/182",64
"LN110EU",-0.008582687423314,53.37103466651,1268487,"LN11 0EU","http://nhs.publishmydata.com/id/organisation/nacs/RWDAA","County Hospital Louth - United Lincolnshire Hospitals NHS Trust","LN11 0EU","http://nhs.publishmydata.com/data/metric/96/year/2016/RWDAA","http://nhs.publishmydata.com/data/metric/96",1.1099,"http://nhs.publishmydata.com/data/metric/182/year/2016/RWDAA","http://nhs.publishmydata.com/data/metric/182",54
"LN25QY",-0.519635107302795,53.2335974607636,1272081,"LN2  5QY","http://nhs.publishmydata.com/id/organisation/nacs/RWDDA","Lincoln County Hospital","LN2 5QY","http://nhs.publishmydata.com/data/metric/96/year/2016/RWDDA","http://nhs.publishmydata.com/data/metric/96",1.1099,"http://nhs.publishmydata.com/data/metric/182/year/2016/RWDDA","http://nhs.publishmydata.com/data/metric/182",54
"LS13EX",-1.55174796542665,53.80146115827,1279335,"LS1  3EX","http://nhs.publishmydata.com/id/organisation/nacs/RR801","Leeds General Infirmary","LS1 3EX","http://nhs.publishmydata.com/data/metric/96/year/2016/RR801","http://nhs.publishmydata.com/data/metric/96",1.0065,"http://nhs.publishmydata.com/data/metric/182/year/2016/RR801","http://nhs.publishmydata.com/data/metric/182",69
"LS146UH",-1.47090813552231,53.8066058874585,1287050,"LS14 6UH","http://nhs.publishmydata.com/id/organisation/nacs/RR814","Seacroft Hospital","LS14 6UH","http://nhs.publishmydata.com/data/metric/96/year/2016/RR814","http://nhs.publishmydata.com/data/metric/96",1.0065,"http://nhs.publishmydata.com/data/metric/182/year/2016/RR814","http://nhs.publishmydata.com/data/metric/182",69
"LS212LY",-1.70060362086801,53.9143715330563,1294605,"LS21 2LY","http://nhs.publishmydata.com/id/organisation/nacs/RR807","Wharfedale Hospital","LS21 2LY","http://nhs.publishmydata.com/data/metric/96/year/2016/RR807","http://nhs.publishmydata.com/data/metric/96",1.0065,"http://nhs.publishmydata.com/data/metric/182/year/2016/RR807","http://nhs.publishmydata.com/data/metric/182",69
"LS29LU",-1.55572067340044,53.8033903851206,1293589,"LS2  9LU","http://nhs.publishmydata.com/id/organisation/nacs/RR802","Leeds Dental Hospital","LS2 9LU","http://nhs.publishmydata.com/data/metric/96/year/2016/RR802","http://nhs.publishmydata.com/data/metric/96",1.0065,"http://nhs.publishmydata.com/data/metric/182/year/2016/RR802","http://nhs.publishmydata.com/data/metric/182",69
"LS74SA",-1.52981429123571,53.822651912721,1306953,"LS7  4SA","http://nhs.publishmydata.com/id/organisation/nacs/RR819","Chapel Allerton Hospital","LS7 4SA","http://nhs.publishmydata.com/data/metric/96/year/2016/RR819","http://nhs.publishmydata.com/data/metric/96",1.0065,"http://nhs.publishmydata.com/data/metric/182/year/2016/RR819","http://nhs.publishmydata.com/data/metric/182",69
"LS97TF",-1.52036268612358,53.806885380198,1309358,"LS9  7TF","http://nhs.publishmydata.com/id/organisation/nacs/RR813","St James's Hospital","LS9 7TF","http://nhs.publishmydata.com/data/metric/96/year/2016/RR813","http://nhs.publishmydata.com/data/metric/96",1.0065,"http://nhs.publishmydata.com/data/metric/182/year/2016/RR813","http://nhs.publishmydata.com/data/metric/182",69
"LU40DZ",-0.476018647176721,51.8954134886494,1314268,"LU4  0DZ","http://nhs.publishmydata.com/id/organisation/nacs/RC971","Luton and Dunstable Hospital","LU4 0DZ","http://nhs.publishmydata.com/data/metric/96/year/2016/RC971","http://nhs.publishmydata.com/data/metric/96",1.1032,"http://nhs.publishmydata.com/data/metric/182/year/2016/RC971","http://nhs.publishmydata.com/data/metric/182",72
"M139WL",-2.22770941723437,53.4624524783888,1324673,"M13  9WL","http://nhs.publishmydata.com/id/organisation/nacs/RW3RE","Manchester Royal Eye Hospital","M13 9WL","http://nhs.publishmydata.com/data/metric/96/year/2016/RW3RE","http://nhs.publishmydata.com/data/metric/96",1.0045,"http://nhs.publishmydata.com/data/metric/182/year/2016/RW3RE","http://nhs.publishmydata.com/data/metric/182",69
"M139WL",-2.22770941723437,53.4624524783888,1324673,"M13  9WL","http://nhs.publishmydata.com/id/organisation/nacs/RW3RC","Royal Manchester Children's Hospital","M13 9WL","http://nhs.publishmydata.com/data/metric/96/year/2016/RW3RC","http://nhs.publishmydata.com/data/metric/96",1.0045,"http://nhs.publishmydata.com/data/metric/182/year/2016/RW3RC","http://nhs.publishmydata.com/data/metric/182",69
"M139WL",-2.22770941723437,53.4624524783888,1324673,"M13  9WL","http://nhs.publishmydata.com/id/organisation/nacs/RW3SM","Saint Mary's Hospital","M13 9WL","http://nhs.publishmydata.com/data/metric/96/year/2016/RW3SM","http://nhs.publishmydata.com/data/metric/96",1.0045,"http://nhs.publishmydata.com/data/metric/182/year/2016/RW3SM","http://nhs.publishmydata.com/data/metric/182",69
"M139WL",-2.22770941723437,53.4624524783888,1324673,"M13  9WL","http://nhs.publishmydata.com/id/organisation/nacs/RW3MR","Manchester Royal Infirmary","M13 9WL","http://nhs.publishmydata.com/data/metric/96/year/2016/RW3MR","http://nhs.publishmydata.com/data/metric/96",1.0045,"http://nhs.publishmydata.com/data/metric/182/year/2016/RW3MR","http://nhs.publishmydata.com/data/metric/182",69
"M156FH",-2.23670267399296,53.465401296278,1326930,"M15  6FH","http://nhs.publishmydata.com/id/organisation/nacs/RW3DH","University Dental Hospital of Manchester","M15 6FH","http://nhs.publishmydata.com/data/metric/96/year/2016/RW3DH","http://nhs.publishmydata.com/data/metric/96",1.0045,"http://nhs.publishmydata.com/data/metric/182/year/2016/RW3DH","http://nhs.publishmydata.com/data/metric/182",69
"M202LR",-2.24523856535367,53.4252134561431,1331948,"M20  2LR","http://nhs.publishmydata.com/id/organisation/nacs/RM201","Withington Hospital","M20 2LR","http://nhs.publishmydata.com/data/metric/96/year/2016/RM201","http://nhs.publishmydata.com/data/metric/96",0.9793,"http://nhs.publishmydata.com/data/metric/182/year/2016/RM201","http://nhs.publishmydata.com/data/metric/182",79
"M239LT",-2.2931830860161,53.3879381792618,1338682,"M23  9LT","http://nhs.publishmydata.com/id/organisation/nacs/RM202","Wythenshawe Hospital","M23 9LT","http://nhs.publishmydata.com/data/metric/96/year/2016/RM202","http://nhs.publishmydata.com/data/metric/96",0.9793,"http://nhs.publishmydata.com/data/metric/182/year/2016/RM202","http://nhs.publishmydata.com/data/metric/182",79
"M415SL",-2.37067947625867,53.4540761109652,1363573,"M41  5SL","http://nhs.publishmydata.com/id/organisation/nacs/RW3TR","Trafford General Hospital","M41 5SL","http://nhs.publishmydata.com/data/metric/96/year/2016/RW3TR","http://nhs.publishmydata.com/data/metric/96",1.0045,"http://nhs.publishmydata.com/data/metric/182/year/2016/RW3TR","http://nhs.publishmydata.com/data/metric/182",69
"M68HD",-2.32342333786634,53.487561654628,1370153,"M6   8HD","http://nhs.publishmydata.com/id/organisation/nacs/RM301","Salford Royal","M6 8HD","http://nhs.publishmydata.com/data/metric/96/year/2016/RM301","http://nhs.publishmydata.com/data/metric/96",0.8962,"http://nhs.publishmydata.com/data/metric/182/year/2016/RM301","http://nhs.publishmydata.com/data/metric/182",82
"M85RB",-2.22949909409012,53.5178983316503,1374336,"M8   5RB","http://nhs.publishmydata.com/id/organisation/nacs/RW602","North Manchester General Hospital","M8 5RB","http://nhs.publishmydata.com/data/metric/96/year/2016/RW602","http://nhs.publishmydata.com/data/metric/96",1.0796,"http://nhs.publishmydata.com/data/metric/182/year/2016/RW602","http://nhs.publishmydata.com/data/metric/182",57
"ME169QQ",0.484004010704015,51.2736607350165,1387053,"ME16 9QQ","http://nhs.publishmydata.com/id/organisation/nacs/RWF03","Maidstone Hospital","ME16 9QQ","http://nhs.publishmydata.com/data/metric/96/year/2016/RWF03","http://nhs.publishmydata.com/data/metric/96",1.0568,"http://nhs.publishmydata.com/data/metric/182/year/2016/RWF03","http://nhs.publishmydata.com/data/metric/182",75
"ME75NY",0.542090556208497,51.3798613652226,1396392,"ME7  5NY","http://nhs.publishmydata.com/id/organisation/nacs/RPA02","Medway Maritime Hospital","ME7 5NY","http://nhs.publishmydata.com/data/metric/96/year/2016/RPA02","http://nhs.publishmydata.com/data/metric/96",1.1274,"http://nhs.publishmydata.com/data/metric/182/year/2016/RPA02","http://nhs.publishmydata.com/data/metric/182",51
"MK181NU",-0.986428696222997,52.0012761946094,1405246,"MK18 1NU","http://nhs.publishmydata.com/id/organisation/nacs/RXQ61","Buckingham Community Hospital","MK18 1NU","http://nhs.publishmydata.com/data/metric/96/year/2016/RXQ61","http://nhs.publishmydata.com/data/metric/96",0.9868,"http://nhs.publishmydata.com/data/metric/182/year/2016/RXQ61","http://nhs.publishmydata.com/data/metric/182",62
"MK402NS",-0.461758119181935,52.141201728541,1409668,"MK40 2NS","http://nhs.publishmydata.com/id/organisation/nacs/RC111","Bedford Hospital North Wing","MK40 2NS","http://nhs.publishmydata.com/data/metric/96/year/2016/RC111","http://nhs.publishmydata.com/data/metric/96",0.9937,"http://nhs.publishmydata.com/data/metric/182/year/2016/RC111","http://nhs.publishmydata.com/data/metric/182",78
"MK429DJ",-0.472473413908804,52.1282765454634,1413227,"MK42 9DJ","http://nhs.publishmydata.com/id/organisation/nacs/RC110","Bedford Hospital South Wing","MK42 9DJ","http://nhs.publishmydata.com/data/metric/96/year/2016/RC110","http://nhs.publishmydata.com/data/metric/96",0.9937,"http://nhs.publishmydata.com/data/metric/182/year/2016/RC110","http://nhs.publishmydata.com/data/metric/182",78
"MK65LD",-0.735774514122651,52.0263839848884,1419076,"MK6  5LD","http://nhs.publishmydata.com/id/organisation/nacs/RD816","Milton Keynes Hospital","MK6 5LD","http://nhs.publishmydata.com/data/metric/96/year/2016/RD816","http://nhs.publishmydata.com/data/metric/96",1.0261,"http://nhs.publishmydata.com/data/metric/182/year/2016/RD816","http://nhs.publishmydata.com/data/metric/182",64
"N153TH",-0.092071071649373,51.5806276829454,1441305,"N15  3TH","http://nhs.publishmydata.com/id/organisation/nacs/RKEAN","St. Ann's Hospital","N15 3TH","http://nhs.publishmydata.com/data/metric/96/year/2016/RKEAN","http://nhs.publishmydata.com/data/metric/96",0.6688,"http://nhs.publishmydata.com/data/metric/182/year/2016/RKEAN","http://nhs.publishmydata.com/data/metric/182",69
"N15LZ",-0.077759315842791,51.5339201673373,1434373,"N1   5LZ","http://nhs.publishmydata.com/id/organisation/nacs/RQX20","St Leonard's","N1 5LZ","http://nhs.publishmydata.com/data/metric/96/year/2016/RQX20","http://nhs.publishmydata.com/data/metric/96",0.9421,"http://nhs.publishmydata.com/data/metric/182/year/2016/RQX20","http://nhs.publishmydata.com/data/metric/182",74
"N181QX",-0.073724527299255,51.6130962254414,1445971,"N18  1QX","http://nhs.publishmydata.com/id/organisation/nacs/RAPNM","North Middlesex University Hospital NHS Trust","N18 1QX","http://nhs.publishmydata.com/data/metric/96/year/2016/RAPNM","http://nhs.publishmydata.com/data/metric/96",0.9494,"http://nhs.publishmydata.com/data/metric/182/year/2016/RAPNM","http://nhs.publishmydata.com/data/metric/182",49
"N195NF",-0.138611487603401,51.5663131741272,1447426,"N19  5NF","http://nhs.publishmydata.com/id/organisation/nacs/RKEQ4","The Whittington Health","N19 5NF","http://nhs.publishmydata.com/data/metric/96/year/2016/RKEQ4","http://nhs.publishmydata.com/data/metric/96",0.6688,"http://nhs.publishmydata.com/data/metric/182/year/2016/RKEQ4","http://nhs.publishmydata.com/data/metric/182",69
"N88JD",-0.130733738395303,51.583543411622,1459217,"N8   8JD","http://nhs.publishmydata.com/id/organisation/nacs/RKEHC","The Whittington Hospital At Hornsey Central","N8 8JD","http://nhs.publishmydata.com/data/metric/96/year/2016/RKEHC","http://nhs.publishmydata.com/data/metric/96",0.6688,"http://nhs.publishmydata.com/data/metric/182/year/2016/RKEHC","http://nhs.publishmydata.com/data/metric/182",69
"NE119QT",-1.65947971421401,54.9463993263241,1463825,"NE11 9QT","http://nhs.publishmydata.com/id/organisation/nacs/RR7ER","Dunston Hill Hospital","NE11 9QT","http://nhs.publishmydata.com/data/metric/96/year/2016/RR7ER","http://nhs.publishmydata.com/data/metric/96",0.9646,"http://nhs.publishmydata.com/data/metric/182/year/2016/RR7ER","http://nhs.publishmydata.com/data/metric/182",76
"NE14LP",-1.61886862425134,54.9802199769634,1461642,"NE1  4LP","http://nhs.publishmydata.com/id/organisation/nacs/RTD10","Great North Childrens Hospital","NE1 4LP","http://nhs.publishmydata.com/data/metric/96/year/2016/RTD10","http://nhs.publishmydata.com/data/metric/96",0.9875,"http://nhs.publishmydata.com/data/metric/182/year/2016/RTD10","http://nhs.publishmydata.com/data/metric/182",89
"NE14LP",-1.61886862425134,54.9802199769634,1461642,"NE1  4LP","http://nhs.publishmydata.com/id/organisation/nacs/RTD02","The Royal Victoria Infirmary","NE1 4LP","http://nhs.publishmydata.com/data/metric/96/year/2016/RTD02","http://nhs.publishmydata.com/data/metric/96",0.9875,"http://nhs.publishmydata.com/data/metric/182/year/2016/RTD02","http://nhs.publishmydata.com/data/metric/182",89
"NE236NZ",-1.5695066204292,55.0740961147388,1471612,"NE23 6NZ","http://nhs.publishmydata.com/id/organisation/nacs/RTF86","Northumbria Specialist Emergency Care Hospital","NE23 6NZ","http://nhs.publishmydata.com/data/metric/96/year/2016/RTF86","http://nhs.publishmydata.com/data/metric/96",1.0372,"http://nhs.publishmydata.com/data/metric/182/year/2016/RTF86","http://nhs.publishmydata.com/data/metric/182",85
"NE241DX",-1.51494965289084,55.1278787567847,1472620,"NE24 1DX","http://nhs.publishmydata.com/id/organisation/nacs/RTFDX","Blyth Community Hospital","NE24 1DX","http://nhs.publishmydata.com/data/metric/96/year/2016/RTFDX","http://nhs.publishmydata.com/data/metric/96",1.0372,"http://nhs.publishmydata.com/data/metric/182/year/2016/RTFDX","http://nhs.publishmydata.com/data/metric/182",85
"NE24AZ",-1.62273157237841,54.981508062513,1469041,"NE2  4AZ","http://nhs.publishmydata.com/id/organisation/nacs/RTD04","Newcastle Dental Hospital","NE2 4AZ","http://nhs.publishmydata.com/data/metric/96/year/2016/RTD04","http://nhs.publishmydata.com/data/metric/96",0.9875,"http://nhs.publishmydata.com/data/metric/182/year/2016/RTD04","http://nhs.publishmydata.com/data/metric/182",89
"NE287PB",-1.5312947969596,54.9961169740409,1476537,"NE28 7PB","http://nhs.publishmydata.com/id/organisation/nacs/RTFFQ","Sir G B Hunter Memorial Hospital","NE28 7PB","http://nhs.publishmydata.com/data/metric/96/year/2016/RTFFQ","http://nhs.publishmydata.com/data/metric/96",1.0372,"http://nhs.publishmydata.com/data/metric/182/year/2016/RTFFQ","http://nhs.publishmydata.com/data/metric/182",85
"NE298NH",-1.46735325383858,55.0252484934975,1478228,"NE29 8NH","http://nhs.publishmydata.com/id/organisation/nacs/RTFFS","North Tyneside General Hospital","NE29 8NH","http://nhs.publishmydata.com/data/metric/96/year/2016/RTFFS","http://nhs.publishmydata.com/data/metric/96",1.0372,"http://nhs.publishmydata.com/data/metric/182/year/2016/RTFFS","http://nhs.publishmydata.com/data/metric/182",85
"NE323UX",-1.49198967175883,54.9806649342956,1481937,"NE32 3UX","http://nhs.publishmydata.com/id/organisation/nacs/RE9GF","Palmer Community Hospital","NE32 3UX","http://nhs.publishmydata.com/data/metric/96/year/2016/RE9GF","http://nhs.publishmydata.com/data/metric/96",1.1556,"http://nhs.publishmydata.com/data/metric/182/year/2016/RE9GF","http://nhs.publishmydata.com/data/metric/182",62
"NE325HA",-1.48573408385798,54.9676624496615,1482319,"NE32 5HA","http://nhs.publishmydata.com/id/organisation/nacs/RE9GC","Primrose Hill Hospital","NE32 5HA","http://nhs.publishmydata.com/data/metric/96/year/2016/RE9GC","http://nhs.publishmydata.com/data/metric/96",1.1556,"http://nhs.publishmydata.com/data/metric/182/year/2016/RE9GC","http://nhs.publishmydata.com/data/metric/182",62
"NE325NN",-1.50128857686029,54.9666308070893,1482365,"NE32 5NN","http://nhs.publishmydata.com/id/organisation/nacs/RE906","Elmville Unit at Monkton Hall","NE32 5NN","http://nhs.publishmydata.com/data/metric/96/year/2016/RE906","http://nhs.publishmydata.com/data/metric/96",1.1556,"http://nhs.publishmydata.com/data/metric/182/year/2016/RE906","http://nhs.publishmydata.com/data/metric/182",62
"NE340PL",-1.42994299037193,54.9718802832345,1483887,"NE34 0PL","http://nhs.publishmydata.com/id/organisation/nacs/RE9GA","South Tyneside District Hospital","NE34 0PL","http://nhs.publishmydata.com/data/metric/96/year/2016/RE9GA","http://nhs.publishmydata.com/data/metric/96",1.1556,"http://nhs.publishmydata.com/data/metric/182/year/2016/RE9GA","http://nhs.publishmydata.com/data/metric/182",62
"NE461QJ",-2.09515364453624,54.969617696288,1490216,"NE46 1QJ","http://nhs.publishmydata.com/id/organisation/nacs/RTFDR","Hexham General Hospital","NE46 1QJ","http://nhs.publishmydata.com/data/metric/96/year/2016/RTFDR","http://nhs.publishmydata.com/data/metric/96",1.0372,"http://nhs.publishmydata.com/data/metric/182/year/2016/RTFDR","http://nhs.publishmydata.com/data/metric/182",85
"NE499AJ",-2.46294226256904,54.9701115026484,1492489,"NE49 9AJ","http://nhs.publishmydata.com/id/organisation/nacs/RTFDU","Haltwhistle War Memorial Hospital","NE49 9AJ","http://nhs.publishmydata.com/data/metric/96/year/2016/RTFDU","http://nhs.publishmydata.com/data/metric/96",1.0372,"http://nhs.publishmydata.com/data/metric/182/year/2016/RTFDU","http://nhs.publishmydata.com/data/metric/182",85
"NE639JJ",-1.54661639020451,55.1843150321442,1498291,"NE63 9JJ","http://nhs.publishmydata.com/id/organisation/nacs/RTFED","Wansbeck General Hospital","NE63 9JJ","http://nhs.publishmydata.com/data/metric/96/year/2016/RTFED","http://nhs.publishmydata.com/data/metric/96",1.0372,"http://nhs.publishmydata.com/data/metric/182/year/2016/RTFED","http://nhs.publishmydata.com/data/metric/182",85
"NE657RW",-1.91392610899748,55.3067741146397,1499295,"NE65 7RW","http://nhs.publishmydata.com/id/organisation/nacs/RTFEF","Rothbury Community Hospital","NE65 7RW","http://nhs.publishmydata.com/data/metric/96/year/2016/RTFEF","http://nhs.publishmydata.com/data/metric/96",1.0372,"http://nhs.publishmydata.com/data/metric/182/year/2016/RTFEF","http://nhs.publishmydata.com/data/metric/182",85
"NE662NS",-1.697230251251,55.4109411257403,1500332,"NE66 2NS","http://nhs.publishmydata.com/id/organisation/nacs/RTFDJ","Alnwick Infirmary","NE66 2NS","http://nhs.publishmydata.com/data/metric/96/year/2016/RTFDJ","http://nhs.publishmydata.com/data/metric/96",1.0372,"http://nhs.publishmydata.com/data/metric/182/year/2016/RTFDJ","http://nhs.publishmydata.com/data/metric/182",85
"NE77DN",-1.59373637320174,55.0027662403629,1501385,"NE7  7DN","http://nhs.publishmydata.com/id/organisation/nacs/RTD01","Freeman Hospital","NE7 7DN","http://nhs.publishmydata.com/data/metric/96/year/2016/RTD01","http://nhs.publishmydata.com/data/metric/96",0.9875,"http://nhs.publishmydata.com/data/metric/182/year/2016/RTD01","http://nhs.publishmydata.com/data/metric/182",89
"NE84YL",-1.61498549403691,54.9449641432668,1503194,"NE8  4YL","http://nhs.publishmydata.com/id/organisation/nacs/RR7EM","Bensham Hospital","NE8 4YL","http://nhs.publishmydata.com/data/metric/96/year/2016/RR7EM","http://nhs.publishmydata.com/data/metric/96",0.9646,"http://nhs.publishmydata.com/data/metric/182/year/2016/RR7EM","http://nhs.publishmydata.com/data/metric/182",76
"NE96SX",-1.58079337897669,54.9393877051049,1503908,"NE9  6SX","http://nhs.publishmydata.com/id/organisation/nacs/RR7EN","Queen Elizabeth Hospital","NE9 6SX","http://nhs.publishmydata.com/data/metric/96/year/2016/RR7EN","http://nhs.publishmydata.com/data/metric/96",0.9646,"http://nhs.publishmydata.com/data/metric/182/year/2016/RR7EN","http://nhs.publishmydata.com/data/metric/182",76
"NG16HA",-1.15634411680458,52.952000518045,1506357,"NG1  6HA","http://nhs.publishmydata.com/id/organisation/nacs/RX1AA","Nottingham University Hospitals NHS Trust - Ropewalk House","NG1 6HA","http://nhs.publishmydata.com/data/metric/96/year/2016/RX1AA","http://nhs.publishmydata.com/data/metric/96",1.0535,"http://nhs.publishmydata.com/data/metric/182/year/2016/RX1AA","http://nhs.publishmydata.com/data/metric/182",79
"NG174JL",-1.2322820740435,53.1343581518409,1515286,"NG17 4JL","http://nhs.publishmydata.com/id/organisation/nacs/RK5BC","King's Mill Hospital","NG17 4JL","http://nhs.publishmydata.com/data/metric/96/year/2016/RK5BC","http://nhs.publishmydata.com/data/metric/96",0.9909,"http://nhs.publishmydata.com/data/metric/182/year/2016/RK5BC","http://nhs.publishmydata.com/data/metric/182",57
"NG185QJ",-1.20614759061288,53.1412165179788,1517606,"NG18 5QJ","http://nhs.publishmydata.com/id/organisation/nacs/RK5BL","Mansfield Community Hospital","NG18 5QJ","http://nhs.publishmydata.com/data/metric/96/year/2016/RK5BL","http://nhs.publishmydata.com/data/metric/96",0.9909,"http://nhs.publishmydata.com/data/metric/182/year/2016/RK5BL","http://nhs.publishmydata.com/data/metric/182",57
"NG244DE",-0.806156921064703,53.0675288452853,1525324,"NG24 4DE","http://nhs.publishmydata.com/id/organisation/nacs/RK5HP","Newark Hospital","NG24 4DE","http://nhs.publishmydata.com/data/metric/96/year/2016/RK5HP","http://nhs.publishmydata.com/data/metric/96",0.9909,"http://nhs.publishmydata.com/data/metric/182/year/2016/RK5HP","http://nhs.publishmydata.com/data/metric/182",57
"NG318DG",-0.640708969799737,52.9211084715236,1528321,"NG31 8DG","http://nhs.publishmydata.com/id/organisation/nacs/RWDLP","Grantham and District Hospital","NG31 8DG","http://nhs.publishmydata.com/data/metric/96/year/2016/RWDLP","http://nhs.publishmydata.com/data/metric/96",1.1099,"http://nhs.publishmydata.com/data/metric/182/year/2016/RWDLP","http://nhs.publishmydata.com/data/metric/182",54
"NG51PB",-1.15988904658107,52.9910123267033,1533136,"NG5  1PB","http://nhs.publishmydata.com/id/organisation/nacs/RX1CZ","Nottingham University Hospitals NHS Trust - City Campus","NG5 1PB","http://nhs.publishmydata.com/data/metric/96/year/2016/RX1CZ","http://nhs.publishmydata.com/data/metric/96",1.0535,"http://nhs.publishmydata.com/data/metric/182/year/2016/RX1CZ","http://nhs.publishmydata.com/data/metric/182",79
"NG51PB",-1.15988904658107,52.9910123267033,1533136,"NG5  1PB","http://nhs.publishmydata.com/id/organisation/nacs/RX1CC","Nottingham University Hospitals NHS Trust - City Campus","NG5 1PB","http://nhs.publishmydata.com/data/metric/96/year/2016/RX1CC","http://nhs.publishmydata.com/data/metric/96",1.0535,"http://nhs.publishmydata.com/data/metric/182/year/2016/RX1CC","http://nhs.publishmydata.com/data/metric/182",79
"NG72UH",-1.18595249993733,52.9438201227673,1536807,"NG7  2UH","http://nhs.publishmydata.com/id/organisation/nacs/RX1RA","Nottingham University Hospitals NHS Trust - Queen's Medical Centre Campus","NG7 2UH","http://nhs.publishmydata.com/data/metric/96/year/2016/RX1RA","http://nhs.publishmydata.com/data/metric/96",1.0535,"http://nhs.publishmydata.com/data/metric/182/year/2016/RX1RA","http://nhs.publishmydata.com/data/metric/182",79
"NN15BD",-0.883829252904543,52.2360684744334,1542850,"NN1  5BD","http://nhs.publishmydata.com/id/organisation/nacs/RNS01","Northampton General Hospital (Acute)","NN1 5BD","http://nhs.publishmydata.com/data/metric/96/year/2016/RNS01","http://nhs.publishmydata.com/data/metric/96",0.9842,"http://nhs.publishmydata.com/data/metric/182/year/2016/RNS01","http://nhs.publishmydata.com/data/metric/182",60
"NN168UZ",-0.741278378884858,52.402797384129,1551386,"NN16 8UZ","http://nhs.publishmydata.com/id/organisation/nacs/RNQ51","Kettering General Hospital","NN16 8UZ","http://nhs.publishmydata.com/data/metric/96/year/2016/RNQ51","http://nhs.publishmydata.com/data/metric/96",1.0757,"http://nhs.publishmydata.com/data/metric/182/year/2016/RNQ51","http://nhs.publishmydata.com/data/metric/182",58
"NR270BQ",1.30917900727325,52.9235958310497,1609559,"NR27 0BQ","http://nhs.publishmydata.com/id/organisation/nacs/RM131","Cromer and District Hospital","NR27 0BQ","http://nhs.publishmydata.com/data/metric/96/year/2016/RM131","http://nhs.publishmydata.com/data/metric/96",1.0401,"http://nhs.publishmydata.com/data/metric/182/year/2016/RM131","http://nhs.publishmydata.com/data/metric/182",72
"NR301BU",1.73003379943477,52.6173030286727,1612543,"NR30 1BU","http://nhs.publishmydata.com/id/organisation/nacs/RGP77","Northgate Hospital","NR30 1BU","http://nhs.publishmydata.com/data/metric/96/year/2016/RGP77","http://nhs.publishmydata.com/data/metric/96",1.0895,"http://nhs.publishmydata.com/data/metric/182/year/2016/RGP77","http://nhs.publishmydata.com/data/metric/182",77
"NR316LA",1.71800355729852,52.5616974218713,1614111,"NR31 6LA","http://nhs.publishmydata.com/id/organisation/nacs/RGP75","James Paget University Hospital","NR31 6LA","http://nhs.publishmydata.com/data/metric/96/year/2016/RGP75","http://nhs.publishmydata.com/data/metric/96",1.0895,"http://nhs.publishmydata.com/data/metric/182/year/2016/RGP75","http://nhs.publishmydata.com/data/metric/182",77
"NR321PT",1.7529600372966,52.4796572799082,1615253,"NR32 1PT","http://nhs.publishmydata.com/id/organisation/nacs/RGP72","Lowestoft Hospital","NR32 1PT","http://nhs.publishmydata.com/data/metric/96/year/2016/RGP72","http://nhs.publishmydata.com/data/metric/96",1.0895,"http://nhs.publishmydata.com/data/metric/182/year/2016/RGP72","http://nhs.publishmydata.com/data/metric/182",77
"NR47UY",1.22108738047214,52.6181100181836,1619583,"NR4  7UY","http://nhs.publishmydata.com/id/organisation/nacs/RM102","Norfolk and Norwich University Hospital","NR4 7UY","http://nhs.publishmydata.com/data/metric/96/year/2016/RM102","http://nhs.publishmydata.com/data/metric/96",1.0401,"http://nhs.publishmydata.com/data/metric/182/year/2016/RM102","http://nhs.publishmydata.com/data/metric/182",72
"NW107NS",-0.269137380629052,51.530937799228,1629338,"NW10 7NS","http://nhs.publishmydata.com/id/organisation/nacs/R1K02","Central Middlesex Hospital","NW10 7NS","http://nhs.publishmydata.com/data/metric/96/year/2016/R1K02","http://nhs.publishmydata.com/data/metric/96",0.903,"http://nhs.publishmydata.com/data/metric/182/year/2016/R1K02","http://nhs.publishmydata.com/data/metric/182",63
"NW12BU",-0.136884995165538,51.5248925901371,1624330,"NW1  2BU","http://nhs.publishmydata.com/id/organisation/nacs/RRV03","University College Hospital","NW1 2BU","http://nhs.publishmydata.com/data/metric/96/year/2016/RRV03","http://nhs.publishmydata.com/data/metric/96",0.7586,"http://nhs.publishmydata.com/data/metric/182/year/2016/RRV03","http://nhs.publishmydata.com/data/metric/182",82
"NW12BU",-0.136884995165538,51.5248925901371,1624330,"NW1  2BU","http://nhs.publishmydata.com/id/organisation/nacs/RRV11","University College Hospital Elizabeth Garrett Anderson Wing","NW1 2BU","http://nhs.publishmydata.com/data/metric/96/year/2016/RRV11","http://nhs.publishmydata.com/data/metric/96",0.7586,"http://nhs.publishmydata.com/data/metric/182/year/2016/RRV11","http://nhs.publishmydata.com/data/metric/182",82
"NW15QH",-0.163304976001114,51.520704961349,1625448,"NW1  5QH","http://nhs.publishmydata.com/id/organisation/nacs/RYJ07","Western Eye Hospital","NW1 5QH","http://nhs.publishmydata.com/data/metric/96/year/2016/RYJ07","http://nhs.publishmydata.com/data/metric/96",0.758,"http://nhs.publishmydata.com/data/metric/182/year/2016/RYJ07","http://nhs.publishmydata.com/data/metric/182",68
"NW32QG",-0.165298034109166,51.5532265614856,1636116,"NW3  2QG","http://nhs.publishmydata.com/id/organisation/nacs/RAL01","Royal Free Hospital","NW3 2QG","http://nhs.publishmydata.com/data/metric/96/year/2016/RAL01","http://nhs.publishmydata.com/data/metric/96",0.8852,"http://nhs.publishmydata.com/data/metric/182/year/2016/RAL01","http://nhs.publishmydata.com/data/metric/182",72
"NW89NH",-0.175435853439851,51.5334749802681,1646192,"NW8  9NH","http://nhs.publishmydata.com/id/organisation/nacs/RAL25","Hospital Of St John & St Elizabeth","NW8 9NH","http://nhs.publishmydata.com/data/metric/96/year/2016/RAL25","http://nhs.publishmydata.com/data/metric/96",0.8852,"http://nhs.publishmydata.com/data/metric/182/year/2016/RAL25","http://nhs.publishmydata.com/data/metric/182",72
"OL120NB",-2.1601502027534,53.6242983865889,1652399,"OL12 0NB","http://nhs.publishmydata.com/id/organisation/nacs/RW604","Rochdale Infirmary","OL12 0NB","http://nhs.publishmydata.com/data/metric/96/year/2016/RW604","http://nhs.publishmydata.com/data/metric/96",1.0796,"http://nhs.publishmydata.com/data/metric/182/year/2016/RW604","http://nhs.publishmydata.com/data/metric/182",57
"OL129QB",-2.12138533925326,53.6402799279912,1653647,"OL12 9QB","http://nhs.publishmydata.com/id/organisation/nacs/RW605","Birch Hill Hospital","OL12 9QB","http://nhs.publishmydata.com/data/metric/96/year/2016/RW605","http://nhs.publishmydata.com/data/metric/96",1.0796,"http://nhs.publishmydata.com/data/metric/182/year/2016/RW605","http://nhs.publishmydata.com/data/metric/182",57
"OL12JH",-2.12182843069717,53.5532642149116,1648808,"OL1  2JH","http://nhs.publishmydata.com/id/organisation/nacs/RW603","Royal Oldham Hospital","OL1 2JH","http://nhs.publishmydata.com/data/metric/96/year/2016/RW603","http://nhs.publishmydata.com/data/metric/96",1.0796,"http://nhs.publishmydata.com/data/metric/182/year/2016/RW603","http://nhs.publishmydata.com/data/metric/182",57
"OL69RW",-2.07143220650268,53.491546277052,1662827,"OL6  9RW","http://nhs.publishmydata.com/id/organisation/nacs/RMP01","Tameside Hospital","OL6 9RW","http://nhs.publishmydata.com/data/metric/96/year/2016/RMP01","http://nhs.publishmydata.com/data/metric/96",1.1493,"http://nhs.publishmydata.com/data/metric/182/year/2016/RMP01","http://nhs.publishmydata.com/data/metric/182",73
"OX109DU",-1.128257678625,51.5954954896618,1668574,"OX10 9DU","http://nhs.publishmydata.com/id/organisation/nacs/RTH16","Wallingford Community Hospital - Oxford University Hospitals NHS Foundation Trust","OX10 9DU","http://nhs.publishmydata.com/data/metric/96/year/2016/RTH16","http://nhs.publishmydata.com/data/metric/96",0.9858,"http://nhs.publishmydata.com/data/metric/182/year/2016/RTH16","http://nhs.publishmydata.com/data/metric/182",75
"OX169AL",-1.33717507177966,52.0544165210026,1676833,"OX16 9AL","http://nhs.publishmydata.com/id/organisation/nacs/RTH05","Horton General Hospital","OX16 9AL","http://nhs.publishmydata.com/data/metric/96/year/2016/RTH05","http://nhs.publishmydata.com/data/metric/96",0.9858,"http://nhs.publishmydata.com/data/metric/182/year/2016/RTH05","http://nhs.publishmydata.com/data/metric/182",75
"OX37LE",-1.21468943453061,51.7503370807542,1685767,"OX3  7LE","http://nhs.publishmydata.com/id/organisation/nacs/RTH02","Churchill Hospital","OX3 7LE","http://nhs.publishmydata.com/data/metric/96/year/2016/RTH02","http://nhs.publishmydata.com/data/metric/96",0.9858,"http://nhs.publishmydata.com/data/metric/182/year/2016/RTH02","http://nhs.publishmydata.com/data/metric/182",75
"OX39DU",-1.21978720411029,51.7638761262306,1686343,"OX3  9DU","http://nhs.publishmydata.com/id/organisation/nacs/RTH08","John Radcliffe Hospital","OX3 9DU","http://nhs.publishmydata.com/data/metric/96/year/2016/RTH08","http://nhs.publishmydata.com/data/metric/96",0.9858,"http://nhs.publishmydata.com/data/metric/182/year/2016/RTH08","http://nhs.publishmydata.com/data/metric/182",75
"OX93JT",-0.969986230963339,51.745318815792,1698115,"OX9  3JT","http://nhs.publishmydata.com/id/organisation/nacs/RXQ62","Thame Community Hospital","OX9 3JT","http://nhs.publishmydata.com/data/metric/96/year/2016/RXQ62","http://nhs.publishmydata.com/data/metric/96",0.9868,"http://nhs.publishmydata.com/data/metric/182/year/2016/RXQ62","http://nhs.publishmydata.com/data/metric/182",62
"PE113PB",-0.152652202649927,52.8027048877808,1716029,"PE11 3PB","http://nhs.publishmydata.com/id/organisation/nacs/RWDXT","The Johnson Community Hospital - United Lincolnshire Hospitals NHS Trust","PE11 3PB","http://nhs.publishmydata.com/data/metric/96/year/2016/RWDXT","http://nhs.publishmydata.com/data/metric/96",1.1099,"http://nhs.publishmydata.com/data/metric/182/year/2016/RWDXT","http://nhs.publishmydata.com/data/metric/182",54
"PE219QS",-0.009959962109692,52.9911496328311,1731513,"PE21 9QS","http://nhs.publishmydata.com/id/organisation/nacs/RWDLA","Pilgrim Hospital","PE21 9QS","http://nhs.publishmydata.com/data/metric/96/year/2016/RWDLA","http://nhs.publishmydata.com/data/metric/96",1.1099,"http://nhs.publishmydata.com/data/metric/182/year/2016/RWDLA","http://nhs.publishmydata.com/data/metric/182",54
"PE252BS",0.332258424661504,53.1452064285324,1733810,"PE25 2BS","http://nhs.publishmydata.com/id/organisation/nacs/RWDLB","Skegness & District General Hospital - United Lincolnshire Hospitals NHS Trust","PE25 2BS","http://nhs.publishmydata.com/data/metric/96/year/2016/RWDLB","http://nhs.publishmydata.com/data/metric/96",1.1099,"http://nhs.publishmydata.com/data/metric/182/year/2016/RWDLB","http://nhs.publishmydata.com/data/metric/182",54
"PE296NT",-0.202657881235879,52.3333639939699,1737976,"PE29 6NT","http://nhs.publishmydata.com/id/organisation/nacs/RQQ31","Hinchingbrooke Hospital","PE29 6NT","http://nhs.publishmydata.com/data/metric/96/year/2016/RQQ31","http://nhs.publishmydata.com/data/metric/96",1.0828,"http://nhs.publishmydata.com/data/metric/182/year/2016/RQQ31","http://nhs.publishmydata.com/data/metric/182",72
"PE304ET",0.446999733696724,52.7567943939454,1740365,"PE30 4ET","http://nhs.publishmydata.com/id/organisation/nacs/RCX70","The Queen Elizabeth Hospital","PE30 4ET","http://nhs.publishmydata.com/data/metric/96/year/2016/RCX70","http://nhs.publishmydata.com/data/metric/96",0.9107,"http://nhs.publishmydata.com/data/metric/182/year/2016/RCX70","http://nhs.publishmydata.com/data/metric/182",61
"PE36DA",-0.255440217589549,52.5732591079905,1738483,"PE3  6DA","http://nhs.publishmydata.com/id/organisation/nacs/RGN42","Peterborough District Hospital","PE3 6DA","http://nhs.publishmydata.com/data/metric/96/year/2016/RGN42","http://nhs.publishmydata.com/data/metric/96",1.0455,"http://nhs.publishmydata.com/data/metric/182/year/2016/RGN42","http://nhs.publishmydata.com/data/metric/182",71
"PE39GZ",-0.279370955333381,52.5839399338252,1739328,"PE3  9GZ","http://nhs.publishmydata.com/id/organisation/nacs/RGN80","Peterborough City Hospital","PE3 9GZ","http://nhs.publishmydata.com/data/metric/96/year/2016/RGN80","http://nhs.publishmydata.com/data/metric/96",1.0455,"http://nhs.publishmydata.com/data/metric/182/year/2016/RGN80","http://nhs.publishmydata.com/data/metric/182",71
"PE39GZ",-0.279370955333381,52.5839399338252,1739328,"PE3  9GZ","http://nhs.publishmydata.com/id/organisation/nacs/RGN66","Edith Cavell Hospital","PE3 9GZ","http://nhs.publishmydata.com/data/metric/96/year/2016/RGN66","http://nhs.publishmydata.com/data/metric/96",1.0455,"http://nhs.publishmydata.com/data/metric/182/year/2016/RGN66","http://nhs.publishmydata.com/data/metric/182",71
"PE91UA",-0.468739380045746,52.6553897191422,1749378,"PE9  1UA","http://nhs.publishmydata.com/id/organisation/nacs/RGN49","Stamford and Rutland Hospital","PE9 1UA","http://nhs.publishmydata.com/data/metric/96/year/2016/RGN49","http://nhs.publishmydata.com/data/metric/96",1.0455,"http://nhs.publishmydata.com/data/metric/182/year/2016/RGN49","http://nhs.publishmydata.com/data/metric/182",71
"PL198LD",-4.15360354514589,50.5471671385988,1764666,"PL19 8LD","http://nhs.publishmydata.com/id/organisation/nacs/RA9TK","Tavistock Hospital - Torbay and South Devon NHS Foundation Trust","PL19 8LD","http://nhs.publishmydata.com/data/metric/96/year/2016/RA9TK","http://nhs.publishmydata.com/data/metric/96",0.8219,"http://nhs.publishmydata.com/data/metric/182/year/2016/RA9TK","http://nhs.publishmydata.com/data/metric/182",79
"PL68DH",-4.11371218220954,50.4167067690329,1776592,"PL6  8DH","http://nhs.publishmydata.com/id/organisation/nacs/RK950","Derriford Hospital","PL6 8DH","http://nhs.publishmydata.com/data/metric/96/year/2016/RK950","http://nhs.publishmydata.com/data/metric/96",1.0047,"http://nhs.publishmydata.com/data/metric/182/year/2016/RK950","http://nhs.publishmydata.com/data/metric/182",65
"PL68DH",-4.11371218220954,50.4167067690329,1776592,"PL6  8DH","http://nhs.publishmydata.com/id/organisation/nacs/RK953","Royal Eye Infirmary","PL6 8DH","http://nhs.publishmydata.com/data/metric/96/year/2016/RK953","http://nhs.publishmydata.com/data/metric/96",1.0047,"http://nhs.publishmydata.com/data/metric/182/year/2016/RK953","http://nhs.publishmydata.com/data/metric/182",65
"PO107DD",-0.937393364444971,50.8483919964742,1781119,"PO10 7DD","http://nhs.publishmydata.com/id/organisation/nacs/RHU16","Emsworth Hospital","PO10 7DD","http://nhs.publishmydata.com/data/metric/96/year/2016/RHU16","http://nhs.publishmydata.com/data/metric/96",1.0711,"http://nhs.publishmydata.com/data/metric/182/year/2016/RHU16","http://nhs.publishmydata.com/data/metric/182",73
"PO123PW",-1.14806867123326,50.793051274397,1783219,"PO12 3PW","http://nhs.publishmydata.com/id/organisation/nacs/RHU10","Gosport War Memorial Hospital - Portsmouth Hospitals NHS Trust","PO12 3PW","http://nhs.publishmydata.com/data/metric/96/year/2016/RHU10","http://nhs.publishmydata.com/data/metric/96",1.0711,"http://nhs.publishmydata.com/data/metric/182/year/2016/RHU10","http://nhs.publishmydata.com/data/metric/182",73
"PO196SE",-0.768007806586434,50.8435442895343,1790919,"PO19 6SE","http://nhs.publishmydata.com/id/organisation/nacs/RYR16","St Richard's Hospital","PO19 6SE","http://nhs.publishmydata.com/data/metric/96/year/2016/RYR16","http://nhs.publishmydata.com/data/metric/96",1.0127,"http://nhs.publishmydata.com/data/metric/182/year/2016/RYR16","http://nhs.publishmydata.com/data/metric/182",73
"PO63LY",-1.06991698238679,50.8502874805063,1807011,"PO6  3LY","http://nhs.publishmydata.com/id/organisation/nacs/RHU03","Queen Alexandra Hospital","PO6 3LY","http://nhs.publishmydata.com/data/metric/96/year/2016/RHU03","http://nhs.publishmydata.com/data/metric/96",1.0711,"http://nhs.publishmydata.com/data/metric/182/year/2016/RHU03","http://nhs.publishmydata.com/data/metric/182",73
"PR29HT",-2.70740075867973,53.7913652074327,1817313,"PR2  9HT","http://nhs.publishmydata.com/id/organisation/nacs/RXN02","Royal Preston Hospital","PR2 9HT","http://nhs.publishmydata.com/data/metric/96/year/2016/RXN02","http://nhs.publishmydata.com/data/metric/96",0.9948,"http://nhs.publishmydata.com/data/metric/182/year/2016/RXN02","http://nhs.publishmydata.com/data/metric/182",65
"PR71PP",-2.63525303984824,53.6658542262135,1826191,"PR7  1PP","http://nhs.publishmydata.com/id/organisation/nacs/RXN01","Chorley and South Ribble Hospital","PR7 1PP","http://nhs.publishmydata.com/data/metric/96/year/2016/RXN01","http://nhs.publishmydata.com/data/metric/96",0.9948,"http://nhs.publishmydata.com/data/metric/182/year/2016/RXN01","http://nhs.publishmydata.com/data/metric/182",65
"PR86PN",-2.97815768898133,53.6336830344042,1829400,"PR8  6PN","http://nhs.publishmydata.com/id/organisation/nacs/RVY01","Southport and Formby District General Hospital","PR8 6PN","http://nhs.publishmydata.com/data/metric/96/year/2016/RVY01","http://nhs.publishmydata.com/data/metric/96",1.0789,"http://nhs.publishmydata.com/data/metric/182/year/2016/RVY01","http://nhs.publishmydata.com/data/metric/182",54
"RG15AN",-0.959309555141589,51.4510228396921,1832277,"RG1  5AN","http://nhs.publishmydata.com/id/organisation/nacs/RHW01","Royal Berkshire Hospital","RG1 5AN","http://nhs.publishmydata.com/data/metric/96/year/2016/RHW01","http://nhs.publishmydata.com/data/metric/96",0.9457,"http://nhs.publishmydata.com/data/metric/182/year/2016/RHW01","http://nhs.publishmydata.com/data/metric/182",74
"RG249NA",-1.1098995034509,51.2806327836567,1854614,"RG24 9NA","http://nhs.publishmydata.com/id/organisation/nacs/RN506","Basingstoke and North Hampshire Hospital","RG24 9NA","http://nhs.publishmydata.com/data/metric/96/year/2016/RN506","http://nhs.publishmydata.com/data/metric/96",1.1067,"http://nhs.publishmydata.com/data/metric/182/year/2016/RN506","http://nhs.publishmydata.com/data/metric/182",74
"RH117DH",-0.197375011259622,51.1166002048832,1881359,"RH11 7DH","http://nhs.publishmydata.com/id/organisation/nacs/RTP02","Crawley Hospital","RH11 7DH","http://nhs.publishmydata.com/data/metric/96/year/2016/RTP02","http://nhs.publishmydata.com/data/metric/96",0.9518,"http://nhs.publishmydata.com/data/metric/182/year/2016/RTP02","http://nhs.publishmydata.com/data/metric/182",79
"RH122DR",-0.323800410750533,51.0698837366422,1882855,"RH12 2DR","http://nhs.publishmydata.com/id/organisation/nacs/RTP23","Horsham Hospital - Surrey and Sussex Healthcare NHS Trust","RH12 2DR","http://nhs.publishmydata.com/data/metric/96/year/2016/RTP23","http://nhs.publishmydata.com/data/metric/96",0.9518,"http://nhs.publishmydata.com/data/metric/182/year/2016/RTP23","http://nhs.publishmydata.com/data/metric/182",79
"RH15RH",-0.16198298765787,51.2191918379344,1877210,"RH1  5RH","http://nhs.publishmydata.com/id/organisation/nacs/RTP01","East Surrey Hospital - Surrey and Sussex Healthcare NHS Trust","RH1 5RH","http://nhs.publishmydata.com/data/metric/96/year/2016/RTP01","http://nhs.publishmydata.com/data/metric/96",0.9518,"http://nhs.publishmydata.com/data/metric/182/year/2016/RTP01","http://nhs.publishmydata.com/data/metric/182",79
"RH164EX",-0.090255883316976,50.9910902539686,1889092,"RH16 4EX","http://nhs.publishmydata.com/id/organisation/nacs/RXH09","Princess Royal Hospital","RH16 4EX","http://nhs.publishmydata.com/data/metric/96/year/2016/RXH09","http://nhs.publishmydata.com/data/metric/96",0.9583,"http://nhs.publishmydata.com/data/metric/182/year/2016/RXH09","http://nhs.publishmydata.com/data/metric/182",59
"RM163EU",0.366311627068772,51.5094964070779,1905927,"RM16 3EU","http://nhs.publishmydata.com/id/organisation/nacs/RDDH1","Orsett Hospital","RM16 3EU","http://nhs.publishmydata.com/data/metric/96/year/2016/RDDH1","http://nhs.publishmydata.com/data/metric/96",0.9421,"http://nhs.publishmydata.com/data/metric/182/year/2016/RDDH1","http://nhs.publishmydata.com/data/metric/182",67
"RM70AG",0.179057962483174,51.5686485794271,1911389,"RM7  0AG","http://nhs.publishmydata.com/id/organisation/nacs/RF4QH","Queen's Hospital","RM7 0AG","http://nhs.publishmydata.com/data/metric/96/year/2016/RF4QH","http://nhs.publishmydata.com/data/metric/96",0.9598,"http://nhs.publishmydata.com/data/metric/182/year/2016/RF4QH","http://nhs.publishmydata.com/data/metric/182",59
"S102JF",-1.49333054488381,53.3783725954762,1915883,"S10  2JF","http://nhs.publishmydata.com/id/organisation/nacs/RHQHH","Royal Hallamshire Hospital","S10 2JF","http://nhs.publishmydata.com/data/metric/96/year/2016/RHQHH","http://nhs.publishmydata.com/data/metric/96",0.9362,"http://nhs.publishmydata.com/data/metric/182/year/2016/RHQHH","http://nhs.publishmydata.com/data/metric/182",76
"S102SJ",-1.49493172870232,53.3802669868566,1915963,"S10  2SJ","http://nhs.publishmydata.com/id/organisation/nacs/RHQWP","Weston Park Hospital","S10 2SJ","http://nhs.publishmydata.com/data/metric/96/year/2016/RHQWP","http://nhs.publishmydata.com/data/metric/96",0.9362,"http://nhs.publishmydata.com/data/metric/182/year/2016/RHQWP","http://nhs.publishmydata.com/data/metric/182",76
"S102SZ",-1.4937795506716,53.3798126821815,1915974,"S10  2SZ","http://nhs.publishmydata.com/id/organisation/nacs/RHQCC","Charles Clifford Dental Hospital","S10 2SZ","http://nhs.publishmydata.com/data/metric/96/year/2016/RHQCC","http://nhs.publishmydata.com/data/metric/96",0.9362,"http://nhs.publishmydata.com/data/metric/182/year/2016/RHQCC","http://nhs.publishmydata.com/data/metric/182",76
"S445BL",-1.4000484097947,53.2362328033369,1937448,"S44  5BL","http://nhs.publishmydata.com/id/organisation/nacs/RFSDA","Chesterfield Royal Hospital","S44 5BL","http://nhs.publishmydata.com/data/metric/96/year/2016/RFSDA","http://nhs.publishmydata.com/data/metric/96",0.9844,"http://nhs.publishmydata.com/data/metric/182/year/2016/RFSDA","http://nhs.publishmydata.com/data/metric/182",67
"S57AU",-1.45596549419682,53.4098214655649,1939151,"S5   7AU","http://nhs.publishmydata.com/id/organisation/nacs/RHQNG","Northern General Hospital","S5 7AU","http://nhs.publishmydata.com/data/metric/96/year/2016/RHQNG","http://nhs.publishmydata.com/data/metric/96",0.9362,"http://nhs.publishmydata.com/data/metric/182/year/2016/RHQNG","http://nhs.publishmydata.com/data/metric/182",76
"S602UD",-1.34288116066641,53.4139907235606,1942090,"S60  2UD","http://nhs.publishmydata.com/id/organisation/nacs/RFRPA","Rotherham Hospital","S60 2UD","http://nhs.publishmydata.com/data/metric/96/year/2016/RFRPA","http://nhs.publishmydata.com/data/metric/96",1.0501,"http://nhs.publishmydata.com/data/metric/182/year/2016/RFRPA","http://nhs.publishmydata.com/data/metric/182",56
"S640AZ",-1.28494757631656,53.4998332208129,1946178,"S64  0AZ","http://nhs.publishmydata.com/id/organisation/nacs/RP5MM","Montagu Hospital","S64 0AZ","http://nhs.publishmydata.com/data/metric/96/year/2016/RP5MM","http://nhs.publishmydata.com/data/metric/96",1.0004,"http://nhs.publishmydata.com/data/metric/182/year/2016/RP5MM","http://nhs.publishmydata.com/data/metric/182",64
"S752EP",-1.49949444279442,53.5591496319931,1955626,"S75  2EP","http://nhs.publishmydata.com/id/organisation/nacs/RFFAA","Barnsley Hospital","S75 2EP","http://nhs.publishmydata.com/data/metric/96/year/2016/RFFAA","http://nhs.publishmydata.com/data/metric/96",0.9857,"http://nhs.publishmydata.com/data/metric/182/year/2016/RFFAA","http://nhs.publishmydata.com/data/metric/182",60
"S810BD",-1.1099003532072,53.3176949727582,1959410,"S81  0BD","http://nhs.publishmydata.com/id/organisation/nacs/RP5BA","Bassetlaw Hospital","S81 0BD","http://nhs.publishmydata.com/data/metric/96/year/2016/RP5BA","http://nhs.publishmydata.com/data/metric/96",1.0004,"http://nhs.publishmydata.com/data/metric/182/year/2016/RP5BA","http://nhs.publishmydata.com/data/metric/182",64
"SE136LH",-0.017025002102025,51.4543293734666,1997976,"SE13 6LH","http://nhs.publishmydata.com/id/organisation/nacs/RJ224","University Hospital Lewisham","SE13 6LH","http://nhs.publishmydata.com/data/metric/96/year/2016/RJ224","http://nhs.publishmydata.com/data/metric/96",1.0129,"http://nhs.publishmydata.com/data/metric/182/year/2016/RJ224","http://nhs.publishmydata.com/data/metric/182",60
"SE17EH",-0.118879738733524,51.4979597660226,1993760,"SE1  7EH","http://nhs.publishmydata.com/id/organisation/nacs/RJ122","St Thomas'","SE1 7EH","http://nhs.publishmydata.com/data/metric/96/year/2016/RJ122","http://nhs.publishmydata.com/data/metric/96",0.7424,"http://nhs.publishmydata.com/data/metric/182/year/2016/RJ122","http://nhs.publishmydata.com/data/metric/182",89
"SE184QH",0.050069188084421,51.4781937244583,2005478,"SE18 4QH","http://nhs.publishmydata.com/id/organisation/nacs/RJ231","Queen Elizabeth Hospital","SE18 4QH","http://nhs.publishmydata.com/data/metric/96/year/2016/RJ231","http://nhs.publishmydata.com/data/metric/96",1.0129,"http://nhs.publishmydata.com/data/metric/182/year/2016/RJ231","http://nhs.publishmydata.com/data/metric/182",60
"SE19RT",-0.088963813345335,51.5046433718606,1994673,"SE1  9RT","http://nhs.publishmydata.com/id/organisation/nacs/RJ121","Guy's Hospital","SE1 9RT","http://nhs.publishmydata.com/data/metric/96/year/2016/RJ121","http://nhs.publishmydata.com/data/metric/96",0.7424,"http://nhs.publishmydata.com/data/metric/182/year/2016/RJ121","http://nhs.publishmydata.com/data/metric/182",89
"SE19RT",-0.088963813345335,51.5046433718606,1994673,"SE1  9RT","http://nhs.publishmydata.com/id/organisation/nacs/RJ100","Guy's and St Thomas' NHS Trust","SE1 9RT","http://nhs.publishmydata.com/data/metric/96/year/2016/RJ100","http://nhs.publishmydata.com/data/metric/96",0.7424,"http://nhs.publishmydata.com/data/metric/182/year/2016/RJ100","http://nhs.publishmydata.com/data/metric/182",89
"SE59RS",-0.093889938322441,51.4680779854354,2019504,"SE5  9RS","http://nhs.publishmydata.com/id/organisation/nacs/RJZ01","King's College Hospital","SE5 9RS","http://nhs.publishmydata.com/data/metric/96/year/2016/RJZ01","http://nhs.publishmydata.com/data/metric/96",0.8709,"http://nhs.publishmydata.com/data/metric/182/year/2016/RJZ01","http://nhs.publishmydata.com/data/metric/182",69
"SG141LP",-0.088480682422698,51.7964966581584,2029120,"SG14 1LP","http://nhs.publishmydata.com/id/organisation/nacs/RWH23","Hertford County Hospital","SG14 1LP","http://nhs.publishmydata.com/data/metric/96/year/2016/RWH23","http://nhs.publishmydata.com/data/metric/96",1.0969,"http://nhs.publishmydata.com/data/metric/182/year/2016/RWH23","http://nhs.publishmydata.com/data/metric/182",67
"SG14AB",-0.212702746006172,51.9246176164844,2025262,"SG1  4AB","http://nhs.publishmydata.com/id/organisation/nacs/RWH01","Lister Hospital","SG1 4AB","http://nhs.publishmydata.com/data/metric/96/year/2016/RWH01","http://nhs.publishmydata.com/data/metric/96",1.0969,"http://nhs.publishmydata.com/data/metric/182/year/2016/RWH01","http://nhs.publishmydata.com/data/metric/182",67
"SG89EN",-0.022385040402097,52.0415392271548,2039939,"SG8  9EN","http://nhs.publishmydata.com/id/organisation/nacs/RGT49","Royston Hospital","SG8 9EN","http://nhs.publishmydata.com/data/metric/96/year/2016/RGT49","http://nhs.publishmydata.com/data/metric/96",0.8363,"http://nhs.publishmydata.com/data/metric/182/year/2016/RGT49","http://nhs.publishmydata.com/data/metric/182",82
"SK103BL",-2.14107161723271,53.2623387712228,2042261,"SK10 3BL","http://nhs.publishmydata.com/id/organisation/nacs/RJN71","Macclesfield District General Hospital","SK10 3BL","http://nhs.publishmydata.com/data/metric/96/year/2016/RJN71","http://nhs.publishmydata.com/data/metric/96",1.0279,"http://nhs.publishmydata.com/data/metric/182/year/2016/RJN71","http://nhs.publishmydata.com/data/metric/182",67
"SK179NJ",-1.90828615473746,53.2481574247942,2052765,"SK17 9NJ","http://nhs.publishmydata.com/id/organisation/nacs/RM350","Buxton Cottage Hospital - Salford Royal NHS Foundation Trust","SK17 9NJ","http://nhs.publishmydata.com/data/metric/96/year/2016/RM350","http://nhs.publishmydata.com/data/metric/96",0.8962,"http://nhs.publishmydata.com/data/metric/182/year/2016/RM350","http://nhs.publishmydata.com/data/metric/182",82
"SK27JE",-2.1320187579856,53.3837945121397,2053639,"SK2  7JE","http://nhs.publishmydata.com/id/organisation/nacs/RWJ09","Stepping Hill Hospital","SK2 7JE","http://nhs.publishmydata.com/data/metric/96/year/2016/RWJ09","http://nhs.publishmydata.com/data/metric/96",0.9748,"http://nhs.publishmydata.com/data/metric/182/year/2016/RWJ09","http://nhs.publishmydata.com/data/metric/182",73
"SL24HL",-0.573973437755888,51.5320090778544,2069480,"SL2  4HL","http://nhs.publishmydata.com/id/organisation/nacs/RDU50","Wexham Park Hospital","SL2 4HL","http://nhs.publishmydata.com/data/metric/96/year/2016/RDU50","http://nhs.publishmydata.com/data/metric/96",0.9341,"http://nhs.publishmydata.com/data/metric/182/year/2016/RDU50","http://nhs.publishmydata.com/data/metric/182",80
"SL43DP",-0.614690586354083,51.4735445823478,2072355,"SL4  3DP","http://nhs.publishmydata.com/id/organisation/nacs/RHW03","Prince Charles Eye Unit","SL4 3DP","http://nhs.publishmydata.com/data/metric/96/year/2016/RHW03","http://nhs.publishmydata.com/data/metric/96",0.9457,"http://nhs.publishmydata.com/data/metric/182/year/2016/RHW03","http://nhs.publishmydata.com/data/metric/182",74
"SL58AA",-0.687334727340453,51.4101664578995,2074386,"SL5  8AA","http://nhs.publishmydata.com/id/organisation/nacs/RDU25","Heatherwood Hospital","SL5 8AA","http://nhs.publishmydata.com/data/metric/96/year/2016/RDU25","http://nhs.publishmydata.com/data/metric/96",0.9341,"http://nhs.publishmydata.com/data/metric/182/year/2016/RDU25","http://nhs.publishmydata.com/data/metric/182",80
"SL71DJ",-0.7704117453428,51.5735726990272,2078710,"SL7  1DJ","http://nhs.publishmydata.com/id/organisation/nacs/RXQ65","Marlow Community Hospital","SL7 1DJ","http://nhs.publishmydata.com/data/metric/96/year/2016/RXQ65","http://nhs.publishmydata.com/data/metric/96",0.9868,"http://nhs.publishmydata.com/data/metric/182/year/2016/RXQ65","http://nhs.publishmydata.com/data/metric/182",62
"SL99DR",-0.561790942084812,51.607411939059,2081209,"SL9  9DR","http://nhs.publishmydata.com/id/organisation/nacs/RXQ64","Chalfonts and Gerrards Cross Hospital","SL9 9DR","http://nhs.publishmydata.com/data/metric/96/year/2016/RXQ64","http://nhs.publishmydata.com/data/metric/96",0.9868,"http://nhs.publishmydata.com/data/metric/182/year/2016/RXQ64","http://nhs.publishmydata.com/data/metric/182",62
"SM25NF",-0.193540629531962,51.3468686924385,2083125,"SM2  5NF","http://nhs.publishmydata.com/id/organisation/nacs/RVR06","Sutton Hospital","SM2 5NF","http://nhs.publishmydata.com/data/metric/96/year/2016/RVR06","http://nhs.publishmydata.com/data/metric/96",0.9574,"http://nhs.publishmydata.com/data/metric/182/year/2016/RVR06","http://nhs.publishmydata.com/data/metric/182",72
"SM51AA",-0.183616559317419,51.3803121499362,2085172,"SM5  1AA","http://nhs.publishmydata.com/id/organisation/nacs/RVR05","St Helier Hospital","SM5 1AA","http://nhs.publishmydata.com/data/metric/96/year/2016/RVR05","http://nhs.publishmydata.com/data/metric/96",0.9574,"http://nhs.publishmydata.com/data/metric/182/year/2016/RVR05","http://nhs.publishmydata.com/data/metric/182",72
"SM51AA",-0.183616559317419,51.3803121499362,2085172,"SM5  1AA","http://nhs.publishmydata.com/id/organisation/nacs/RVR07","Queen Mary's Hospital For Children","SM5 1AA","http://nhs.publishmydata.com/data/metric/96/year/2016/RVR07","http://nhs.publishmydata.com/data/metric/96",0.9574,"http://nhs.publishmydata.com/data/metric/182/year/2016/RVR07","http://nhs.publishmydata.com/data/metric/182",72
"SN101EF",-1.99322304676004,51.3545774026094,2089437,"SN10 1EF","http://nhs.publishmydata.com/id/organisation/nacs/RN330","DEVIZES COMMUNITY HOSPITAL","SN10 1EF","http://nhs.publishmydata.com/data/metric/96/year/2016/RN330","http://nhs.publishmydata.com/data/metric/96",0.9466,"http://nhs.publishmydata.com/data/metric/182/year/2016/RN330","http://nhs.publishmydata.com/data/metric/182",70
"SN127NZ",-2.13153803614791,51.3671285102641,2092381,"SN12 7NZ","http://nhs.publishmydata.com/id/organisation/nacs/RN332","Melksham Community Hospital","SN12 7NZ","http://nhs.publishmydata.com/data/metric/96/year/2016/RN332","http://nhs.publishmydata.com/data/metric/96",0.9466,"http://nhs.publishmydata.com/data/metric/182/year/2016/RN332","http://nhs.publishmydata.com/data/metric/182",70
"SN152AJ",-2.12670416953514,51.4525378145125,2095212,"SN15 2AJ","http://nhs.publishmydata.com/id/organisation/nacs/RN333","Chippenham Community Hospital","SN15 2AJ","http://nhs.publishmydata.com/data/metric/96/year/2016/RN333","http://nhs.publishmydata.com/data/metric/96",0.9466,"http://nhs.publishmydata.com/data/metric/182/year/2016/RN333","http://nhs.publishmydata.com/data/metric/182",70
"SN36BB",-1.72718780289479,51.538528962991,2102129,"SN3  6BB","http://nhs.publishmydata.com/id/organisation/nacs/RN325","The Great Western Hospital","SN3 6BB","http://nhs.publishmydata.com/data/metric/96/year/2016/RN325","http://nhs.publishmydata.com/data/metric/96",0.9466,"http://nhs.publishmydata.com/data/metric/182/year/2016/RN325","http://nhs.publishmydata.com/data/metric/182",70
"SN83HL",-1.70527270132834,51.4155598606482,2107821,"SN8  3HL","http://nhs.publishmydata.com/id/organisation/nacs/RN313","Savernake Hospital","SN8 3HL","http://nhs.publishmydata.com/data/metric/96/year/2016/RN313","http://nhs.publishmydata.com/data/metric/96",0.9466,"http://nhs.publishmydata.com/data/metric/182/year/2016/RN313","http://nhs.publishmydata.com/data/metric/182",70
"SO165YA",-1.43485449780841,50.9352490092558,2115233,"SO16 5YA","http://nhs.publishmydata.com/id/organisation/nacs/RHM12","Princess Anne Hospital","SO16 5YA","http://nhs.publishmydata.com/data/metric/96/year/2016/RHM12","http://nhs.publishmydata.com/data/metric/96",0.9509,"http://nhs.publishmydata.com/data/metric/182/year/2016/RHM12","http://nhs.publishmydata.com/data/metric/182",79
"SO166YD",-1.43509512661393,50.933011023071,2115446,"SO16 6YD","http://nhs.publishmydata.com/id/organisation/nacs/RHM01","Southampton General Hospital","SO16 6YD","http://nhs.publishmydata.com/data/metric/96/year/2016/RHM01","http://nhs.publishmydata.com/data/metric/96",0.9509,"http://nhs.publishmydata.com/data/metric/182/year/2016/RHM01","http://nhs.publishmydata.com/data/metric/182",79
"SO225DG",-1.3291585141482,51.0617004130995,2123990,"SO22 5DG","http://nhs.publishmydata.com/id/organisation/nacs/RN541","Royal Hampshire County Hospital","SO22 5DG","http://nhs.publishmydata.com/data/metric/96/year/2016/RN541","http://nhs.publishmydata.com/data/metric/96",1.1067,"http://nhs.publishmydata.com/data/metric/182/year/2016/RN541","http://nhs.publishmydata.com/data/metric/182",74
"SP103LB",-1.49468022570182,51.2157329375046,2149809,"SP10 3LB","http://nhs.publishmydata.com/id/organisation/nacs/RN542","Andover War Memorial Hospital","SP10 3LB","http://nhs.publishmydata.com/data/metric/96/year/2016/RN542","http://nhs.publishmydata.com/data/metric/96",1.1067,"http://nhs.publishmydata.com/data/metric/182/year/2016/RN542","http://nhs.publishmydata.com/data/metric/182",74
"SP28BJ",-1.7898133720519,51.0439403326752,2152863,"SP2  8BJ","http://nhs.publishmydata.com/id/organisation/nacs/RNZ02","Salisbury District Hospital","SP2 8BJ","http://nhs.publishmydata.com/data/metric/96/year/2016/RNZ02","http://nhs.publishmydata.com/data/metric/96",1.1184,"http://nhs.publishmydata.com/data/metric/182/year/2016/RNZ02","http://nhs.publishmydata.com/data/metric/182",85
"SR29HP",-1.38108584472806,54.8890741723869,2160680,"SR2  9HP","http://nhs.publishmydata.com/id/organisation/nacs/RLNGM","Sunderland Eye Infirmary","SR2 9HP","http://nhs.publishmydata.com/data/metric/96/year/2016/RLNGM","http://nhs.publishmydata.com/data/metric/96",0.976,"http://nhs.publishmydata.com/data/metric/182/year/2016/RLNGM","http://nhs.publishmydata.com/data/metric/182",70
"SR47TP",-1.41103177971983,54.9030712143196,2162636,"SR4  7TP","http://nhs.publishmydata.com/id/organisation/nacs/RLNGL","Sunderland Royal Hospital","SR4 7TP","http://nhs.publishmydata.com/data/metric/96/year/2016/RLNGL","http://nhs.publishmydata.com/data/metric/96",0.976,"http://nhs.publishmydata.com/data/metric/182/year/2016/RLNGL","http://nhs.publishmydata.com/data/metric/182",70
"SR85UQ",-1.33305297561144,54.7540766199532,2167550,"SR8  5UQ","http://nhs.publishmydata.com/id/organisation/nacs/RVWSX","Peterlee Community Hospital","SR8 5UQ","http://nhs.publishmydata.com/data/metric/96/year/2016/RVWSX","http://nhs.publishmydata.com/data/metric/96",1.1731,"http://nhs.publishmydata.com/data/metric/182/year/2016/RVWSX","http://nhs.publishmydata.com/data/metric/182",62
"SR85UQ",-1.33305297561144,54.7540766199532,2167550,"SR8  5UQ","http://nhs.publishmydata.com/id/organisation/nacs/RXP09","Peterlee Community Hospital - County Durham and Darlington NHS Foundation Trust","SR8 5UQ","http://nhs.publishmydata.com/data/metric/96/year/2016/RXP09","http://nhs.publishmydata.com/data/metric/96",1.023,"http://nhs.publishmydata.com/data/metric/182/year/2016/RXP09","http://nhs.publishmydata.com/data/metric/182",61
"SS00RY",0.688646604967028,51.553841776614,2167847,"SS0  0RY","http://nhs.publishmydata.com/id/organisation/nacs/RAJ01","Southend Hospital","SS0 0RY","http://nhs.publishmydata.com/data/metric/96/year/2016/RAJ01","http://nhs.publishmydata.com/data/metric/96",1.1516,"http://nhs.publishmydata.com/data/metric/182/year/2016/RAJ01","http://nhs.publishmydata.com/data/metric/182",62
"SS165NL",0.450586943171676,51.5576793901503,2174373,"SS16 5NL","http://nhs.publishmydata.com/id/organisation/nacs/RDDH0","Basildon University Hospital","SS16 5NL","http://nhs.publishmydata.com/data/metric/96/year/2016/RDDH0","http://nhs.publishmydata.com/data/metric/96",0.9421,"http://nhs.publishmydata.com/data/metric/182/year/2016/RDDH0","http://nhs.publishmydata.com/data/metric/182",67
"SS74EX",0.553610173990193,51.5705563104283,2181007,"SS7  4EX","http://nhs.publishmydata.com/id/organisation/nacs/RDD03","Basildon Hospital - Dermatology Benfleet","SS7 4EX","http://nhs.publishmydata.com/data/metric/96/year/2016/RDD03","http://nhs.publishmydata.com/data/metric/96",0.9421,"http://nhs.publishmydata.com/data/metric/182/year/2016/RDD03","http://nhs.publishmydata.com/data/metric/182",67
"SS80JA",0.591014042183176,51.5202261137184,2181653,"SS8  0JA","http://nhs.publishmydata.com/id/organisation/nacs/RDD02","Basildon Hospital - Dermatology Canvey Island","SS8 0JA","http://nhs.publishmydata.com/data/metric/96/year/2016/RDD02","http://nhs.publishmydata.com/data/metric/96",0.9421,"http://nhs.publishmydata.com/data/metric/182/year/2016/RDD02","http://nhs.publishmydata.com/data/metric/182",67
"ST163SA",-2.09778120106447,52.8113071550223,2191001,"ST16 3SA","http://nhs.publishmydata.com/id/organisation/nacs/RJE09","County Hospital","ST16 3SA","http://nhs.publishmydata.com/data/metric/96/year/2016/RJE09","http://nhs.publishmydata.com/data/metric/96",1.033,"http://nhs.publishmydata.com/data/metric/182/year/2016/RJE09","http://nhs.publishmydata.com/data/metric/182",74
"ST46QG",-2.21487173438069,53.0040382382052,2198469,"ST4  6QG","http://nhs.publishmydata.com/id/organisation/nacs/RJE01","Royal Stoke University Hospital","ST4 6QG","http://nhs.publishmydata.com/data/metric/96/year/2016/RJE01","http://nhs.publishmydata.com/data/metric/96",1.033,"http://nhs.publishmydata.com/data/metric/182/year/2016/RJE01","http://nhs.publishmydata.com/data/metric/182",74
"SW109NH",-0.181619954946592,51.4843092127441,2207386,"SW10 9NH","http://nhs.publishmydata.com/id/organisation/nacs/RQM01","Chelsea and Westminster Hospital","SW10 9NH","http://nhs.publishmydata.com/data/metric/96/year/2016/RQM01","http://nhs.publishmydata.com/data/metric/96",0.8777,"http://nhs.publishmydata.com/data/metric/182/year/2016/RQM01","http://nhs.publishmydata.com/data/metric/182",79
"SW155PN",-0.241705796543644,51.4555494929111,2213477,"SW15 5PN","http://nhs.publishmydata.com/id/organisation/nacs/RJ731","Queen Mary - St George's University Hospitals NHS Foundation Trust","SW15 5PN","http://nhs.publishmydata.com/data/metric/96/year/2016/RJ731","http://nhs.publishmydata.com/data/metric/96",0.9057,"http://nhs.publishmydata.com/data/metric/182/year/2016/RJ731","http://nhs.publishmydata.com/data/metric/182",71
"SW170QT",-0.175721115463458,51.4267180271211,2216424,"SW17 0QT","http://nhs.publishmydata.com/id/organisation/nacs/RJ701","St George's Hospital (London)","SW17 0QT","http://nhs.publishmydata.com/data/metric/96/year/2016/RJ701","http://nhs.publishmydata.com/data/metric/96",0.9057,"http://nhs.publishmydata.com/data/metric/182/year/2016/RJ701","http://nhs.publishmydata.com/data/metric/182",71
"SY38XQ",-2.7937499511814,52.7093721927957,2254431,"SY3  8XQ","http://nhs.publishmydata.com/id/organisation/nacs/RXWAS","Royal Shrewsbury Hospital","SY3 8XQ","http://nhs.publishmydata.com/data/metric/96/year/2016/RXWAS","http://nhs.publishmydata.com/data/metric/96",1.0265,"http://nhs.publishmydata.com/data/metric/182/year/2016/RXWAS","http://nhs.publishmydata.com/data/metric/182",62
"TA15DA",-3.1196588695129,51.0119569456936,2260593,"TA1  5DA","http://nhs.publishmydata.com/id/organisation/nacs/RBA11","Musgrove Park Hospital","TA1 5DA","http://nhs.publishmydata.com/data/metric/96/year/2016/RBA11","http://nhs.publishmydata.com/data/metric/96",1,"http://nhs.publishmydata.com/data/metric/182/year/2016/RBA11","http://nhs.publishmydata.com/data/metric/182",82
"TD151LT",-2.00498935280235,55.7732816476092,2275427,"TD15 1LT","http://nhs.publishmydata.com/id/organisation/nacs/RTFDH","Berwick Infirmary","TD15 1LT","http://nhs.publishmydata.com/data/metric/96/year/2016/RTFDH","http://nhs.publishmydata.com/data/metric/96",1.0372,"http://nhs.publishmydata.com/data/metric/182/year/2016/RTFDH","http://nhs.publishmydata.com/data/metric/182",85
"TF16TF",-2.51148828554746,52.7121221463687,2280283,"TF1  6TF","http://nhs.publishmydata.com/id/organisation/nacs/RXWAT","The Princess Royal Hospital","TF1 6TF","http://nhs.publishmydata.com/data/metric/96/year/2016/RXWAT","http://nhs.publishmydata.com/data/metric/96",1.0265,"http://nhs.publishmydata.com/data/metric/182/year/2016/RXWAT","http://nhs.publishmydata.com/data/metric/182",62
"TN225AW",0.105388807943974,50.9657660318709,2300338,"TN22 5AW","http://nhs.publishmydata.com/id/organisation/nacs/RXC18","Uckfield Hospital","TN22 5AW","http://nhs.publishmydata.com/data/metric/96/year/2016/RXC18","http://nhs.publishmydata.com/data/metric/96",1.1352,"http://nhs.publishmydata.com/data/metric/182/year/2016/RXC18","http://nhs.publishmydata.com/data/metric/182",54
"TN240LZ",0.916239845622219,51.1414898927729,2302982,"TN24 0LZ","http://nhs.publishmydata.com/id/organisation/nacs/RVV01","William Harvey Hospital (Ashford)","TN24 0LZ","http://nhs.publishmydata.com/data/metric/96/year/2016/RVV01","http://nhs.publishmydata.com/data/metric/96",0.9989,"http://nhs.publishmydata.com/data/metric/182/year/2016/RVV01","http://nhs.publishmydata.com/data/metric/182",60
"TN24QJ",0.307289321858202,51.1491471666639,2297421,"TN2  4QJ","http://nhs.publishmydata.com/id/organisation/nacs/RWFTW","Tunbridge Wells Hospital at Pembury","TN2 4QJ","http://nhs.publishmydata.com/data/metric/96/year/2016/RWFTW","http://nhs.publishmydata.com/data/metric/96",1.0568,"http://nhs.publishmydata.com/data/metric/182/year/2016/RWFTW","http://nhs.publishmydata.com/data/metric/182",75
"TN377RD",0.567299257989501,50.8851628847616,2312213,"TN37 7RD","http://nhs.publishmydata.com/id/organisation/nacs/RXC01","Conquest Hospital","TN37 7RD","http://nhs.publishmydata.com/data/metric/96/year/2016/RXC01","http://nhs.publishmydata.com/data/metric/96",1.1352,"http://nhs.publishmydata.com/data/metric/182/year/2016/RXC01","http://nhs.publishmydata.com/data/metric/182",54
"TN402DZ",0.475526651854619,50.8507012239116,2315531,"TN40 2DZ","http://nhs.publishmydata.com/id/organisation/nacs/RXC03","Bexhill Hospital","TN40 2DZ","http://nhs.publishmydata.com/data/metric/96/year/2016/RXC03","http://nhs.publishmydata.com/data/metric/96",1.1352,"http://nhs.publishmydata.com/data/metric/182/year/2016/RXC03","http://nhs.publishmydata.com/data/metric/182",54
"TN61HG",0.159140627059506,51.0520140531285,2316583,"TN6  1HG","http://nhs.publishmydata.com/id/organisation/nacs/RWF08","Crowborough War Memorial Hospital","TN6 1HG","http://nhs.publishmydata.com/data/metric/96/year/2016/RWF08","http://nhs.publishmydata.com/data/metric/96",1.1352,"http://nhs.publishmydata.com/data/metric/182/year/2016/RWF08","http://nhs.publishmydata.com/data/metric/182",54
"TQ122TS",-3.61226999277273,50.5393468554038,2321934,"TQ12 2TS","http://nhs.publishmydata.com/id/organisation/nacs/RA957","Newton Abbot Community Hospital - Torbay and South Devon NHS Foundation Trust","TQ12 2TS","http://nhs.publishmydata.com/data/metric/96/year/2016/RA957","http://nhs.publishmydata.com/data/metric/96",0.8219,"http://nhs.publishmydata.com/data/metric/182/year/2016/RA957","http://nhs.publishmydata.com/data/metric/182",79
"TQ149BQ",-3.51117269168075,50.5483566518845,2325293,"TQ14 9BQ","http://nhs.publishmydata.com/id/organisation/nacs/RA959","Teignmouth Hospital","TQ14 9BQ","http://nhs.publishmydata.com/data/metric/96/year/2016/RA959","http://nhs.publishmydata.com/data/metric/96",0.8219,"http://nhs.publishmydata.com/data/metric/182/year/2016/RA959","http://nhs.publishmydata.com/data/metric/182",79
"TQ27AA",-3.55381923341912,50.4823025567527,2326264,"TQ2  7AA","http://nhs.publishmydata.com/id/organisation/nacs/RA901","Torbay Hospital","TQ2 7AA","http://nhs.publishmydata.com/data/metric/96/year/2016/RA901","http://nhs.publishmydata.com/data/metric/96",0.8219,"http://nhs.publishmydata.com/data/metric/182/year/2016/RA901","http://nhs.publishmydata.com/data/metric/182",79
"TQ33AG",-3.56881599869803,50.4371228658599,2327411,"TQ3  3AG","http://nhs.publishmydata.com/id/organisation/nacs/RA958","Paignton Hospital - Torbay and South Devon NHS Foundation Trust","TQ3 3AG","http://nhs.publishmydata.com/data/metric/96/year/2016/RA958","http://nhs.publishmydata.com/data/metric/96",0.8219,"http://nhs.publishmydata.com/data/metric/182/year/2016/RA958","http://nhs.publishmydata.com/data/metric/182",79
"TQ59HW",-3.5138379586516,50.3894276800106,2329258,"TQ5  9HW","http://nhs.publishmydata.com/id/organisation/nacs/RA954","Brixham Hospital - Torbay and South Devon NHS Foundation Trust","TQ5 9HW","http://nhs.publishmydata.com/data/metric/96/year/2016/RA954","http://nhs.publishmydata.com/data/metric/96",0.8219,"http://nhs.publishmydata.com/data/metric/182/year/2016/RA954","http://nhs.publishmydata.com/data/metric/182",79
"TQ71AT",-3.77884889302712,50.2886904784407,2330039,"TQ7  1AT","http://nhs.publishmydata.com/id/organisation/nacs/RA9KG","South Hams (Kingsbridge) Hospital - Torbay and South Devon NHS Foundation Trust","TQ7 1AT","http://nhs.publishmydata.com/data/metric/96/year/2016/RA9KG","http://nhs.publishmydata.com/data/metric/96",0.8219,"http://nhs.publishmydata.com/data/metric/182/year/2016/RA9KG","http://nhs.publishmydata.com/data/metric/182",79
"TQ95GH",-3.68420854360411,50.4327570695807,2331391,"TQ9  5GH","http://nhs.publishmydata.com/id/organisation/nacs/RA979","Totnes Hospital - Torbay and South Devon NHS Foundation Trust","TQ9 5GH","http://nhs.publishmydata.com/data/metric/96/year/2016/RA979","http://nhs.publishmydata.com/data/metric/96",0.8219,"http://nhs.publishmydata.com/data/metric/182/year/2016/RA979","http://nhs.publishmydata.com/data/metric/182",79
"TR13LQ",-5.09430932694433,50.2665467683582,2333331,"TR1  3LQ","http://nhs.publishmydata.com/id/organisation/nacs/REF12","Royal Cornwall Hospital (Treliske)","TR1 3LQ","http://nhs.publishmydata.com/data/metric/96/year/2016/REF12","http://nhs.publishmydata.com/data/metric/96",1.0857,"http://nhs.publishmydata.com/data/metric/182/year/2016/REF12","http://nhs.publishmydata.com/data/metric/182",50
"TR182PF",-5.54303067281357,50.1220464855977,2339793,"TR18 2PF","http://nhs.publishmydata.com/id/organisation/nacs/REF01","West Cornwall Hospital (Penzance)","TR18 2PF","http://nhs.publishmydata.com/data/metric/96/year/2016/REF01","http://nhs.publishmydata.com/data/metric/96",1.0857,"http://nhs.publishmydata.com/data/metric/182/year/2016/REF01","http://nhs.publishmydata.com/data/metric/182",50
"TR274JA",-5.42447480731069,50.1803423441049,2343448,"TR27 4JA","http://nhs.publishmydata.com/id/organisation/nacs/REF02","St Michael's Hospital","TR27 4JA","http://nhs.publishmydata.com/data/metric/96/year/2016/REF02","http://nhs.publishmydata.com/data/metric/96",1.0857,"http://nhs.publishmydata.com/data/metric/182/year/2016/REF02","http://nhs.publishmydata.com/data/metric/182",50
"TS122FF",-0.936373115728632,54.5652792655354,2350654,"TS12 2FF","http://nhs.publishmydata.com/id/organisation/nacs/RTR03","East Cleveland Hospital","TS12 2FF","http://nhs.publishmydata.com/data/metric/96/year/2016/RTR03","http://nhs.publishmydata.com/data/metric/96",1.1009,"http://nhs.publishmydata.com/data/metric/182/year/2016/RTR03","http://nhs.publishmydata.com/data/metric/182",72
"TS146HZ",-1.05217766960474,54.538848175054,2351670,"TS14 6HZ","http://nhs.publishmydata.com/id/organisation/nacs/RTRAQ","Guisborough General Hospital","TS14 6HZ","http://nhs.publishmydata.com/data/metric/96/year/2016/RTRAQ","http://nhs.publishmydata.com/data/metric/96",1.1009,"http://nhs.publishmydata.com/data/metric/182/year/2016/RTRAQ","http://nhs.publishmydata.com/data/metric/182",72
"TS198PE",-1.3475936011667,54.5828686640278,2356743,"TS19 8PE","http://nhs.publishmydata.com/id/organisation/nacs/RVWAE","University Hospital Of North Tees","TS19 8PE","http://nhs.publishmydata.com/data/metric/96/year/2016/RVWAE","http://nhs.publishmydata.com/data/metric/96",1.1731,"http://nhs.publishmydata.com/data/metric/182/year/2016/RVWAE","http://nhs.publishmydata.com/data/metric/182",62
"TS213EE",-1.44850417200749,54.66189577011,2358421,"TS21 3EE","http://nhs.publishmydata.com/id/organisation/nacs/RXPCL","Sedgefield Community Hospital","TS21 3EE","http://nhs.publishmydata.com/data/metric/96/year/2016/RXPCL","http://nhs.publishmydata.com/data/metric/96",1.023,"http://nhs.publishmydata.com/data/metric/182/year/2016/RXPCL","http://nhs.publishmydata.com/data/metric/182",61
"TS249AH",-1.22785106797781,54.7024084833707,2360801,"TS24 9AH","http://nhs.publishmydata.com/id/organisation/nacs/RVWAA","University Hospital Of Hartlepool","TS24 9AH","http://nhs.publishmydata.com/data/metric/96/year/2016/RVWAA","http://nhs.publishmydata.com/data/metric/96",1.1731,"http://nhs.publishmydata.com/data/metric/182/year/2016/RVWAA","http://nhs.publishmydata.com/data/metric/182",62
"TS43BW",-1.21481947145911,54.5517680071953,2365254,"TS4  3BW","http://nhs.publishmydata.com/id/organisation/nacs/RTRAT","The James Cook University Hospital","TS4 3BW","http://nhs.publishmydata.com/data/metric/96/year/2016/RTRAT","http://nhs.publishmydata.com/data/metric/96",1.1009,"http://nhs.publishmydata.com/data/metric/182/year/2016/RTRAT","http://nhs.publishmydata.com/data/metric/182",72
"TW153AA",-0.472792250387669,51.4440218115008,2376567,"TW15 3AA","http://nhs.publishmydata.com/id/organisation/nacs/RTK02","Ashford Hospital","TW15 3AA","http://nhs.publishmydata.com/data/metric/96/year/2016/RTK02","http://nhs.publishmydata.com/data/metric/96",0.9377,"http://nhs.publishmydata.com/data/metric/182/year/2016/RTK02","http://nhs.publishmydata.com/data/metric/182",65
"UB13HW",-0.34547358158832,51.5076063099038,2390194,"UB1  3HW","http://nhs.publishmydata.com/id/organisation/nacs/R1K60","Meadow House","UB1 3HW","http://nhs.publishmydata.com/data/metric/96/year/2016/R1K60","http://nhs.publishmydata.com/data/metric/96",0.903,"http://nhs.publishmydata.com/data/metric/182/year/2016/R1K60","http://nhs.publishmydata.com/data/metric/182",63
"UB13HW",-0.34547358158832,51.5076063099038,2390194,"UB1  3HW","http://nhs.publishmydata.com/id/organisation/nacs/R1K04","Ealing Hospital","UB1 3HW","http://nhs.publishmydata.com/data/metric/96/year/2016/R1K04","http://nhs.publishmydata.com/data/metric/96",0.903,"http://nhs.publishmydata.com/data/metric/182/year/2016/R1K04","http://nhs.publishmydata.com/data/metric/182",63
"UB13HW",-0.34547358158832,51.5076063099038,2390194,"UB1  3HW","http://nhs.publishmydata.com/id/organisation/nacs/R1K60","Meadow House Hospice","UB1 3HW","http://nhs.publishmydata.com/data/metric/96/year/2016/R1K60","http://nhs.publishmydata.com/data/metric/96",0.903,"http://nhs.publishmydata.com/data/metric/182/year/2016/R1K60","http://nhs.publishmydata.com/data/metric/182",63
"UB13HW",-0.34547358158832,51.5076063099038,2390194,"UB1  3HW","http://nhs.publishmydata.com/id/organisation/nacs/R1K60","Meadow House","UB1 3HW","http://nhs.publishmydata.com/data/metric/96/year/2016/R1K60","http://nhs.publishmydata.com/data/metric/96",0.903,"http://nhs.publishmydata.com/data/metric/182/year/2016/R1K60","http://nhs.publishmydata.com/data/metric/182",63
"UB13HW",-0.34547358158832,51.5076063099038,2390194,"UB1  3HW","http://nhs.publishmydata.com/id/organisation/nacs/R1K60","Meadow House Hospice","UB1 3HW","http://nhs.publishmydata.com/data/metric/96/year/2016/R1K60","http://nhs.publishmydata.com/data/metric/96",0.903,"http://nhs.publishmydata.com/data/metric/182/year/2016/R1K60","http://nhs.publishmydata.com/data/metric/182",63
"UB83NN",-0.461154630105963,51.5260778865891,2399508,"UB8  3NN","http://nhs.publishmydata.com/id/organisation/nacs/RAS01","Hillingdon Hospital","UB8 3NN","http://nhs.publishmydata.com/data/metric/96/year/2016/RAS01","http://nhs.publishmydata.com/data/metric/96",0.8805,"http://nhs.publishmydata.com/data/metric/182/year/2016/RAS01","http://nhs.publishmydata.com/data/metric/182",66
"W120HS",-0.234697403041379,51.5174215878877,2403437,"W12  0HS","http://nhs.publishmydata.com/id/organisation/nacs/RYJ04","Queen Charlotte's Hospital","W12 0HS","http://nhs.publishmydata.com/data/metric/96/year/2016/RYJ04","http://nhs.publishmydata.com/data/metric/96",0.758,"http://nhs.publishmydata.com/data/metric/182/year/2016/RYJ04","http://nhs.publishmydata.com/data/metric/182",68
"W120HS",-0.234697403041379,51.5174215878877,2403437,"W12  0HS","http://nhs.publishmydata.com/id/organisation/nacs/RYJ03","Hammersmith Hospital","W12 0HS","http://nhs.publishmydata.com/data/metric/96/year/2016/RYJ03","http://nhs.publishmydata.com/data/metric/96",0.758,"http://nhs.publishmydata.com/data/metric/182/year/2016/RYJ03","http://nhs.publishmydata.com/data/metric/182",68
"W1G8PH",-0.149743074226608,51.5195835733602,2413215,"W1G  8PH","http://nhs.publishmydata.com/id/organisation/nacs/RRV30","University College Hospital at Westmoreland Street","W1G 8PH","http://nhs.publishmydata.com/data/metric/96/year/2016/RRV30","http://nhs.publishmydata.com/data/metric/96",0.7586,"http://nhs.publishmydata.com/data/metric/182/year/2016/RRV30","http://nhs.publishmydata.com/data/metric/182",82
"W1U5NY",-0.152902425694969,51.522367138547,2422995,"W1U  5NY","http://nhs.publishmydata.com/id/organisation/nacs/RRV92","Uclh Outreach: The Princess Grace Hospital","W1U 5NY","http://nhs.publishmydata.com/data/metric/96/year/2016/RRV92","http://nhs.publishmydata.com/data/metric/96",0.7586,"http://nhs.publishmydata.com/data/metric/182/year/2016/RRV92","http://nhs.publishmydata.com/data/metric/182",82
"W21NY",-0.173544641038758,51.5169710169152,2427040,"W2   1NY","http://nhs.publishmydata.com/id/organisation/nacs/RYJ01","St Mary's Hospital (HQ)","W2 1NY","http://nhs.publishmydata.com/data/metric/96/year/2016/RYJ01","http://nhs.publishmydata.com/data/metric/96",0.758,"http://nhs.publishmydata.com/data/metric/182/year/2016/RYJ01","http://nhs.publishmydata.com/data/metric/182",68
"W68RF",-0.219911887236789,51.4870459015943,2436229,"W6   8RF","http://nhs.publishmydata.com/id/organisation/nacs/RYJ02","Charing Cross Hospital","W6 8RF","http://nhs.publishmydata.com/data/metric/96/year/2016/RYJ02","http://nhs.publishmydata.com/data/metric/96",0.758,"http://nhs.publishmydata.com/data/metric/182/year/2016/RYJ02","http://nhs.publishmydata.com/data/metric/182",68
"WA142RQ",-2.35162976473834,53.3847781670186,2446448,"WA14 2RQ","http://nhs.publishmydata.com/id/organisation/nacs/RW3T1","Altrincham Hospital","WA14 2RQ","http://nhs.publishmydata.com/data/metric/96/year/2016/RW3T1","http://nhs.publishmydata.com/data/metric/96",1.0045,"http://nhs.publishmydata.com/data/metric/182/year/2016/RW3T1","http://nhs.publishmydata.com/data/metric/182",69
"WA160BT",-2.37851355677502,53.3020445823126,2449546,"WA16 0BT","http://nhs.publishmydata.com/id/organisation/nacs/RJN68","Knutsford and District Community Hospital","WA16 0BT","http://nhs.publishmydata.com/data/metric/96/year/2016/RJN68","http://nhs.publishmydata.com/data/metric/96",1.0279,"http://nhs.publishmydata.com/data/metric/182/year/2016/RJN68","http://nhs.publishmydata.com/data/metric/182",67
"WA51QG",-2.61071660004611,53.3939890795543,2456661,"WA5  1QG","http://nhs.publishmydata.com/id/organisation/nacs/RWWWH","Warrington Hospital","WA5 1QG","http://nhs.publishmydata.com/data/metric/96/year/2016/RWWWH","http://nhs.publishmydata.com/data/metric/96",1.1065,"http://nhs.publishmydata.com/data/metric/182/year/2016/RWWWH","http://nhs.publishmydata.com/data/metric/182",54
"WA72DA",-2.69468181653649,53.3232815479055,2459901,"WA7  2DA","http://nhs.publishmydata.com/id/organisation/nacs/RWWHG","Halton General Hospital","WA7 2DA","http://nhs.publishmydata.com/data/metric/96/year/2016/RWWHG","http://nhs.publishmydata.com/data/metric/96",1.1065,"http://nhs.publishmydata.com/data/metric/182/year/2016/RWWHG","http://nhs.publishmydata.com/data/metric/182",54
"WA93DA",-2.7189002883878,53.4395438630666,2464192,"WA9  3DA","http://nhs.publishmydata.com/id/organisation/nacs/RBN02","St Helens Hospital","WA9 3DA","http://nhs.publishmydata.com/data/metric/96/year/2016/RBN02","http://nhs.publishmydata.com/data/metric/96",1.0338,"http://nhs.publishmydata.com/data/metric/182/year/2016/RBN02","http://nhs.publishmydata.com/data/metric/182",82
"WC1E6JD",-0.135384462685468,51.5231601344575,2466354,"WC1E 6JD","http://nhs.publishmydata.com/id/organisation/nacs/RRVRH","Hospital For Tropical Diseases","WC1E 6JD","http://nhs.publishmydata.com/data/metric/96/year/2016/RRVRH","http://nhs.publishmydata.com/data/metric/96",0.7586,"http://nhs.publishmydata.com/data/metric/182/year/2016/RRVRH","http://nhs.publishmydata.com/data/metric/182",82
"WC1N3BG",-0.12197553719554,51.522172880866,2467625,"WC1N 3BG","http://nhs.publishmydata.com/id/organisation/nacs/RRVNQ","National Hospital For Neurology and Neurosurgery, Queen Square","WC1N 3BG","http://nhs.publishmydata.com/data/metric/96/year/2016/RRVNQ","http://nhs.publishmydata.com/data/metric/96",0.7586,"http://nhs.publishmydata.com/data/metric/182/year/2016/RRVNQ","http://nhs.publishmydata.com/data/metric/182",82
"WC1N3HR",-0.1213734864278,51.5217405825992,2467678,"WC1N 3HR","http://nhs.publishmydata.com/id/organisation/nacs/RRV60","The Royal London Hospital For Integrated Medicine","WC1N 3HR","http://nhs.publishmydata.com/data/metric/96/year/2016/RRV60","http://nhs.publishmydata.com/data/metric/96",0.7586,"http://nhs.publishmydata.com/data/metric/182/year/2016/RRV60","http://nhs.publishmydata.com/data/metric/182",82
"WC1X8DA",-0.119163018261132,51.529205119711,2468715,"WC1X 8DA","http://nhs.publishmydata.com/id/organisation/nacs/RRVRN","Royal National Throat, Nose and Ear Hospital","WC1X 8DA","http://nhs.publishmydata.com/data/metric/96/year/2016/RRVRN","http://nhs.publishmydata.com/data/metric/96",0.7586,"http://nhs.publishmydata.com/data/metric/182/year/2016/RRVRN","http://nhs.publishmydata.com/data/metric/182",82
"WC1X8LD",-0.117009798174817,51.5258342695002,2468774,"WC1X 8LD","http://nhs.publishmydata.com/id/organisation/nacs/RRVE1","The Eastman Dental Hospital","WC1X 8LD","http://nhs.publishmydata.com/data/metric/96/year/2016/RRVE1","http://nhs.publishmydata.com/data/metric/96",0.7586,"http://nhs.publishmydata.com/data/metric/182/year/2016/RRVE1","http://nhs.publishmydata.com/data/metric/182",82
"WD180HB",-0.404164737813566,51.6489258593006,2475876,"WD18 0HB","http://nhs.publishmydata.com/id/organisation/nacs/RWG02","Watford General Hospital","WD18 0HB","http://nhs.publishmydata.com/data/metric/96/year/2016/RWG02","http://nhs.publishmydata.com/data/metric/96",0.9378,"http://nhs.publishmydata.com/data/metric/182/year/2016/RWG02","http://nhs.publishmydata.com/data/metric/182",54
"WF134HS",-1.65188036202288,53.7022672615938,2493941,"WF13 4HS","http://nhs.publishmydata.com/id/organisation/nacs/RXF10","Dewsbury and District Hospital","WF13 4HS","http://nhs.publishmydata.com/data/metric/96/year/2016/RXF10","http://nhs.publishmydata.com/data/metric/96",0.9473,"http://nhs.publishmydata.com/data/metric/182/year/2016/RXF10","http://nhs.publishmydata.com/data/metric/182",46
"WF14DG",-1.48855755569005,53.6924343988293,2489282,"WF1  4DG","http://nhs.publishmydata.com/id/organisation/nacs/RXF05","Pinderfields Hospital","WF1 4DG","http://nhs.publishmydata.com/data/metric/96/year/2016/RXF05","http://nhs.publishmydata.com/data/metric/96",0.9473,"http://nhs.publishmydata.com/data/metric/182/year/2016/RXF05","http://nhs.publishmydata.com/data/metric/182",46
"WF81PL",-1.3079836574982,53.690388193026,2503746,"WF8  1PL","http://nhs.publishmydata.com/id/organisation/nacs/RXF03","Pontefract Hospital","WF8 1PL","http://nhs.publishmydata.com/data/metric/96/year/2016/RXF03","http://nhs.publishmydata.com/data/metric/96",0.9473,"http://nhs.publishmydata.com/data/metric/182/year/2016/RXF03","http://nhs.publishmydata.com/data/metric/182",46
"WN12NN",-2.62909041662394,53.5577545982656,2506537,"WN1  2NN","http://nhs.publishmydata.com/id/organisation/nacs/RRF02","Royal Albert Edward Infirmary","WN1 2NN","http://nhs.publishmydata.com/data/metric/96/year/2016/RRF02","http://nhs.publishmydata.com/data/metric/96",1.1153,"http://nhs.publishmydata.com/data/metric/182/year/2016/RRF02","http://nhs.publishmydata.com/data/metric/182",79
"WN69EP",-2.7094944076983,53.5904289002976,2512296,"WN6  9EP","http://nhs.publishmydata.com/id/organisation/nacs/RRF53","Wrightington Hospital","WN6 9EP","http://nhs.publishmydata.com/data/metric/96/year/2016/RRF53","http://nhs.publishmydata.com/data/metric/96",1.1153,"http://nhs.publishmydata.com/data/metric/182/year/2016/RRF53","http://nhs.publishmydata.com/data/metric/182",79
"WN71HS",-2.51225306125668,53.5044278781407,2512515,"WN7  1HS","http://nhs.publishmydata.com/id/organisation/nacs/RRF01","Leigh Infirmary","WN7 1HS","http://nhs.publishmydata.com/data/metric/96/year/2016/RRF01","http://nhs.publishmydata.com/data/metric/96",1.1153,"http://nhs.publishmydata.com/data/metric/182/year/2016/RRF01","http://nhs.publishmydata.com/data/metric/182",79
"WR51DD",-2.1811534926266,52.1912052822303,2523797,"WR5  1DD","http://nhs.publishmydata.com/id/organisation/nacs/RWP50","Worcestershire Royal Hospital","WR5 1DD","http://nhs.publishmydata.com/data/metric/96/year/2016/RWP50","http://nhs.publishmydata.com/data/metric/96",1.1257,"http://nhs.publishmydata.com/data/metric/182/year/2016/RWP50","http://nhs.publishmydata.com/data/metric/182",56
"WS115XY",-2.03060860230228,52.693257357121,2531059,"WS11 5XY","http://nhs.publishmydata.com/id/organisation/nacs/RL4TC","Cannock Chase Hospital","WS11 5XY","http://nhs.publishmydata.com/data/metric/96/year/2016/RL4TC","http://nhs.publishmydata.com/data/metric/96",1.0395,"http://nhs.publishmydata.com/data/metric/182/year/2016/RL4TC","http://nhs.publishmydata.com/data/metric/182",75
"WS136EF",-1.81546324097587,52.6859538959113,2532852,"WS13 6EF","http://nhs.publishmydata.com/id/organisation/nacs/RJF04","Samuel Johnson Community Hospital","WS13 6EF","http://nhs.publishmydata.com/data/metric/96/year/2016/RJF04","http://nhs.publishmydata.com/data/metric/96",0.9653,"http://nhs.publishmydata.com/data/metric/182/year/2016/RJF04","http://nhs.publishmydata.com/data/metric/182",70
"WS29PS",-1.9989182637864,52.5823456718992,2536652,"WS2  9PS","http://nhs.publishmydata.com/id/organisation/nacs/RBK02","Manor Hospital","WS2 9PS","http://nhs.publishmydata.com/data/metric/96/year/2016/RBK02","http://nhs.publishmydata.com/data/metric/96",1.046,"http://nhs.publishmydata.com/data/metric/182/year/2016/RBK02","http://nhs.publishmydata.com/data/metric/182",51
"WV100QP",-2.09554858657674,52.599738005771,2543373,"WV10 0QP","http://nhs.publishmydata.com/id/organisation/nacs/RL403","New Cross Hospital","WV10 0QP","http://nhs.publishmydata.com/data/metric/96/year/2016/RL403","http://nhs.publishmydata.com/data/metric/96",1.0395,"http://nhs.publishmydata.com/data/metric/182/year/2016/RL403","http://nhs.publishmydata.com/data/metric/182",75
"WV14PW",-2.14125000907295,52.5877984509713,2542689,"WV1  4PW","http://nhs.publishmydata.com/id/organisation/nacs/RL4CD","West Park Hospital","WV1 4PW","http://nhs.publishmydata.com/data/metric/96/year/2016/RL4CD","http://nhs.publishmydata.com/data/metric/96",1.0395,"http://nhs.publishmydata.com/data/metric/182/year/2016/RL4CD","http://nhs.publishmydata.com/data/metric/182",75
"YO126QL",-0.434769334163955,54.2817250636465,2560533,"YO12 6QL","http://nhs.publishmydata.com/id/organisation/nacs/RCBCA","Scarborough Hospital","YO12 6QL","http://nhs.publishmydata.com/data/metric/96/year/2016/RCBCA","http://nhs.publishmydata.com/data/metric/96",0.9949,"http://nhs.publishmydata.com/data/metric/182/year/2016/RCBCA","http://nhs.publishmydata.com/data/metric/182",67
"YO126QL",-0.434769334163955,54.2817250636465,2560533,"YO12 6QL","http://nhs.publishmydata.com/id/organisation/nacs/RCBCA","Scarborough Hospital","YO12 6QL","http://nhs.publishmydata.com/data/metric/96/year/2016/RCBCA","http://nhs.publishmydata.com/data/metric/96",0.9949,"http://nhs.publishmydata.com/data/metric/182/year/2016/RCBCA","http://nhs.publishmydata.com/data/metric/182",67
"YO126QL",-0.434769334163955,54.2817250636465,2560533,"YO12 6QL","http://nhs.publishmydata.com/id/organisation/nacs/RCBCA","Scarborough General Hospital","YO12 6QL","http://nhs.publishmydata.com/data/metric/96/year/2016/RCBCA","http://nhs.publishmydata.com/data/metric/96",0.9949,"http://nhs.publishmydata.com/data/metric/182/year/2016/RCBCA","http://nhs.publishmydata.com/data/metric/182",67
"YO126QL",-0.434769334163955,54.2817250636465,2560533,"YO12 6QL","http://nhs.publishmydata.com/id/organisation/nacs/RCBCA","Scarborough General Hospital","YO12 6QL","http://nhs.publishmydata.com/data/metric/96/year/2016/RCBCA","http://nhs.publishmydata.com/data/metric/96",0.9949,"http://nhs.publishmydata.com/data/metric/182/year/2016/RCBCA","http://nhs.publishmydata.com/data/metric/182",67
"YO164QP",-0.216068772878242,54.086331651758,2562724,"YO16 4QP","http://nhs.publishmydata.com/id/organisation/nacs/RCBNH","Bridlington & District Hospital","YO16 4QP","http://nhs.publishmydata.com/data/metric/96/year/2016/RCBNH","http://nhs.publishmydata.com/data/metric/96",0.9949,"http://nhs.publishmydata.com/data/metric/182/year/2016/RCBNH","http://nhs.publishmydata.com/data/metric/182",67
"YO164QP",-0.216068772878242,54.086331651758,2562724,"YO16 4QP","http://nhs.publishmydata.com/id/organisation/nacs/RCBNH","Bridlington And District Hospital","YO16 4QP","http://nhs.publishmydata.com/data/metric/96/year/2016/RCBNH","http://nhs.publishmydata.com/data/metric/96",0.9949,"http://nhs.publishmydata.com/data/metric/182/year/2016/RCBNH","http://nhs.publishmydata.com/data/metric/182",67
"YO164QP",-0.216068772878242,54.086331651758,2562724,"YO16 4QP","http://nhs.publishmydata.com/id/organisation/nacs/RCBNH","Bridlington And District Hospital","YO16 4QP","http://nhs.publishmydata.com/data/metric/96/year/2016/RCBNH","http://nhs.publishmydata.com/data/metric/96",0.9949,"http://nhs.publishmydata.com/data/metric/182/year/2016/RCBNH","http://nhs.publishmydata.com/data/metric/182",67
"YO164QP",-0.216068772878242,54.086331651758,2562724,"YO16 4QP","http://nhs.publishmydata.com/id/organisation/nacs/RCBNH","Bridlington & District Hospital","YO16 4QP","http://nhs.publishmydata.com/data/metric/96/year/2016/RCBNH","http://nhs.publishmydata.com/data/metric/96",0.9949,"http://nhs.publishmydata.com/data/metric/182/year/2016/RCBNH","http://nhs.publishmydata.com/data/metric/182",67
"YO177NG",-0.806557844328192,54.1372626627936,2564324,"YO17 7NG","http://nhs.publishmydata.com/id/organisation/nacs/RCBL8","Malton, Norton & District Hospital","YO17 7NG","http://nhs.publishmydata.com/data/metric/96/year/2016/RCBL8","http://nhs.publishmydata.com/data/metric/96",0.9949,"http://nhs.publishmydata.com/data/metric/182/year/2016/RCBL8","http://nhs.publishmydata.com/data/metric/182",67
"YO211EE",-0.615687247249378,54.4844642049901,2567689,"YO21 1EE","http://nhs.publishmydata.com/id/organisation/nacs/RCBWH","Whitby Hospital - York Teaching Hospital NHS Foundation Trust","YO21 1EE","http://nhs.publishmydata.com/data/metric/96/year/2016/RCBWH","http://nhs.publishmydata.com/data/metric/96",0.9949,"http://nhs.publishmydata.com/data/metric/182/year/2016/RCBWH","http://nhs.publishmydata.com/data/metric/182",67
"YO241HD",-1.10648128928826,53.9436470460261,2569624,"YO24 1HD","http://nhs.publishmydata.com/id/organisation/nacs/RCBTV","St Helens Rehabilitation Hospital","YO24 1HD","http://nhs.publishmydata.com/data/metric/96/year/2016/RCBTV","http://nhs.publishmydata.com/data/metric/96",0.9949,"http://nhs.publishmydata.com/data/metric/182/year/2016/RCBTV","http://nhs.publishmydata.com/data/metric/182",67
"YO318HE",-1.08429365429909,53.9689700145814,2577518,"YO31 8HE","http://nhs.publishmydata.com/id/organisation/nacs/RCB00","York Hospitals Nhs Trust Hq","YO31 8HE","http://nhs.publishmydata.com/data/metric/96/year/2016/RCB00","http://nhs.publishmydata.com/data/metric/96",0.9949,"http://nhs.publishmydata.com/data/metric/182/year/2016/RCB00","http://nhs.publishmydata.com/data/metric/182",67
"YO318HE",-1.08429365429909,53.9689700145814,2577518,"YO31 8HE","http://nhs.publishmydata.com/id/organisation/nacs/RCB55","The York Hospital","YO31 8HE","http://nhs.publishmydata.com/data/metric/96/year/2016/RCB55","http://nhs.publishmydata.com/data/metric/96",0.9949,"http://nhs.publishmydata.com/data/metric/182/year/2016/RCB55","http://nhs.publishmydata.com/data/metric/182",67
"YO318JR",-1.07639868895596,53.9716509543811,2577545,"YO31 8JR","http://nhs.publishmydata.com/id/organisation/nacs/RCBP9","White Cross Rehabilitation Hospital","YO31 8JR","http://nhs.publishmydata.com/data/metric/96/year/2016/RCBP9","http://nhs.publishmydata.com/data/metric/96",0.9949,"http://nhs.publishmydata.com/data/metric/182/year/2016/RCBP9","http://nhs.publishmydata.com/data/metric/182",67
"YO613JD",-1.18933743350787,54.1184170789115,2585162,"YO61 3JD","http://nhs.publishmydata.com/id/organisation/nacs/RCB05","St Monicas Hospital","YO61 3JD","http://nhs.publishmydata.com/data/metric/96/year/2016/RCB05","http://nhs.publishmydata.com/data/metric/96",0.9949,"http://nhs.publishmydata.com/data/metric/182/year/2016/RCB05","http://nhs.publishmydata.com/data/metric/182",67
"YO89BX",-1.07834000955215,53.7775042330517,2589011,"YO8  9BX","http://nhs.publishmydata.com/id/organisation/nacs/RCD6D","The New Selby War Memorial Hospital - Harrogate and District NHS Foundation Trust","YO8 9BX","http://nhs.publishmydata.com/data/metric/96/year/2016/RCD6D","http://nhs.publishmydata.com/data/metric/96",0.9392,"http://nhs.publishmydata.com/data/metric/182/year/2016/RCD6D","http://nhs.publishmydata.com/data/metric/182",78
"YO89BX",-1.07834000955215,53.7775042330517,2589011,"YO8  9BX","http://nhs.publishmydata.com/id/organisation/nacs/RCB07","The New Selby War Memorial Hospital","YO8 9BX","http://nhs.publishmydata.com/data/metric/96/year/2016/RCB07","http://nhs.publishmydata.com/data/metric/96",0.9949,"http://nhs.publishmydata.com/data/metric/182/year/2016/RCB07","http://nhs.publishmydata.com/data/metric/182",67
